{"type":"FeatureCollection","features":[{"id":"0","type":"Feature","properties":{"id":"NG003_3001","name":"Abak","pop":196902,"density":1167.9,"hf":30,"hf10k":1.52,"hf2":2,"hf3":1,"u15":36.3,"disp":51058,"area":168.6},"geometry":{"type":"Polygon","coordinates":[[[7.778,4.9253],[7.7935,4.941],[7.7878,4.9496],[7.7897,4.9666],[7.7796,4.9839],[7.774,4.9831],[7.7678,4.9987],[7.7577,4.9986],[7.741,5.0082],[7.7341,4.9891],[7.7181,4.9911],[7.7088,5.0039],[7.693,5.002],[7.6939,5.0088],[7.6836,5.0113],[7.682,5.0167],[7.6897,5.0237],[7.6917,5.0333],[7.6854,5.0467],[7.6933,5.0486],[7.6949,5.0593],[7.699,5.0615],[7.7128,5.0435],[7.7192,5.048],[7.7107,5.056],[7.7227,5.075],[7.7524,5.0736],[7.7642,5.0666],[7.7774,5.0826],[7.7773,5.0904],[7.7738,5.0903],[7.7778,5.0962],[7.7876,5.0906],[7.7937,5.0795],[7.8106,5.0828],[7.8148,5.0623],[7.834,5.0339],[7.8276,5.0278],[7.8287,4.9861],[7.8187,4.9757],[7.8176,4.9665],[7.8241,4.9553],[7.8157,4.9488],[7.8203,4.9287],[7.8077,4.9262],[7.7981,4.8903],[7.8014,4.8838],[7.7905,4.8815],[7.7825,4.9008],[7.7783,4.8988],[7.7758,4.9027],[7.778,4.9253]]]}},{"id":"1","type":"Feature","properties":{"id":"NG003_3002","name":"Eastern Obolo","pop":38296,"density":242.2,"hf":15,"hf10k":3.92,"hf2":1,"hf3":0,"u15":36.3,"disp":0,"area":158.1},"geometry":{"type":"Polygon","coordinates":[[[7.6672,4.4954],[7.6142,4.4686],[7.6058,4.4703],[7.603,4.4884],[7.5966,4.4966],[7.5796,4.5088],[7.562,4.5139],[7.5809,4.5468],[7.6162,4.5594],[7.6403,4.538],[7.6411,4.5548],[7.6505,4.5511],[7.6736,4.5283],[7.6931,4.5391],[7.6979,4.5472],[7.7243,4.5405],[7.7499,4.5764],[7.8042,4.5712],[7.8109,4.5191],[7.6814,4.4947],[7.6672,4.4954]]]}},{"id":"2","type":"Feature","properties":{"id":"NG003_3003","name":"Eket","pop":256973,"density":1360.4,"hf":47,"hf10k":1.83,"hf2":3,"hf3":2,"u15":36.3,"disp":0,"area":188.9},"geometry":{"type":"Polygon","coordinates":[[[7.9184,4.5648],[7.902,4.5647],[7.8951,4.5881],[7.8932,4.6279],[7.8785,4.656],[7.876,4.6764],[7.8923,4.7136],[7.9342,4.7231],[7.9387,4.7111],[7.9523,4.7049],[7.9658,4.6899],[8.0016,4.6823],[8.0221,4.686],[8.0343,4.6821],[8.0297,4.6606],[8.0099,4.6554],[8.0051,4.6448],[8.0029,4.6021],[7.9729,4.587],[7.9577,4.5845],[7.9471,4.5734],[7.9413,4.5584],[7.9316,4.5598],[7.9219,4.5688],[7.9184,4.5648]]]}},{"id":"3","type":"Feature","properties":{"id":"NG003_3004","name":"Esit Eket","pop":50760,"density":342.5,"hf":18,"hf10k":3.55,"hf2":0,"hf3":0,"u15":36.3,"disp":0,"area":148.2},"geometry":{"type":"Polygon","coordinates":[[[8.0013,4.614],[8.0099,4.6554],[8.0297,4.6606],[8.0343,4.6821],[8.0622,4.6978],[8.0702,4.6943],[8.0779,4.6758],[8.092,4.6723],[8.1032,4.6751],[8.0981,4.6951],[8.1041,4.696],[8.1348,4.6843],[8.1542,4.6672],[8.1558,4.644],[8.1371,4.6014],[8.0671,4.595],[8.0538,4.5977],[8.0291,4.5895],[8.0029,4.6021],[8.0013,4.614]]]}},{"id":"4","type":"Feature","properties":{"id":"NG003_3005","name":"Essien Udim","pop":213603,"density":716.5,"hf":30,"hf10k":1.4,"hf2":2,"hf3":0,"u15":36.3,"disp":0,"area":298.1},"geometry":{"type":"Polygon","coordinates":[[[7.699,5.0615],[7.6933,5.0486],[7.6849,5.0438],[7.6562,5.0364],[7.6371,5.0208],[7.6221,5.0195],[7.6173,5.0289],[7.6194,5.0419],[7.6143,5.0494],[7.5903,5.0549],[7.5591,5.0732],[7.5464,5.0864],[7.5341,5.111],[7.5338,5.1405],[7.5279,5.156],[7.5325,5.1725],[7.5711,5.1648],[7.6012,5.1745],[7.6132,5.1684],[7.628,5.1756],[7.6405,5.1714],[7.6514,5.1755],[7.6584,5.1484],[7.6669,5.1462],[7.6815,5.1555],[7.718,5.143],[7.7241,5.1278],[7.7385,5.1223],[7.7546,5.1418],[7.7549,5.1365],[7.7822,5.1271],[7.7876,5.0906],[7.7778,5.0962],[7.7738,5.0903],[7.7773,5.0904],[7.7774,5.0826],[7.7642,5.0666],[7.7524,5.0736],[7.7227,5.075],[7.7107,5.056],[7.7192,5.048],[7.7128,5.0435],[7.699,5.0615]]]}},{"id":"5","type":"Feature","properties":{"id":"NG003_3006","name":"Etim Ekpo","pop":118328,"density":595.2,"hf":26,"hf10k":2.2,"hf2":1,"hf3":0,"u15":36.3,"disp":0,"area":198.8},"geometry":{"type":"Polygon","coordinates":[[[7.4907,4.8651],[7.4807,4.8826],[7.477,4.908],[7.4808,4.9328],[7.4916,4.9445],[7.4898,4.9603],[7.5205,4.96],[7.5351,4.9645],[7.5523,4.9787],[7.5631,4.9745],[7.573,4.9822],[7.5757,4.9921],[7.5878,4.9988],[7.5836,5.0114],[7.5975,5.0221],[7.6038,5.0498],[7.6143,5.0494],[7.6194,5.0419],[7.6173,5.0289],[7.6221,5.0195],[7.6371,5.0208],[7.6562,5.0364],[7.6849,5.0438],[7.6917,5.0333],[7.6897,5.0237],[7.682,5.0167],[7.6836,5.0113],[7.6939,5.0088],[7.693,5.002],[7.7088,5.0039],[7.7181,4.9911],[7.7166,4.9805],[7.6933,4.9535],[7.6693,4.9539],[7.6546,4.9482],[7.6443,4.9597],[7.6369,4.9598],[7.6329,4.9518],[7.5989,4.9461],[7.5954,4.9394],[7.5642,4.9376],[7.5403,4.9233],[7.5283,4.9056],[7.5315,4.8987],[7.523,4.8885],[7.5241,4.8812],[7.51,4.8746],[7.5073,4.8687],[7.4907,4.8651]]]}},{"id":"6","type":"Feature","properties":{"id":"NG003_3007","name":"Etinan","pop":97074,"density":513.1,"hf":22,"hf10k":2.27,"hf2":2,"hf3":0,"u15":36.3,"disp":0,"area":189.2},"geometry":{"type":"Polygon","coordinates":[[[7.8651,4.8101],[7.8753,4.798],[7.8683,4.792],[7.8737,4.7644],[7.8705,4.7352],[7.8746,4.7209],[7.8911,4.7228],[7.8923,4.7136],[7.876,4.6764],[7.8519,4.6961],[7.8358,4.7004],[7.8265,4.718],[7.8028,4.7211],[7.808,4.7446],[7.7944,4.7673],[7.7998,4.781],[7.7864,4.7961],[7.8311,4.825],[7.8079,4.8578],[7.8066,4.8754],[7.7981,4.8903],[7.8077,4.9262],[7.8203,4.9287],[7.8157,4.9488],[7.8369,4.9713],[7.8487,4.9623],[7.8498,4.9491],[7.8423,4.9417],[7.8444,4.911],[7.8719,4.8928],[7.8627,4.8787],[7.8629,4.8645],[7.8696,4.8557],[7.8673,4.8368],[7.8754,4.8288],[7.8651,4.8101]]]}},{"id":"7","type":"Feature","properties":{"id":"NG003_3008","name":"Ibeno","pop":92167,"density":345.3,"hf":21,"hf10k":2.28,"hf2":1,"hf3":0,"u15":36.3,"disp":0,"area":266.9},"geometry":{"type":"Polygon","coordinates":[[[7.9184,4.5648],[7.9219,4.5688],[7.9316,4.5598],[7.9413,4.5584],[7.9471,4.5734],[7.9577,4.5845],[7.9729,4.587],[7.9988,4.6022],[8.0291,4.5895],[8.0538,4.5977],[8.0671,4.595],[8.1371,4.6014],[8.1818,4.588],[8.2173,4.5944],[8.2486,4.559],[8.3007,4.5548],[8.2931,4.5464],[8.2916,4.5366],[8.2477,4.535],[8.1758,4.5443],[8.0269,4.5429],[7.8109,4.5191],[7.8042,4.5712],[7.9184,4.5648]]]}},{"id":"8","type":"Feature","properties":{"id":"NG003_3009","name":"Ibesikpo Asutan","pop":230921,"density":1315.8,"hf":34,"hf10k":1.47,"hf2":1,"hf3":0,"u15":36.3,"disp":0,"area":175.5},"geometry":{"type":"Polygon","coordinates":[[[8.0298,4.8569],[7.9586,4.8374],[7.9547,4.8278],[7.9549,4.8093],[7.9606,4.7955],[7.9603,4.7834],[7.9543,4.7782],[7.9436,4.806],[7.9261,4.8221],[7.9287,4.8379],[7.9387,4.8487],[7.9275,4.8605],[7.9302,4.875],[7.9163,4.891],[7.9081,4.9138],[7.9162,4.9386],[7.9061,4.9425],[7.9076,4.954],[7.8916,4.9741],[7.8979,5.0083],[7.9118,4.9994],[7.934,5.0013],[7.9646,4.9771],[7.9681,4.9638],[7.9816,4.9529],[7.9912,4.9515],[7.9938,4.9423],[8.0078,4.9343],[7.9985,4.9186],[8.006,4.9066],[8.0188,4.9071],[8.0168,4.8883],[8.0078,4.8688],[8.0164,4.8628],[8.0277,4.8656],[8.0298,4.8569]]]}},{"id":"9","type":"Feature","properties":{"id":"NG003_3010","name":"Ibiono Ibom","pop":159402,"density":476.0,"hf":36,"hf10k":2.26,"hf2":0,"hf3":0,"u15":36.3,"disp":0,"area":334.9},"geometry":{"type":"Polygon","coordinates":[[[7.8702,5.0523],[7.877,5.045],[7.8629,5.0362],[7.8567,5.0264],[7.8402,5.0273],[7.8291,5.0403],[7.8365,5.0586],[7.8345,5.1365],[7.8406,5.15],[7.8341,5.1584],[7.8426,5.174],[7.8457,5.1944],[7.838,5.2157],[7.844,5.2473],[7.8353,5.2502],[7.8291,5.2685],[7.8121,5.2784],[7.807,5.2893],[7.8422,5.3358],[7.8629,5.3151],[7.8921,5.3165],[7.9129,5.304],[7.9297,5.2851],[7.9401,5.2497],[7.9664,5.2315],[7.9733,5.2119],[7.9798,5.2072],[7.9633,5.1801],[7.9497,5.1838],[7.9392,5.1764],[7.9431,5.1533],[7.9339,5.1402],[7.92,5.1357],[7.924,5.1246],[7.9146,5.1016],[7.9201,5.0824],[7.9104,5.0743],[7.9035,5.0766],[7.8838,5.0706],[7.8702,5.0523]]]}},{"id":"10","type":"Feature","properties":{"id":"NG003_3011","name":"Ika","pop":63588,"density":570.8,"hf":19,"hf10k":2.99,"hf2":0,"hf3":0,"u15":36.3,"disp":0,"area":111.4},"geometry":{"type":"Polygon","coordinates":[[[7.573,4.9822],[7.5631,4.9745],[7.5523,4.9787],[7.5351,4.9645],[7.511,4.9579],[7.4811,4.9611],[7.4603,4.9777],[7.4711,4.9959],[7.4836,4.9963],[7.4919,5.0078],[7.5064,5.0133],[7.512,5.026],[7.5097,5.0345],[7.533,5.0423],[7.5341,5.0481],[7.5189,5.0532],[7.538,5.0661],[7.5464,5.0864],[7.5591,5.0732],[7.6038,5.0498],[7.5975,5.0221],[7.5836,5.0114],[7.5878,4.9988],[7.5757,4.9921],[7.573,4.9822]]]}},{"id":"11","type":"Feature","properties":{"id":"NG003_3012","name":"Ikono","pop":99276,"density":502.9,"hf":25,"hf10k":2.52,"hf2":0,"hf3":0,"u15":36.3,"disp":0,"area":197.4},"geometry":{"type":"Polygon","coordinates":[[[7.8365,5.0586],[7.829,5.0403],[7.8212,5.0493],[7.8106,5.0828],[7.7937,5.0795],[7.7848,5.1],[7.7822,5.1271],[7.7549,5.1365],[7.7606,5.1562],[7.7711,5.1658],[7.7714,5.2229],[7.7317,5.2621],[7.722,5.2772],[7.7208,5.2969],[7.7456,5.296],[7.7789,5.2858],[7.7969,5.2959],[7.807,5.2893],[7.8121,5.2784],[7.8291,5.2685],[7.8353,5.2502],[7.844,5.2473],[7.838,5.2157],[7.8457,5.1944],[7.8426,5.174],[7.8341,5.1584],[7.8406,5.15],[7.8345,5.1365],[7.8365,5.0586]]]}},{"id":"12","type":"Feature","properties":{"id":"NG003_3013","name":"Ikot Abasi","pop":133577,"density":478.8,"hf":32,"hf10k":2.4,"hf2":1,"hf3":0,"u15":36.3,"disp":0,"area":279.0},"geometry":{"type":"Polygon","coordinates":[[[7.562,4.5139],[7.5277,4.55],[7.5449,4.5691],[7.5467,4.5852],[7.5319,4.6041],[7.5311,4.6173],[7.5225,4.6308],[7.528,4.6508],[7.5259,4.6637],[7.5408,4.6545],[7.5637,4.661],[7.5865,4.6546],[7.6066,4.6637],[7.612,4.6608],[7.6233,4.6702],[7.6308,4.6689],[7.6375,4.6736],[7.6391,4.6863],[7.6692,4.6862],[7.6835,4.704],[7.6918,4.7028],[7.7034,4.7135],[7.7092,4.711],[7.7117,4.6922],[7.7034,4.6688],[7.7078,4.6631],[7.7014,4.6517],[7.7019,4.6288],[7.7071,4.6248],[7.7191,4.5904],[7.6994,4.5886],[7.6842,4.5769],[7.6979,4.5472],[7.6931,4.5391],[7.6736,4.5283],[7.6505,4.5511],[7.6411,4.5548],[7.6403,4.538],[7.6162,4.5594],[7.5809,4.5468],[7.562,4.5139]]]}},{"id":"13","type":"Feature","properties":{"id":"NG003_3014","name":"Ikot Ekpene","pop":284962,"density":1771.1,"hf":40,"hf10k":1.4,"hf2":1,"hf3":2,"u15":36.3,"disp":0,"area":160.9},"geometry":{"type":"Polygon","coordinates":[[[7.6471,5.2296],[7.6552,5.2475],[7.6865,5.2542],[7.722,5.2772],[7.7714,5.2229],[7.7699,5.1622],[7.7606,5.1562],[7.7572,5.1416],[7.7385,5.1223],[7.7241,5.1278],[7.718,5.143],[7.6815,5.1555],[7.6669,5.1462],[7.6584,5.1484],[7.6472,5.1967],[7.6512,5.2061],[7.6471,5.2296]]]}},{"id":"14","type":"Feature","properties":{"id":"NG003_3015","name":"Ini","pop":95886,"density":226.9,"hf":25,"hf10k":2.61,"hf2":1,"hf3":0,"u15":37.0,"disp":0,"area":422.5},"geometry":{"type":"Polygon","coordinates":[[[7.7106,5.5194],[7.7136,5.5119],[7.7341,5.5178],[7.7572,5.5105],[7.7614,5.488],[7.7782,5.4731],[7.7888,5.4444],[7.809,5.4278],[7.8636,5.4202],[7.884,5.3845],[7.8761,5.3689],[7.9033,5.3431],[7.9017,5.3356],[7.8965,5.3333],[7.8488,5.3444],[7.842,5.3409],[7.8133,5.2929],[7.8054,5.2895],[7.7969,5.2959],[7.7789,5.2858],[7.7456,5.296],[7.7177,5.2993],[7.7145,5.2952],[7.709,5.297],[7.7075,5.3045],[7.6959,5.3037],[7.687,5.3224],[7.6842,5.3456],[7.6667,5.3469],[7.6705,5.3519],[7.6609,5.3671],[7.6248,5.3645],[7.6196,5.3717],[7.622,5.3881],[7.6427,5.434],[7.6569,5.4456],[7.6678,5.4474],[7.7,5.4315],[7.7047,5.4829],[7.6901,5.5059],[7.6959,5.5183],[7.7106,5.5194]]]}},{"id":"15","type":"Feature","properties":{"id":"NG003_3016","name":"Itu","pop":173480,"density":888.3,"hf":23,"hf10k":1.33,"hf2":1,"hf3":2,"u15":36.3,"disp":0,"area":195.3},"geometry":{"type":"Polygon","coordinates":[[[7.8979,5.0406],[7.8952,5.0313],[7.8839,5.027],[7.8792,5.0442],[7.8703,5.0532],[7.8838,5.0706],[7.9035,5.0766],[7.9104,5.0743],[7.9201,5.0824],[7.9146,5.1016],[7.924,5.1246],[7.92,5.1357],[7.9339,5.1402],[7.9431,5.1533],[7.9392,5.1764],[7.9429,5.1815],[7.9633,5.1801],[7.9798,5.2072],[7.9927,5.2067],[8.0033,5.2192],[8.0168,5.247],[8.0416,5.2346],[8.0653,5.1988],[8.0649,5.1452],[8.0839,5.1255],[8.0646,5.1314],[8.0509,5.1096],[8.0199,5.1011],[8.0149,5.1166],[8.0045,5.1187],[7.9995,5.1094],[7.9827,5.1175],[7.97,5.1084],[7.9661,5.1119],[7.9388,5.0927],[7.9295,5.0586],[7.8979,5.0406]]]}},{"id":"16","type":"Feature","properties":{"id":"NG003_3017","name":"Mbo","pop":71203,"density":239.5,"hf":22,"hf10k":3.09,"hf2":0,"hf3":0,"u15":36.3,"disp":0,"area":297.3},"geometry":{"type":"Polygon","coordinates":[[[8.3007,4.5548],[8.2486,4.559],[8.2173,4.5944],[8.1818,4.588],[8.1371,4.6014],[8.1558,4.644],[8.1542,4.6672],[8.1739,4.682],[8.188,4.6801],[8.1936,4.6745],[8.2192,4.6755],[8.2245,4.687],[8.2098,4.6861],[8.2136,4.7004],[8.2017,4.705],[8.2317,4.7204],[8.2453,4.7201],[8.2402,4.7365],[8.2606,4.7465],[8.2786,4.7272],[8.3199,4.7158],[8.3288,4.6922],[8.326,4.6649],[8.344,4.6068],[8.3349,4.5897],[8.3007,4.5548]]]}},{"id":"17","type":"Feature","properties":{"id":"NG003_3018","name":"Mkpat Enin","pop":117263,"density":348.6,"hf":30,"hf10k":2.56,"hf2":2,"hf3":0,"u15":36.3,"disp":0,"area":336.4},"geometry":{"type":"Polygon","coordinates":[[[7.8031,4.6813],[7.826,4.6567],[7.8153,4.6568],[7.815,4.6419],[7.8048,4.6161],[7.8094,4.578],[7.8042,4.5712],[7.7499,4.5764],[7.7243,4.5405],[7.6979,4.5472],[7.6842,4.5769],[7.6994,4.5886],[7.7191,4.5904],[7.7071,4.6248],[7.7019,4.6288],[7.7014,4.6517],[7.7078,4.6631],[7.7034,4.6688],[7.7117,4.6922],[7.7092,4.711],[7.7034,4.7135],[7.7007,4.7228],[7.7105,4.7384],[7.7045,4.746],[7.6953,4.7433],[7.7296,4.7984],[7.784,4.8655],[7.7905,4.8815],[7.8014,4.8838],[7.8066,4.8754],[7.8079,4.8578],[7.8311,4.825],[7.7864,4.7961],[7.7998,4.781],[7.7944,4.7673],[7.808,4.7446],[7.8005,4.7142],[7.8074,4.7169],[7.8117,4.7093],[7.8031,4.6813]]]}},{"id":"18","type":"Feature","properties":{"id":"NG003_3019","name":"Nsit Atai","pop":68607,"density":459.5,"hf":15,"hf10k":2.19,"hf2":1,"hf3":0,"u15":36.3,"disp":0,"area":149.3},"geometry":{"type":"Polygon","coordinates":[[[8.0711,4.7796],[8.0715,4.7671],[8.065,4.7566],[8.0535,4.7497],[8.0465,4.7542],[8.0216,4.7516],[8.0102,4.7601],[7.9911,4.7866],[7.9849,4.7851],[7.9751,4.8012],[7.9808,4.8084],[7.9712,4.8223],[7.9777,4.8321],[7.9765,4.8384],[8.0298,4.8569],[8.0277,4.8656],[8.0164,4.8628],[8.0078,4.8688],[8.0168,4.8883],[8.0189,4.9072],[8.0619,4.8847],[8.1003,4.8835],[8.0805,4.8345],[8.087,4.8174],[8.0877,4.7929],[8.0711,4.7796]]]}},{"id":"19","type":"Feature","properties":{"id":"NG003_3020","name":"Nsit Ibom","pop":122392,"density":846.4,"hf":25,"hf10k":2.04,"hf2":0,"hf3":0,"u15":36.3,"disp":0,"area":144.6},"geometry":{"type":"Polygon","coordinates":[[[7.8651,4.8101],[7.8754,4.8288],[7.8673,4.8368],[7.8696,4.8557],[7.8629,4.8645],[7.8627,4.8787],[7.8719,4.8928],[7.8444,4.911],[7.8423,4.9417],[7.8498,4.9491],[7.8487,4.9623],[7.8369,4.9713],[7.8238,4.958],[7.8176,4.9665],[7.8222,4.9809],[7.8543,4.9933],[7.8621,5.0105],[7.8681,5.0118],[7.8788,5.0088],[7.8823,4.9971],[7.8933,4.9898],[7.8916,4.9741],[7.9076,4.954],[7.9061,4.9425],[7.9162,4.9386],[7.9081,4.9138],[7.9163,4.891],[7.9302,4.875],[7.9275,4.8605],[7.9387,4.8487],[7.9287,4.8379],[7.9261,4.8221],[7.9132,4.8196],[7.8919,4.8036],[7.8753,4.798],[7.8651,4.8101]]]}},{"id":"20","type":"Feature","properties":{"id":"NG003_3021","name":"Nsit Ubium","pop":94412,"density":460.1,"hf":29,"hf10k":3.07,"hf2":2,"hf3":0,"u15":36.3,"disp":0,"area":205.2},"geometry":{"type":"Polygon","coordinates":[[[8.0216,4.7516],[8.0497,4.753],[8.0523,4.7183],[8.0622,4.6978],[8.0343,4.6821],[8.0221,4.686],[8.0016,4.6823],[7.9658,4.6899],[7.9523,4.7049],[7.9387,4.7111],[7.9342,4.7231],[7.8978,4.7137],[7.8923,4.7136],[7.8911,4.7228],[7.8746,4.7209],[7.8705,4.7352],[7.8733,4.7707],[7.8683,4.792],[7.9132,4.8196],[7.9261,4.8221],[7.9436,4.806],[7.9543,4.7782],[7.9603,4.7834],[7.9606,4.7955],[7.9549,4.8093],[7.9547,4.8278],[7.9586,4.8374],[7.9761,4.8379],[7.9777,4.8321],[7.9712,4.8223],[7.9808,4.8084],[7.9751,4.8012],[7.9849,4.7851],[7.9911,4.7866],[8.0102,4.7601],[8.0216,4.7516]]]}},{"id":"21","type":"Feature","properties":{"id":"NG003_3022","name":"Obot Akara","pop":132695,"density":523.2,"hf":40,"hf10k":3.01,"hf2":1,"hf3":0,"u15":36.4,"disp":0,"area":253.6},"geometry":{"type":"Polygon","coordinates":[[[7.6472,5.1967],[7.6525,5.1772],[7.6405,5.1714],[7.628,5.1756],[7.6132,5.1684],[7.6012,5.1745],[7.5633,5.1649],[7.5325,5.1725],[7.5401,5.1936],[7.5424,5.256],[7.5531,5.2728],[7.5345,5.3009],[7.5378,5.3073],[7.5562,5.3063],[7.5721,5.3243],[7.5916,5.3187],[7.603,5.3269],[7.61,5.3206],[7.6255,5.3184],[7.6489,5.3249],[7.6667,5.3469],[7.6842,5.3456],[7.687,5.3224],[7.6959,5.3037],[7.7075,5.3045],[7.709,5.297],[7.7208,5.2969],[7.722,5.2772],[7.6865,5.2542],[7.6552,5.2475],[7.6471,5.2296],[7.6512,5.2061],[7.6472,5.1967]]]}},{"id":"22","type":"Feature","properties":{"id":"NG003_3023","name":"Okobo","pop":78289,"density":258.0,"hf":22,"hf10k":2.81,"hf2":1,"hf3":0,"u15":36.3,"disp":0,"area":303.5},"geometry":{"type":"Polygon","coordinates":[[[8.116,4.7404],[8.1022,4.7176],[8.0981,4.6951],[8.1032,4.6751],[8.092,4.6723],[8.0779,4.6758],[8.0702,4.6943],[8.0622,4.6978],[8.0488,4.7346],[8.052,4.7498],[8.065,4.7566],[8.0715,4.7671],[8.0711,4.7796],[8.0877,4.7929],[8.087,4.8174],[8.0805,4.8345],[8.1003,4.8835],[8.098,4.8963],[8.0829,4.9183],[8.0909,4.9335],[8.1227,4.9657],[8.1458,4.964],[8.1613,4.9693],[8.1839,4.9654],[8.1959,4.9544],[8.184,4.894],[8.2144,4.8616],[8.2051,4.827],[8.2152,4.8208],[8.205,4.8097],[8.1864,4.8157],[8.1747,4.7751],[8.1617,4.768],[8.1426,4.7665],[8.1272,4.7727],[8.1181,4.7558],[8.116,4.7404]]]}},{"id":"23","type":"Feature","properties":{"id":"NG003_3024","name":"Onna","pop":65377,"density":512.4,"hf":30,"hf10k":4.59,"hf2":2,"hf3":0,"u15":36.3,"disp":0,"area":127.6},"geometry":{"type":"Polygon","coordinates":[[[7.8951,4.5881],[7.902,4.5647],[7.8042,4.5712],[7.8094,4.578],[7.8048,4.6161],[7.815,4.6419],[7.8153,4.6568],[7.826,4.6567],[7.8031,4.6813],[7.8117,4.7093],[7.8074,4.7169],[7.8005,4.7142],[7.8028,4.7211],[7.8265,4.718],[7.8358,4.7004],[7.8519,4.6961],[7.876,4.6764],[7.8785,4.656],[7.8932,4.6279],[7.8951,4.5881]]]}},{"id":"24","type":"Feature","properties":{"id":"NG003_3025","name":"Oron","pop":118064,"density":805.9,"hf":27,"hf10k":2.29,"hf2":2,"hf3":1,"u15":36.4,"disp":0,"area":146.5},"geometry":{"type":"Polygon","coordinates":[[[8.3011,4.7723],[8.2673,4.7749],[8.2595,4.7717],[8.2502,4.7816],[8.2275,4.7754],[8.2103,4.7842],[8.1897,4.7839],[8.1807,4.7921],[8.1872,4.8164],[8.205,4.8097],[8.2152,4.8208],[8.2051,4.827],[8.2144,4.8616],[8.184,4.894],[8.1959,4.9544],[8.209,4.9415],[8.23,4.9305],[8.2448,4.8872],[8.2629,4.8771],[8.2805,4.8365],[8.3022,4.8172],[8.3095,4.8042],[8.3022,4.7904],[8.3011,4.7723]]]}},{"id":"25","type":"Feature","properties":{"id":"NG003_3026","name":"Oruk Anam","pop":230765,"density":429.1,"hf":30,"hf10k":1.3,"hf2":2,"hf3":0,"u15":36.3,"disp":0,"area":537.8},"geometry":{"type":"Polygon","coordinates":[[[7.6953,4.7433],[7.7045,4.746],[7.7105,4.7384],[7.7007,4.7228],[7.7034,4.7135],[7.6918,4.7028],[7.6835,4.704],[7.6692,4.6862],[7.6391,4.6863],[7.6375,4.6736],[7.6308,4.6689],[7.6233,4.6702],[7.612,4.6608],[7.6066,4.6637],[7.5865,4.6546],[7.5637,4.661],[7.5408,4.6545],[7.5259,4.6637],[7.5226,4.6709],[7.5423,4.7301],[7.5316,4.7684],[7.5096,4.7852],[7.5118,4.7931],[7.5381,4.8038],[7.5464,4.8066],[7.5596,4.8031],[7.5702,4.8268],[7.5984,4.8414],[7.614,4.8329],[7.6303,4.8144],[7.6376,4.8216],[7.638,4.8314],[7.6528,4.838],[7.6589,4.8594],[7.672,4.8731],[7.6489,4.8878],[7.6449,4.8982],[7.6559,4.9091],[7.6834,4.921],[7.7007,4.9467],[7.7295,4.96],[7.7293,4.9656],[7.7533,4.9846],[7.7577,4.9986],[7.7678,4.9987],[7.774,4.9831],[7.7796,4.9839],[7.7897,4.9666],[7.7878,4.9496],[7.7935,4.941],[7.778,4.9253],[7.7758,4.9027],[7.7783,4.8988],[7.7825,4.9008],[7.7905,4.8815],[7.784,4.8655],[7.7296,4.7984],[7.6953,4.7433]]]}},{"id":"26","type":"Feature","properties":{"id":"NG003_3027","name":"Udung Uko","pop":21318,"density":322.5,"hf":12,"hf10k":5.63,"hf2":0,"hf3":0,"u15":36.3,"disp":0,"area":66.1},"geometry":{"type":"Polygon","coordinates":[[[8.2402,4.7365],[8.2453,4.7201],[8.2317,4.7204],[8.2017,4.705],[8.2076,4.7295],[8.2087,4.7503],[8.2016,4.763],[8.2061,4.7688],[8.2246,4.7776],[8.2502,4.7816],[8.2595,4.7717],[8.2673,4.7749],[8.3011,4.7723],[8.3126,4.7621],[8.3185,4.7473],[8.3158,4.7364],[8.3199,4.7158],[8.2786,4.7272],[8.2606,4.7465],[8.2402,4.7365]]]}},{"id":"27","type":"Feature","properties":{"id":"NG003_3028","name":"Ukanafun","pop":121945,"density":496.7,"hf":34,"hf10k":2.79,"hf2":0,"hf3":1,"u15":36.3,"disp":0,"area":245.5},"geometry":{"type":"Polygon","coordinates":[[[7.5118,4.7931],[7.5115,4.8073],[7.4951,4.8283],[7.5007,4.8343],[7.4993,4.8551],[7.4907,4.8651],[7.5073,4.8687],[7.51,4.8746],[7.5241,4.8812],[7.523,4.8885],[7.5315,4.8987],[7.5283,4.9056],[7.5403,4.9233],[7.5642,4.9376],[7.5954,4.9394],[7.5989,4.9461],[7.6329,4.9518],[7.6369,4.9598],[7.6443,4.9597],[7.6546,4.9482],[7.6693,4.9539],[7.6933,4.9535],[7.7166,4.9805],[7.7181,4.9911],[7.7341,4.9891],[7.7385,4.9924],[7.741,5.0082],[7.7574,4.9993],[7.7533,4.9846],[7.7293,4.9656],[7.7295,4.96],[7.7007,4.9467],[7.6834,4.921],[7.6559,4.9091],[7.6449,4.8982],[7.6489,4.8878],[7.672,4.8731],[7.6589,4.8594],[7.6528,4.838],[7.638,4.8314],[7.6376,4.8216],[7.6303,4.8144],[7.614,4.8329],[7.5984,4.8414],[7.5702,4.8268],[7.5596,4.8031],[7.5464,4.8066],[7.5118,4.7931]]]}},{"id":"28","type":"Feature","properties":{"id":"NG003_3029","name":"Uruan","pop":118368,"density":386.7,"hf":18,"hf10k":1.52,"hf2":1,"hf3":0,"u15":36.3,"disp":0,"area":306.1},"geometry":{"type":"Polygon","coordinates":[[[8.0829,4.9183],[8.098,4.8963],[8.0998,4.8842],[8.0619,4.8847],[8.0189,4.9072],[8.006,4.9066],[7.9985,4.9186],[8.0078,4.9343],[7.9938,4.9423],[7.9912,4.9515],[7.9938,4.9596],[8.0244,4.9816],[8.026,4.9968],[8.0321,5.0026],[8.0319,5.0214],[8.0142,5.0127],[8.0037,5.0145],[8.0009,5.0321],[7.9842,5.0511],[7.9849,5.0599],[7.9742,5.0679],[7.9349,5.0768],[7.9388,5.0927],[7.9572,5.1075],[7.9661,5.1119],[7.97,5.1084],[7.9827,5.1175],[7.9995,5.1094],[8.0045,5.1187],[8.0149,5.1166],[8.0199,5.1011],[8.0509,5.1096],[8.0646,5.1314],[8.0839,5.1255],[8.0952,5.1152],[8.0993,5.1071],[8.0982,5.043],[8.1026,5.0238],[8.1348,4.9728],[8.1421,4.9683],[8.1613,4.9693],[8.1458,4.964],[8.1227,4.9657],[8.0909,4.9335],[8.0829,4.9183]]]}},{"id":"29","type":"Feature","properties":{"id":"NG003_3030","name":"Urue Offong/Oruko","pop":46707,"density":402.3,"hf":18,"hf10k":3.85,"hf2":1,"hf3":0,"u15":36.3,"disp":0,"area":116.1},"geometry":{"type":"Polygon","coordinates":[[[8.1542,4.6672],[8.1348,4.6843],[8.0991,4.6958],[8.1022,4.7176],[8.1188,4.743],[8.1181,4.7558],[8.1272,4.7727],[8.1426,4.7665],[8.1617,4.768],[8.1747,4.7751],[8.1807,4.7921],[8.1897,4.7839],[8.2103,4.7842],[8.2246,4.7776],[8.2016,4.763],[8.2087,4.7463],[8.2017,4.705],[8.2136,4.7004],[8.2098,4.6861],[8.2245,4.687],[8.2192,4.6755],[8.1936,4.6745],[8.188,4.6801],[8.1739,4.682],[8.1542,4.6672]]]}},{"id":"30","type":"Feature","properties":{"id":"NG003_3031","name":"Uyo","pop":568416,"density":4074.7,"hf":74,"hf10k":1.3,"hf2":2,"hf3":15,"u15":36.3,"disp":0,"area":139.5},"geometry":{"type":"Polygon","coordinates":[[[7.8402,5.0273],[7.8567,5.0264],[7.8629,5.0362],[7.877,5.045],[7.8839,5.027],[7.8952,5.0313],[7.8971,5.0404],[7.9295,5.0586],[7.9349,5.0768],[7.9806,5.0636],[7.9849,5.0599],[7.9842,5.0511],[8.0009,5.0321],[8.0037,5.0145],[8.0142,5.0127],[8.0319,5.0214],[8.0321,5.0026],[8.026,4.9968],[8.0244,4.9816],[7.9938,4.9596],[7.9912,4.9515],[7.9816,4.9529],[7.9681,4.9638],[7.9646,4.9771],[7.934,5.0013],[7.9118,4.9994],[7.9017,5.0091],[7.8979,5.0083],[7.8923,4.9912],[7.8823,4.9971],[7.8788,5.0088],[7.8681,5.0118],[7.8621,5.0105],[7.8543,4.9933],[7.8287,4.9861],[7.8276,5.0278],[7.834,5.0339],[7.8402,5.0273]]]}}]}