{"type":"FeatureCollection","features":[{"id":"0","type":"Feature","properties":{"id":"NG007_7001","name":"Ado","pop":148330,"density":149.5,"hf":52,"hf10k":3.51,"hf2":1,"hf3":0,"u15":44.9,"disp":0,"area":991.9},"geometry":{"type":"Polygon","coordinates":[[[8.1646,6.9862],[8.1919,6.9394],[8.1975,6.9089],[8.1927,6.9011],[8.1235,6.8961],[8.0881,6.8704],[8.0853,6.8622],[8.0966,6.8509],[8.1099,6.8616],[8.1186,6.8002],[8.146,6.779],[8.1603,6.7611],[8.1471,6.7429],[8.1444,6.7252],[8.1276,6.7116],[8.104,6.712],[8.0985,6.707],[8.032,6.7325],[8.02,6.7333],[8.0093,6.725],[7.9844,6.7205],[7.9745,6.7113],[7.9746,6.6903],[7.9783,6.6479],[7.9871,6.6335],[7.9884,6.618],[7.9732,6.5968],[7.9592,6.5908],[7.9552,6.5834],[7.9508,6.5431],[7.9329,6.5415],[7.8781,6.5617],[7.8558,6.5808],[7.844,6.6085],[7.8336,6.6194],[7.8318,6.6385],[7.8177,6.6375],[7.811,6.6457],[7.8308,6.6619],[7.856,6.7001],[7.8749,6.741],[7.8782,6.7602],[7.9034,6.7815],[7.8876,6.7893],[7.8897,6.8345],[7.9641,6.9144],[7.9382,6.9659],[7.9885,6.9835],[8.0868,6.9692],[8.1646,6.9862]]]}},{"id":"1","type":"Feature","properties":{"id":"NG007_7002","name":"Agatu","pop":93521,"density":87.8,"hf":68,"hf10k":7.27,"hf2":1,"hf3":0,"u15":45.0,"disp":19,"area":1065.2},"geometry":{"type":"Polygon","coordinates":[[[8.1138,7.8639],[8.1831,7.8532],[8.2152,7.8346],[8.1867,7.8101],[8.1572,7.803],[8.1351,7.7907],[8.0893,7.7486],[8.0382,7.7367],[8.0265,7.7027],[7.9995,7.7091],[7.9985,7.7197],[7.9748,7.7422],[7.9687,7.7666],[7.9776,7.7855],[7.9386,7.7965],[7.9141,7.7801],[7.8477,7.7954],[7.8056,7.7895],[7.7921,7.765],[7.7502,7.7518],[7.7447,7.7687],[7.6929,7.8386],[7.6636,7.9059],[7.6768,8.0145],[7.7607,8.0034],[7.8384,7.9853],[7.877,7.9834],[7.9729,7.9392],[8.0724,7.8774],[8.1138,7.8639]]]}},{"id":"2","type":"Feature","properties":{"id":"NG007_7003","name":"Apa","pop":137248,"density":128.5,"hf":96,"hf10k":6.99,"hf2":1,"hf3":0,"u15":45.0,"disp":0,"area":1068.3},"geometry":{"type":"Polygon","coordinates":[[[7.9972,7.5382],[7.8548,7.4459],[7.8159,7.4088],[7.7922,7.4099],[7.7929,7.4149],[7.7762,7.4195],[7.7641,7.4337],[7.7558,7.5304],[7.7374,7.5391],[7.7362,7.5994],[7.7243,7.6205],[7.7326,7.639],[7.7524,7.6397],[7.7547,7.6477],[7.7502,7.7518],[7.7921,7.765],[7.8056,7.7895],[7.8477,7.7954],[7.9141,7.7801],[7.9386,7.7965],[7.9776,7.7855],[7.9687,7.7666],[7.971,7.7531],[7.9748,7.7422],[7.9985,7.7197],[7.9995,7.7091],[8.0627,7.6905],[8.0768,7.6119],[7.9972,7.5382]]]}},{"id":"3","type":"Feature","properties":{"id":"NG007_7004","name":"Buruku","pop":525004,"density":383.7,"hf":124,"hf10k":2.36,"hf2":1,"hf3":0,"u15":45.0,"disp":0,"area":1368.2},"geometry":{"type":"Polygon","coordinates":[[[9.2463,7.2433],[9.2512,7.2379],[9.2712,7.236],[9.3156,7.2389],[9.3167,7.2191],[9.2738,7.1785],[9.281,7.1547],[9.2972,7.1383],[9.2987,7.1307],[9.2928,7.1179],[9.2964,7.1091],[9.3134,7.0981],[9.3039,7.0876],[9.3076,7.0772],[9.3029,7.0679],[9.2916,7.0582],[9.2844,7.0605],[9.2745,7.0497],[9.2605,7.0575],[9.2534,7.0923],[9.2064,7.0743],[9.1926,7.0734],[9.1435,7.0517],[9.1375,7.0572],[9.1202,7.0595],[9.1088,7.0685],[9.0612,7.0406],[9.0395,7.0473],[9.0358,7.055],[9.02,7.0653],[9.0167,7.0729],[9.0212,7.088],[9.0484,7.1186],[9.077,7.1283],[9.0608,7.1566],[9.0742,7.1735],[9.1065,7.1553],[9.1291,7.165],[9.1237,7.1838],[9.1039,7.2094],[9.1068,7.2394],[9.1257,7.2461],[9.1518,7.2796],[9.1694,7.2735],[9.1872,7.2812],[9.1818,7.3151],[9.1916,7.3316],[9.1915,7.35],[9.1812,7.3505],[9.1843,7.368],[9.1767,7.3673],[9.169,7.3844],[9.1612,7.3935],[9.1485,7.3962],[9.1396,7.4133],[9.1315,7.4061],[9.1121,7.4167],[9.119,7.4301],[9.116,7.4494],[9.109,7.4582],[9.0936,7.4602],[9.077,7.4819],[9.0303,7.4831],[9.0184,7.4899],[8.9729,7.4954],[8.9665,7.515],[8.9504,7.5184],[8.947,7.5288],[8.9497,7.5458],[8.9424,7.5509],[8.9429,7.5591],[8.9608,7.5809],[8.958,7.6199],[8.9716,7.6482],[8.9648,7.6644],[8.9667,7.6776],[8.9802,7.679],[8.9926,7.6639],[8.9907,7.6496],[8.9978,7.6371],[8.9969,7.5986],[9.0081,7.5716],[9.0222,7.5616],[9.0436,7.5722],[9.1019,7.6197],[9.1318,7.6308],[9.1472,7.6132],[9.1527,7.5972],[9.1582,7.5475],[9.164,7.5357],[9.1909,7.5148],[9.2162,7.5086],[9.2235,7.512],[9.2475,7.4914],[9.2673,7.4588],[9.2944,7.466],[9.3023,7.463],[9.3273,7.4757],[9.3775,7.4839],[9.4062,7.4719],[9.4381,7.4725],[9.4349,7.4571],[9.4085,7.4506],[9.389,7.4314],[9.3901,7.4117],[9.3729,7.3961],[9.361,7.4027],[9.3473,7.3948],[9.3492,7.3829],[9.3714,7.357],[9.349,7.3497],[9.3487,7.3396],[9.3246,7.3373],[9.3182,7.3327],[9.3175,7.321],[9.2924,7.3097],[9.2735,7.2787],[9.2571,7.2733],[9.2537,7.2531],[9.2463,7.2433]]]}},{"id":"4","type":"Feature","properties":{"id":"NG007_7005","name":"Gboko","pop":793377,"density":491.0,"hf":164,"hf10k":2.07,"hf2":3,"hf3":2,"u15":45.0,"disp":2000,"area":1615.9},"geometry":{"type":"Polygon","coordinates":[[[9.0936,7.4602],[9.109,7.4582],[9.1181,7.4449],[9.119,7.4301],[9.1121,7.4167],[9.1315,7.4061],[9.1396,7.4133],[9.1485,7.3962],[9.1612,7.3935],[9.169,7.3844],[9.1767,7.3673],[9.1843,7.368],[9.1812,7.3505],[9.1915,7.35],[9.1916,7.3316],[9.1818,7.3151],[9.1872,7.2812],[9.1694,7.2735],[9.1518,7.2796],[9.1257,7.2461],[9.1068,7.2394],[9.1039,7.2094],[9.0625,7.2247],[9.0363,7.2473],[9.0053,7.2425],[8.9844,7.2842],[8.9583,7.2763],[8.9421,7.287],[8.9274,7.2742],[8.9037,7.2763],[8.8696,7.2562],[8.8732,7.2341],[8.8536,7.2137],[8.8416,7.1871],[8.8262,7.1822],[8.7566,7.1831],[8.7335,7.1789],[8.6941,7.2427],[8.6687,7.3088],[8.6393,7.3565],[8.6541,7.4177],[8.655,7.4684],[8.6468,7.489],[8.6875,7.5005],[8.6946,7.5119],[8.7559,7.5586],[8.8074,7.5367],[8.8147,7.5375],[8.8213,7.5079],[8.846,7.5008],[8.866,7.479],[8.8787,7.4507],[8.9075,7.4495],[8.9227,7.4865],[8.9367,7.4973],[8.9403,7.5113],[8.9504,7.5184],[8.9665,7.515],[8.9729,7.4954],[9.0184,7.4899],[9.0303,7.4831],[9.077,7.4819],[9.0936,7.4602]]]}},{"id":"5","type":"Feature","properties":{"id":"NG007_7006","name":"Guma","pop":256820,"density":87.6,"hf":107,"hf10k":4.17,"hf2":1,"hf3":0,"u15":45.0,"disp":180,"area":2930.7},"geometry":{"type":"Polygon","coordinates":[[[9.2018,7.6508],[9.2364,7.5915],[9.2173,7.5781],[9.1876,7.574],[9.1527,7.5972],[9.1472,7.6132],[9.1318,7.6308],[9.1019,7.6197],[9.0436,7.5722],[9.0222,7.5616],[9.0081,7.5716],[8.9969,7.5986],[8.9978,7.6371],[8.9907,7.6496],[8.9926,7.6639],[8.9802,7.679],[8.9838,7.7052],[8.9397,7.6993],[8.9299,7.7066],[8.9088,7.6923],[8.8986,7.6909],[8.8786,7.7047],[8.8561,7.7057],[8.8189,7.73],[8.7791,7.6909],[8.7639,7.659],[8.7678,7.6533],[8.6966,7.6611],[8.7039,7.7026],[8.6933,7.7531],[8.7156,7.7667],[8.6917,7.7858],[8.6813,7.8244],[8.6168,7.8336],[8.5491,7.8333],[8.4945,7.8514],[8.45,7.8463],[8.4377,7.8173],[8.4228,7.8143],[8.4207,7.8008],[8.4158,7.8],[8.4067,7.8177],[8.3911,7.8905],[8.374,7.8992],[8.3479,7.9282],[8.3397,7.961],[8.3444,7.9734],[8.3603,7.9623],[8.3635,8.0166],[8.3711,8.0463],[8.3909,8.0783],[8.4266,8.1122],[8.5037,8.1582],[8.5244,8.1573],[8.588,8.1289],[8.7805,8.0752],[8.9108,8.0563],[9.0254,8.0626],[9.057,8.0776],[9.1344,7.9886],[9.0897,7.9696],[8.9604,7.9323],[8.9304,7.8353],[8.949,7.8068],[9.0169,7.8028],[9.0328,7.7752],[9.0636,7.761],[9.082,7.7265],[9.1103,7.7052],[9.1456,7.6645],[9.1634,7.6724],[9.2018,7.6508]]]}},{"id":"6","type":"Feature","properties":{"id":"NG007_7007","name":"Gwer East","pop":446132,"density":196.4,"hf":107,"hf10k":2.4,"hf2":1,"hf3":1,"u15":45.0,"disp":5,"area":2271.3},"geometry":{"type":"Polygon","coordinates":[[[8.5203,7.0728],[8.5141,7.0644],[8.4935,7.0716],[8.4318,7.05],[8.4229,7.0525],[8.4214,7.0694],[8.4054,7.1032],[8.3875,7.103],[8.3597,7.1192],[8.3384,7.1156],[8.3201,7.1301],[8.3056,7.125],[8.2561,7.126],[8.2347,7.1758],[8.243,7.1924],[8.2203,7.2398],[8.2199,7.2713],[8.2097,7.2793],[8.186,7.3182],[8.181,7.3188],[8.1719,7.3319],[8.1588,7.3609],[8.1343,7.3755],[8.1446,7.3913],[8.1878,7.4172],[8.1956,7.4341],[8.2366,7.4465],[8.2489,7.439],[8.2716,7.4602],[8.2578,7.4871],[8.2687,7.5069],[8.3256,7.5607],[8.3479,7.6134],[8.3621,7.6214],[8.3961,7.6194],[8.4067,7.6428],[8.4514,7.5789],[8.4848,7.5597],[8.5236,7.5509],[8.5599,7.5561],[8.6017,7.5697],[8.6331,7.5993],[8.6512,7.6096],[8.6749,7.6523],[8.694,7.6605],[8.7678,7.6533],[8.7592,7.6257],[8.7687,7.5691],[8.6946,7.5119],[8.6875,7.5005],[8.6468,7.489],[8.655,7.4684],[8.6541,7.4177],[8.6393,7.3565],[8.5953,7.348],[8.5645,7.3272],[8.5135,7.3069],[8.4832,7.2489],[8.4816,7.2369],[8.4925,7.2111],[8.5192,7.2027],[8.5274,7.1271],[8.5203,7.0728]]]}},{"id":"7","type":"Feature","properties":{"id":"NG007_7008","name":"Gwer West","pop":146702,"density":118.7,"hf":36,"hf10k":2.45,"hf2":2,"hf3":0,"u15":45.0,"disp":158,"area":1235.9},"geometry":{"type":"Polygon","coordinates":[[[8.1343,7.3755],[8.116,7.37],[8.0681,7.4153],[8.111,7.4221],[8.1038,7.4647],[8.0901,7.5055],[8.0627,7.6905],[8.0265,7.7027],[8.0382,7.7367],[8.0893,7.7486],[8.1351,7.7907],[8.1572,7.803],[8.1867,7.8101],[8.2152,7.8346],[8.2748,7.8146],[8.3722,7.77],[8.3855,7.768],[8.39,7.7594],[8.3916,7.6845],[8.4116,7.6744],[8.4052,7.6533],[8.4066,7.6398],[8.4,7.6346],[8.3961,7.6194],[8.3621,7.6214],[8.3479,7.6134],[8.3256,7.5607],[8.2824,7.5235],[8.2578,7.4871],[8.2716,7.4602],[8.2489,7.439],[8.2366,7.4465],[8.1956,7.4341],[8.1878,7.4172],[8.1446,7.3913],[8.1343,7.3755]]]}},{"id":"8","type":"Feature","properties":{"id":"NG007_7009","name":"Katsina-Ala","pop":796505,"density":325.0,"hf":138,"hf10k":1.73,"hf2":2,"hf3":0,"u15":45.0,"disp":17,"area":2450.7},"geometry":{"type":"Polygon","coordinates":[[[9.7175,7.3471],[9.7304,7.3455],[9.7651,7.3204],[9.7972,7.3616],[9.8067,7.3818],[9.8405,7.4687],[9.8451,7.4963],[9.8248,7.5025],[9.7805,7.5393],[9.8301,7.5876],[9.8458,7.5744],[9.8708,7.5402],[9.8847,7.5079],[9.8886,7.4617],[9.8827,7.4143],[9.8408,7.2798],[9.825,7.2546],[9.8352,7.2172],[9.8346,7.1994],[9.824,7.1723],[9.738,7.0781],[9.7241,7.0807],[9.667,7.065],[9.6413,7.0507],[9.6156,7.0336],[9.5992,7.0007],[9.5236,6.9895],[9.5216,7.0023],[9.5327,7.0077],[9.5343,7.0134],[9.5263,7.0336],[9.5003,7.0413],[9.483,7.0293],[9.4724,7.059],[9.4724,7.08],[9.4678,7.0825],[9.4505,7.0674],[9.4279,7.0648],[9.4196,7.0694],[9.4,7.049],[9.3948,7.0496],[9.3856,7.074],[9.3153,7.0957],[9.3103,7.1035],[9.2964,7.1091],[9.2928,7.1179],[9.2987,7.1307],[9.2972,7.1383],[9.281,7.1547],[9.2738,7.1785],[9.3167,7.2191],[9.3156,7.2389],[9.2512,7.2379],[9.2463,7.2433],[9.2537,7.2531],[9.2571,7.2733],[9.2735,7.2787],[9.2924,7.3097],[9.3175,7.321],[9.3182,7.3327],[9.3246,7.3373],[9.3487,7.3396],[9.349,7.3497],[9.3714,7.357],[9.3492,7.3829],[9.3473,7.3948],[9.361,7.4027],[9.3729,7.3961],[9.3901,7.4117],[9.389,7.4314],[9.4027,7.4459],[9.4349,7.4571],[9.4381,7.4725],[9.449,7.4834],[9.4675,7.4848],[9.4709,7.4976],[9.4868,7.5058],[9.4778,7.5196],[9.4855,7.5332],[9.5123,7.5367],[9.521,7.5475],[9.5308,7.5378],[9.5365,7.5175],[9.5483,7.5067],[9.5501,7.4885],[9.5581,7.4842],[9.5718,7.4421],[9.5986,7.4003],[9.6227,7.4039],[9.6383,7.3998],[9.7175,7.3471]]]}},{"id":"9","type":"Feature","properties":{"id":"NG007_7010","name":"Konshisha","pop":586765,"density":320.8,"hf":111,"hf10k":1.89,"hf2":2,"hf3":1,"u15":45.0,"disp":0,"area":1829.0},"geometry":{"type":"Polygon","coordinates":[[[8.9767,6.9601],[8.9965,6.9623],[8.9992,6.9071],[9.0058,6.887],[8.982,6.8708],[8.9802,6.855],[9.0145,6.8131],[9.0053,6.8069],[8.9986,6.7841],[9.0139,6.7641],[8.9957,6.7366],[8.9894,6.7339],[8.9948,6.7601],[8.9745,6.7889],[8.9234,6.8249],[8.8393,6.8691],[8.7596,6.8914],[8.7037,6.8964],[8.6647,6.868],[8.6065,6.8592],[8.5991,6.848],[8.5318,6.8833],[8.5471,6.9199],[8.5471,6.9326],[8.5441,6.9551],[8.5327,6.9765],[8.5255,7.0334],[8.5141,7.0644],[8.5203,7.0728],[8.5274,7.1271],[8.5234,7.1389],[8.5238,7.1805],[8.5192,7.2027],[8.4925,7.2111],[8.4816,7.2369],[8.4832,7.2489],[8.5135,7.3069],[8.5645,7.3272],[8.5953,7.348],[8.6393,7.3565],[8.6687,7.3088],[8.6941,7.2427],[8.7316,7.1801],[8.7764,7.1804],[8.8146,7.1344],[8.8182,7.1391],[8.8272,7.1342],[8.8352,7.1217],[8.8292,7.1077],[8.8395,7.0657],[8.8674,7.0455],[8.8909,7.0128],[8.9114,6.9969],[8.9474,6.9721],[8.9767,6.9601]]]}},{"id":"10","type":"Feature","properties":{"id":"NG007_7011","name":"Kwande","pop":725473,"density":282.3,"hf":136,"hf10k":1.87,"hf2":2,"hf3":0,"u15":45.0,"disp":697,"area":2569.8},"geometry":{"type":"Polygon","coordinates":[[[9.1727,6.7255],[9.1849,6.7451],[9.1826,6.7581],[9.1935,6.7703],[9.1791,6.7904],[9.1777,6.8131],[9.1577,6.8277],[9.1717,6.8403],[9.1876,6.8719],[9.1837,6.9095],[9.1625,6.9431],[9.1737,6.9529],[9.1962,6.9575],[9.2075,7.0042],[9.22,7.0027],[9.2324,7.0119],[9.2515,7.0169],[9.2915,7.0183],[9.308,7.0296],[9.328,7.032],[9.3402,7.0494],[9.3522,7.0551],[9.3569,7.0681],[9.3517,7.074],[9.3544,7.0835],[9.3856,7.074],[9.3948,7.0496],[9.4,7.049],[9.4196,7.0694],[9.4279,7.0648],[9.4505,7.0674],[9.4642,7.0819],[9.4724,7.08],[9.4724,7.059],[9.483,7.0293],[9.5003,7.0413],[9.5263,7.0336],[9.5343,7.0134],[9.5327,7.0077],[9.5216,7.0023],[9.5236,6.9895],[9.5992,7.0007],[9.6156,7.0336],[9.6413,7.0507],[9.667,7.065],[9.7241,7.0807],[9.738,7.0781],[9.6998,7.0115],[9.6457,6.8948],[9.6414,6.8665],[9.6487,6.7992],[9.646,6.7386],[9.6223,6.6641],[9.598,6.4999],[9.5253,6.4297],[9.4674,6.4013],[9.458,6.4047],[9.4743,6.4996],[9.4711,6.5249],[9.4495,6.5388],[9.4021,6.6011],[9.3612,6.6359],[9.3037,6.7178],[9.2911,6.7213],[9.2558,6.7181],[9.1848,6.6933],[9.1727,6.7255]]]}},{"id":"11","type":"Feature","properties":{"id":"NG007_7012","name":"Logo","pop":443011,"density":268.1,"hf":49,"hf10k":1.11,"hf2":1,"hf3":0,"u15":45.0,"disp":0,"area":1652.3},"geometry":{"type":"Polygon","coordinates":[[[9.4853,7.5931],[9.5081,7.5499],[9.5043,7.5446],[9.5069,7.5418],[9.5124,7.5473],[9.521,7.5475],[9.5123,7.5367],[9.4855,7.5332],[9.4778,7.5196],[9.4868,7.5058],[9.4709,7.4976],[9.4675,7.4848],[9.449,7.4834],[9.4381,7.4725],[9.4062,7.4719],[9.3775,7.4839],[9.3273,7.4757],[9.3023,7.463],[9.2944,7.466],[9.2673,7.4588],[9.2475,7.4914],[9.2235,7.512],[9.2162,7.5086],[9.1833,7.5188],[9.164,7.5357],[9.1582,7.5475],[9.1527,7.5972],[9.1876,7.574],[9.2131,7.5765],[9.2364,7.5915],[9.2018,7.6508],[9.1634,7.6724],[9.1456,7.6645],[9.1103,7.7052],[9.082,7.7265],[9.0636,7.761],[9.0328,7.7752],[9.0169,7.8028],[8.949,7.8068],[8.9304,7.8353],[8.9604,7.9323],[9.0897,7.9696],[9.1344,7.9886],[9.1832,7.8957],[9.1243,7.8269],[9.1157,7.8084],[9.1203,7.7933],[9.1302,7.788],[9.1902,7.8104],[9.2251,7.8183],[9.2726,7.8229],[9.3148,7.8348],[9.3866,7.8447],[9.3808,7.8149],[9.3849,7.8053],[9.3784,7.7829],[9.3818,7.7521],[9.3762,7.7463],[9.378,7.7177],[9.4469,7.7332],[9.4441,7.7152],[9.4517,7.7059],[9.4515,7.6709],[9.4646,7.6419],[9.4599,7.6271],[9.4811,7.6177],[9.4888,7.6029],[9.4853,7.5931]]]}},{"id":"12","type":"Feature","properties":{"id":"NG007_7013","name":"Makurdi","pop":704854,"density":791.3,"hf":147,"hf10k":2.09,"hf2":8,"hf3":10,"u15":45.0,"disp":0,"area":890.7},"geometry":{"type":"Polygon","coordinates":[[[8.6933,7.7531],[8.7039,7.7026],[8.6966,7.6611],[8.6749,7.6523],[8.6512,7.6096],[8.6331,7.5993],[8.6017,7.5697],[8.5463,7.5529],[8.5236,7.5509],[8.4848,7.5597],[8.4514,7.5789],[8.4067,7.6428],[8.4081,7.672],[8.4116,7.6744],[8.3916,7.6845],[8.39,7.7594],[8.3855,7.768],[8.4032,7.7662],[8.4206,7.7742],[8.4153,7.7931],[8.4158,7.8],[8.4207,7.8008],[8.4198,7.8107],[8.4377,7.8173],[8.45,7.8463],[8.4945,7.8514],[8.5491,7.8333],[8.6168,7.8336],[8.6813,7.8244],[8.6917,7.7858],[8.7156,7.7667],[8.6933,7.7531]]]}},{"id":"13","type":"Feature","properties":{"id":"NG007_7014","name":"Obi","pop":119055,"density":231.9,"hf":72,"hf10k":6.05,"hf2":1,"hf3":0,"u15":45.0,"disp":0,"area":513.5},"geometry":{"type":"Polygon","coordinates":[[[8.3682,6.9121],[8.342,6.889],[8.2679,6.8986],[8.2717,6.9207],[8.1975,6.9089],[8.1919,6.9394],[8.1646,6.9862],[8.1935,6.9952],[8.2113,7.0067],[8.2244,7.0233],[8.2405,7.0478],[8.2382,7.0587],[8.246,7.1057],[8.2561,7.126],[8.3056,7.125],[8.3201,7.1301],[8.3384,7.1156],[8.3597,7.1192],[8.3875,7.103],[8.4075,7.1017],[8.4214,7.0694],[8.4229,7.0525],[8.4154,7.0452],[8.4237,7.0154],[8.4325,7.0061],[8.4063,6.9877],[8.4077,6.9727],[8.4017,6.9465],[8.3892,6.9396],[8.3682,6.9121]]]}},{"id":"14","type":"Feature","properties":{"id":"NG007_7015","name":"Ogbadibo","pop":264161,"density":500.9,"hf":79,"hf10k":2.99,"hf2":2,"hf3":2,"u15":44.3,"disp":9,"area":527.4},"geometry":{"type":"Polygon","coordinates":[[[7.767,7.075],[7.741,7.0647],[7.7663,7.0453],[7.7737,7.0292],[7.7624,7.0237],[7.7633,7.0092],[7.7498,7.0037],[7.7382,6.9861],[7.7351,6.9705],[7.7428,6.9645],[7.7094,6.9436],[7.6859,6.9035],[7.7124,6.8872],[7.7068,6.8762],[7.7119,6.8609],[7.6917,6.8516],[7.6746,6.8555],[7.658,6.8681],[7.636,6.9036],[7.6202,6.9193],[7.5777,6.9327],[7.5643,6.9524],[7.5572,6.9776],[7.5305,7.0323],[7.5436,7.0401],[7.5807,7.0272],[7.5932,7.018],[7.6078,7.0176],[7.6111,7.0272],[7.5994,7.0793],[7.6019,7.0906],[7.6374,7.1327],[7.6355,7.1471],[7.6431,7.1583],[7.6724,7.1737],[7.691,7.1918],[7.703,7.189],[7.7403,7.1641],[7.7428,7.1477],[7.7559,7.134],[7.7623,7.1188],[7.7622,7.1086],[7.7729,7.0983],[7.767,7.075]]]}},{"id":"15","type":"Feature","properties":{"id":"NG007_7016","name":"Ohimini","pop":128624,"density":187.6,"hf":51,"hf10k":3.97,"hf2":1,"hf3":0,"u15":45.1,"disp":32,"area":685.6},"geometry":{"type":"Polygon","coordinates":[[[8.0746,7.1914],[8.0748,7.1538],[8.0649,7.1522],[8.0503,7.1411],[7.9727,7.107],[7.9527,7.1047],[7.9348,7.1132],[7.935,7.1499],[7.9156,7.1449],[7.8975,7.1526],[7.8434,7.1594],[7.8464,7.1871],[7.8292,7.1928],[7.8334,7.2268],[7.8245,7.2799],[7.8155,7.28],[7.8012,7.2926],[7.7687,7.3019],[7.8026,7.3643],[7.7971,7.376],[7.7994,7.4011],[7.7922,7.4099],[7.8201,7.4099],[7.8644,7.3984],[7.8678,7.3899],[7.8546,7.3774],[7.8562,7.3642],[7.8715,7.3571],[7.8679,7.3501],[7.9047,7.3574],[7.9195,7.3501],[7.9696,7.348],[8.0145,7.3298],[8.0447,7.3482],[8.0372,7.3163],[8.0603,7.2847],[8.0596,7.2634],[8.1046,7.2247],[8.102,7.2179],[8.0685,7.1965],[8.0746,7.1914]]]}},{"id":"16","type":"Feature","properties":{"id":"NG007_7017","name":"Oju","pop":218965,"density":187.5,"hf":101,"hf10k":4.61,"hf2":2,"hf3":0,"u15":45.0,"disp":0,"area":1167.9},"geometry":{"type":"Polygon","coordinates":[[[8.3542,6.6899],[8.3211,6.6786],[8.2945,6.6787],[8.2788,6.698],[8.2856,6.7102],[8.2802,6.7152],[8.2738,6.7129],[8.2688,6.7279],[8.2516,6.7356],[8.2661,6.7416],[8.2343,6.7992],[8.2293,6.8001],[8.2202,6.7788],[8.173,6.7733],[8.1603,6.7611],[8.146,6.779],[8.1186,6.8002],[8.1099,6.8616],[8.0966,6.8509],[8.0853,6.8622],[8.0881,6.8704],[8.1235,6.8961],[8.1927,6.9011],[8.1975,6.9089],[8.2717,6.9207],[8.2679,6.8986],[8.342,6.889],[8.3682,6.9121],[8.3892,6.9396],[8.4017,6.9465],[8.4077,6.9727],[8.4063,6.9877],[8.4325,7.0061],[8.4237,7.0154],[8.416,7.0468],[8.4229,7.0525],[8.4318,7.05],[8.4935,7.0716],[8.5141,7.0644],[8.5255,7.0334],[8.5327,6.9765],[8.5462,6.9437],[8.5471,6.9199],[8.5318,6.8833],[8.6024,6.8495],[8.637,6.8257],[8.6416,6.8188],[8.6403,6.805],[8.6207,6.781],[8.5784,6.7652],[8.5441,6.7586],[8.5088,6.7588],[8.4687,6.7465],[8.4505,6.7478],[8.4357,6.7582],[8.4106,6.7538],[8.3934,6.7424],[8.3749,6.7069],[8.3542,6.6899]]]}},{"id":"17","type":"Feature","properties":{"id":"NG007_7018","name":"Okpokwu","pop":232705,"density":263.1,"hf":72,"hf10k":3.09,"hf2":2,"hf3":1,"u15":44.9,"disp":0,"area":884.6},"geometry":{"type":"Polygon","coordinates":[[[7.9707,7.0769],[8.0044,7.0417],[8.0263,6.9964],[8.0534,6.9734],[7.9885,6.9835],[7.9382,6.9659],[7.9641,6.9144],[7.8897,6.8345],[7.888,6.8539],[7.8636,6.8799],[7.8396,6.8807],[7.8186,6.8919],[7.7918,6.8893],[7.7856,6.8728],[7.7628,6.8799],[7.7502,6.8784],[7.7376,6.8704],[7.7138,6.871],[7.7119,6.8609],[7.7068,6.8762],[7.7124,6.8872],[7.6859,6.9035],[7.7094,6.9436],[7.7428,6.9645],[7.7351,6.9705],[7.7382,6.9861],[7.7498,7.0037],[7.7633,7.0092],[7.7624,7.0237],[7.7737,7.0292],[7.7663,7.0453],[7.741,7.0647],[7.767,7.075],[7.7724,7.1001],[7.7622,7.1086],[7.7623,7.1188],[7.7559,7.134],[7.7428,7.1477],[7.7403,7.1641],[7.7101,7.1831],[7.7794,7.2089],[7.79,7.2169],[7.7971,7.2331],[7.7942,7.2687],[7.8012,7.2926],[7.8155,7.28],[7.8245,7.2799],[7.8334,7.2268],[7.8292,7.1928],[7.8464,7.1871],[7.8434,7.1594],[7.8975,7.1526],[7.9156,7.1449],[7.935,7.1499],[7.9348,7.1132],[7.9527,7.1047],[7.9721,7.1052],[7.9707,7.0769]]]}},{"id":"18","type":"Feature","properties":{"id":"NG007_7019","name":"Oturkpo","pop":388734,"density":281.0,"hf":116,"hf10k":2.98,"hf2":1,"hf3":0,"u15":45.0,"disp":0,"area":1383.4},"geometry":{"type":"Polygon","coordinates":[[[8.2405,7.0478],[8.2113,7.0067],[8.1935,6.9952],[8.1495,6.9815],[8.0868,6.9692],[8.0534,6.9734],[8.0351,6.9864],[8.0135,7.0188],[8.0044,7.0417],[7.9719,7.0746],[7.9695,7.1063],[8.0748,7.1538],[8.0746,7.1914],[8.0685,7.1965],[8.102,7.2179],[8.1046,7.2247],[8.0596,7.2634],[8.0603,7.2847],[8.0372,7.3163],[8.0447,7.3482],[8.0145,7.3298],[7.9696,7.348],[7.9195,7.3501],[7.9047,7.3574],[7.8679,7.3501],[7.8715,7.3571],[7.8562,7.3642],[7.8546,7.3774],[7.867,7.3884],[7.8669,7.3962],[7.8508,7.404],[7.8159,7.4088],[7.8548,7.4459],[7.9157,7.4893],[7.9972,7.5382],[8.0768,7.6119],[8.0901,7.5055],[8.1038,7.4647],[8.111,7.4221],[8.0681,7.4153],[8.116,7.37],[8.1343,7.3755],[8.1588,7.3609],[8.1719,7.3319],[8.181,7.3188],[8.186,7.3182],[8.2097,7.2793],[8.2199,7.2713],[8.2203,7.2398],[8.243,7.1924],[8.2347,7.1758],[8.2561,7.126],[8.246,7.1057],[8.2382,7.0587],[8.2405,7.0478]]]}},{"id":"19","type":"Feature","properties":{"id":"NG007_7020","name":"Tarka","pop":109341,"density":224.1,"hf":63,"hf10k":5.76,"hf2":1,"hf3":0,"u15":45.0,"disp":0,"area":488.0},"geometry":{"type":"Polygon","coordinates":[[[8.9403,7.5113],[8.9367,7.4973],[8.9227,7.4865],[8.9075,7.4495],[8.8787,7.4507],[8.866,7.479],[8.846,7.5008],[8.8213,7.5079],[8.8147,7.5375],[8.8074,7.5367],[8.7559,7.5586],[8.7687,7.5691],[8.7592,7.6257],[8.7678,7.6533],[8.7639,7.659],[8.7791,7.6909],[8.8189,7.73],[8.8561,7.7057],[8.8786,7.7047],[8.8986,7.6909],[8.9088,7.6923],[8.9299,7.7066],[8.9397,7.6993],[8.9838,7.7052],[8.9802,7.679],[8.9667,7.6776],[8.9648,7.6644],[8.9716,7.6482],[8.958,7.6199],[8.9608,7.5809],[8.9429,7.5591],[8.9424,7.5509],[8.9497,7.5458],[8.947,7.5288],[8.9504,7.5184],[8.9403,7.5113]]]}},{"id":"20","type":"Feature","properties":{"id":"NG007_7021","name":"Ukum","pop":935724,"density":591.2,"hf":101,"hf10k":1.08,"hf2":1,"hf3":0,"u15":45.0,"disp":62,"area":1582.7},"geometry":{"type":"Polygon","coordinates":[[[9.8339,7.4968],[9.8451,7.4963],[9.8458,7.4863],[9.8067,7.3818],[9.7972,7.3616],[9.7651,7.3204],[9.6383,7.3998],[9.6227,7.4039],[9.5986,7.4003],[9.5718,7.4421],[9.5581,7.4842],[9.5501,7.4885],[9.5483,7.5067],[9.5365,7.5175],[9.5308,7.5378],[9.521,7.5477],[9.5124,7.5473],[9.5069,7.5418],[9.5043,7.5446],[9.5081,7.5499],[9.4853,7.5931],[9.4888,7.6029],[9.4834,7.6139],[9.4599,7.6271],[9.4646,7.6419],[9.4515,7.6709],[9.4517,7.7059],[9.4441,7.7152],[9.4469,7.7332],[9.378,7.7177],[9.3762,7.7463],[9.3818,7.7521],[9.3784,7.7829],[9.3849,7.8053],[9.3808,7.8149],[9.3866,7.8447],[9.5613,7.8388],[9.6015,7.8295],[9.6431,7.7999],[9.7017,7.7102],[9.7472,7.6549],[9.8301,7.5876],[9.7805,7.5393],[9.8339,7.4968]]]}},{"id":"21","type":"Feature","properties":{"id":"NG007_7022","name":"Ushongo","pop":418549,"density":404.1,"hf":117,"hf10k":2.8,"hf2":2,"hf3":0,"u15":45.0,"disp":0,"area":1035.7},"geometry":{"type":"Polygon","coordinates":[[[9.1202,7.0595],[9.1435,7.0517],[9.1926,7.0734],[9.2064,7.0743],[9.2534,7.0923],[9.2605,7.0575],[9.2745,7.0497],[9.2844,7.0605],[9.2916,7.0582],[9.3029,7.0679],[9.3076,7.0772],[9.3039,7.0876],[9.3134,7.0981],[9.3544,7.0835],[9.3517,7.074],[9.3569,7.0681],[9.3522,7.0551],[9.3402,7.0494],[9.328,7.032],[9.308,7.0296],[9.2915,7.0183],[9.2515,7.0169],[9.2324,7.0119],[9.22,7.0027],[9.2075,7.0042],[9.1962,6.9575],[9.1737,6.9529],[9.1625,6.9431],[9.1457,6.9466],[9.1421,6.9667],[9.1344,6.9637],[9.1126,6.9683],[9.1057,6.9624],[9.0743,6.972],[9.0306,6.9671],[9.0113,6.9696],[8.9965,6.9623],[8.9767,6.9601],[8.9474,6.9721],[8.9114,6.9969],[8.8909,7.0128],[8.8674,7.0455],[8.8395,7.0657],[8.8292,7.1077],[8.8352,7.1217],[8.8272,7.1342],[8.8182,7.1391],[8.8146,7.1344],[8.7764,7.1804],[8.8262,7.1822],[8.8416,7.1871],[8.8536,7.2137],[8.8732,7.2341],[8.8696,7.2562],[8.9037,7.2763],[8.9274,7.2742],[8.9421,7.287],[8.9583,7.2763],[8.9844,7.2842],[9.0053,7.2425],[9.0363,7.2473],[9.0625,7.2247],[9.1039,7.2094],[9.1286,7.1734],[9.1291,7.165],[9.1065,7.1553],[9.0742,7.1735],[9.0608,7.1566],[9.077,7.1283],[9.0484,7.1186],[9.0212,7.088],[9.0167,7.0729],[9.02,7.0653],[9.0358,7.055],[9.0395,7.0473],[9.0603,7.0406],[9.1088,7.0685],[9.1202,7.0595]]]}},{"id":"22","type":"Feature","properties":{"id":"NG007_7023","name":"Vandeikya","pop":447608,"density":666.1,"hf":82,"hf10k":1.83,"hf2":2,"hf3":1,"u15":44.9,"disp":0,"area":672.0},"geometry":{"type":"Polygon","coordinates":[[[9.132,6.6774],[9.0704,6.6425],[9.059,6.6425],[9.0271,6.6508],[8.992,6.6924],[8.9692,6.6937],[8.9871,6.7362],[8.9957,6.7366],[9.0139,6.7641],[8.9986,6.7841],[9.0053,6.8069],[9.014,6.8159],[8.9836,6.8484],[8.9794,6.8604],[8.982,6.8708],[9.0058,6.887],[8.9992,6.9071],[8.9965,6.9623],[9.0113,6.9696],[9.0306,6.9671],[9.0743,6.972],[9.1057,6.9624],[9.1126,6.9683],[9.1344,6.9637],[9.1421,6.9667],[9.1457,6.9466],[9.1625,6.9431],[9.1837,6.9095],[9.1873,6.8701],[9.1717,6.8403],[9.1577,6.8277],[9.1777,6.8131],[9.1791,6.7904],[9.1935,6.7703],[9.1826,6.7581],[9.1849,6.7451],[9.1727,6.7255],[9.1848,6.6933],[9.132,6.6774]]]}}]}