{"type":"FeatureCollection","features":[{"id":"0","type":"Feature","properties":{"id":"NG001_1001","name":"Aba North","pop":253275,"density":9243.6,"hf":104,"hf10k":4.11,"hf2":1,"hf3":6,"u15":34.8,"disp":0,"area":27.4},"geometry":{"type":"Polygon","coordinates":[[[7.3872,5.1219],[7.3947,5.1193],[7.4001,5.1035],[7.3961,5.0909],[7.4002,5.0825],[7.3932,5.0764],[7.3789,5.0813],[7.3848,5.0821],[7.3794,5.0931],[7.3879,5.1018],[7.38,5.1045],[7.3765,5.0996],[7.3743,5.1073],[7.3652,5.1081],[7.3656,5.1136],[7.3587,5.1121],[7.3553,5.1042],[7.3402,5.1051],[7.3338,5.0914],[7.328,5.0934],[7.3171,5.0882],[7.3215,5.0999],[7.3279,5.1004],[7.3278,5.1068],[7.3234,5.1064],[7.3197,5.1136],[7.3469,5.1254],[7.3546,5.1395],[7.3615,5.1349],[7.3668,5.1413],[7.3776,5.1285],[7.389,5.1277],[7.3872,5.1219]]]}},{"id":"1","type":"Feature","properties":{"id":"NG001_1002","name":"Aba South","pop":277440,"density":7378.7,"hf":74,"hf10k":2.67,"hf2":1,"hf3":1,"u15":34.8,"disp":0,"area":37.6},"geometry":{"type":"Polygon","coordinates":[[[7.3687,5.0653],[7.3688,5.0538],[7.3602,5.0407],[7.3348,5.0408],[7.3351,5.0559],[7.3257,5.0552],[7.3183,5.0649],[7.3215,5.0721],[7.3183,5.082],[7.3282,5.0848],[7.3247,5.0907],[7.3338,5.0914],[7.3402,5.1051],[7.3553,5.1042],[7.3587,5.1121],[7.3656,5.1136],[7.3652,5.1081],[7.3743,5.1073],[7.3765,5.0996],[7.3846,5.1046],[7.389,5.1],[7.3794,5.0931],[7.3848,5.0821],[7.3787,5.083],[7.3774,5.0725],[7.3687,5.0653]]]}},{"id":"2","type":"Feature","properties":{"id":"NG001_1003","name":"Arochukwu","pop":142899,"density":324.4,"hf":71,"hf10k":4.97,"hf2":2,"hf3":1,"u15":35.3,"disp":0,"area":440.5},"geometry":{"type":"Polygon","coordinates":[[[7.9871,5.3643],[7.983,5.3557],[7.9727,5.3545],[7.878,5.3671],[7.884,5.3845],[7.8653,5.4184],[7.8211,5.4233],[7.7928,5.4398],[7.7782,5.4731],[7.7602,5.4903],[7.7572,5.5105],[7.7485,5.5162],[7.6737,5.5295],[7.6454,5.5259],[7.6415,5.5134],[7.6225,5.5475],[7.6146,5.5721],[7.6373,5.5809],[7.6323,5.5842],[7.6489,5.6142],[7.6871,5.6219],[7.707,5.6424],[7.726,5.6301],[7.7412,5.6061],[7.7676,5.6149],[7.7742,5.5806],[7.8053,5.5741],[7.7566,5.5538],[7.7604,5.5351],[7.7936,5.5262],[7.8055,5.5169],[7.8118,5.4995],[7.8366,5.5089],[7.8671,5.5095],[7.8746,5.5483],[7.8873,5.5584],[7.9008,5.5134],[7.9129,5.5251],[7.9345,5.4692],[7.9563,5.4372],[7.9871,5.3643]]]}},{"id":"3","type":"Feature","properties":{"id":"NG001_1004","name":"Bende","pop":223491,"density":378.3,"hf":68,"hf10k":3.04,"hf2":1,"hf3":2,"u15":34.0,"disp":0,"area":590.8},"geometry":{"type":"Polygon","coordinates":[[[7.6859,5.7213],[7.6332,5.6436],[7.6407,5.6327],[7.6579,5.6271],[7.6953,5.6456],[7.707,5.6424],[7.6871,5.6219],[7.6489,5.6142],[7.6323,5.5842],[7.6373,5.5809],[7.6146,5.5721],[7.6147,5.5651],[7.6415,5.5134],[7.6454,5.5259],[7.6605,5.5291],[7.7341,5.5178],[7.7136,5.5119],[7.7106,5.5194],[7.6959,5.5183],[7.6918,5.5117],[7.6913,5.5019],[7.7047,5.4829],[7.7,5.4315],[7.6678,5.4474],[7.6581,5.4462],[7.6573,5.459],[7.6424,5.4729],[7.6296,5.4678],[7.6062,5.475],[7.6007,5.4853],[7.576,5.4952],[7.5713,5.5032],[7.5706,5.5219],[7.5781,5.5322],[7.5856,5.5705],[7.5747,5.585],[7.5464,5.5959],[7.5347,5.5938],[7.516,5.6159],[7.5154,5.633],[7.4997,5.6435],[7.4709,5.6485],[7.4725,5.6753],[7.4787,5.6857],[7.4902,5.6895],[7.4827,5.664],[7.5466,5.6748],[7.5439,5.7118],[7.5557,5.7426],[7.5546,5.7583],[7.5459,5.7917],[7.5354,5.8149],[7.5322,5.8133],[7.5272,5.8203],[7.5277,5.8341],[7.5519,5.8435],[7.5667,5.8439],[7.6176,5.8273],[7.7072,5.8213],[7.725,5.8164],[7.7386,5.7869],[7.7289,5.7614],[7.7125,5.7406],[7.6883,5.7386],[7.6859,5.7213]]]}},{"id":"4","type":"Feature","properties":{"id":"NG001_1005","name":"Ikwuano","pop":140460,"density":541.1,"hf":53,"hf10k":3.77,"hf2":1,"hf3":0,"u15":33.5,"disp":0,"area":259.6},"geometry":{"type":"Polygon","coordinates":[[[7.6489,5.3249],[7.622,5.3178],[7.603,5.3269],[7.5876,5.3187],[7.5721,5.3243],[7.5562,5.3063],[7.5378,5.3073],[7.5345,5.3009],[7.5394,5.2949],[7.5269,5.3035],[7.53,5.3265],[7.5208,5.341],[7.5271,5.3517],[7.5269,5.362],[7.5121,5.3759],[7.5142,5.3815],[7.505,5.414],[7.5381,5.4961],[7.5713,5.5032],[7.5783,5.4936],[7.6007,5.4853],[7.6062,5.475],[7.6296,5.4678],[7.6424,5.4729],[7.6573,5.459],[7.6581,5.4462],[7.6364,5.4253],[7.6196,5.3717],[7.6248,5.3645],[7.6609,5.3671],[7.6705,5.3519],[7.6489,5.3249]]]}},{"id":"5","type":"Feature","properties":{"id":"NG001_1006","name":"Isiala-Ngwa North","pop":235325,"density":856.0,"hf":66,"hf10k":2.8,"hf2":3,"hf3":0,"u15":34.9,"disp":4896,"area":274.9},"geometry":{"type":"Polygon","coordinates":[[[7.5142,5.3815],[7.5121,5.3759],[7.5269,5.362],[7.5271,5.3517],[7.5208,5.341],[7.53,5.3265],[7.5269,5.3035],[7.51,5.3043],[7.4924,5.3186],[7.4926,5.3253],[7.5119,5.3415],[7.4977,5.354],[7.4793,5.3335],[7.4516,5.3406],[7.4219,5.3257],[7.4043,5.3277],[7.3954,5.3355],[7.3804,5.3301],[7.3795,5.3238],[7.3691,5.3354],[7.3707,5.3458],[7.3522,5.3338],[7.328,5.3285],[7.3053,5.336],[7.3006,5.3424],[7.3219,5.3825],[7.3219,5.4049],[7.3313,5.4244],[7.3436,5.4395],[7.356,5.4463],[7.3629,5.4602],[7.3694,5.4539],[7.3858,5.4551],[7.4298,5.443],[7.4544,5.4466],[7.4774,5.4381],[7.4901,5.4403],[7.51,5.4312],[7.505,5.4107],[7.5142,5.3815]]]}},{"id":"6","type":"Feature","properties":{"id":"NG001_1007","name":"Isiala-Ngwa South","pop":212718,"density":849.9,"hf":76,"hf10k":3.57,"hf2":0,"hf3":0,"u15":35.7,"disp":0,"area":250.3},"geometry":{"type":"Polygon","coordinates":[[[7.2643,5.2156],[7.268,5.2421],[7.2765,5.2557],[7.2793,5.2781],[7.2911,5.3035],[7.2923,5.3276],[7.3006,5.3424],[7.3053,5.336],[7.328,5.3285],[7.3522,5.3338],[7.3707,5.3458],[7.3691,5.3354],[7.3797,5.3238],[7.3804,5.3301],[7.3954,5.3355],[7.4043,5.3277],[7.4219,5.3257],[7.4516,5.3406],[7.4793,5.3335],[7.4961,5.354],[7.5119,5.3415],[7.4926,5.3253],[7.4992,5.3095],[7.51,5.3043],[7.5,5.2777],[7.4817,5.2592],[7.4853,5.244],[7.4654,5.2318],[7.4487,5.233],[7.4389,5.2268],[7.4338,5.2164],[7.4212,5.2232],[7.4049,5.2146],[7.3996,5.206],[7.3824,5.205],[7.3866,5.2262],[7.3813,5.2364],[7.3982,5.2555],[7.3767,5.2579],[7.3868,5.2765],[7.3807,5.2817],[7.3631,5.2805],[7.3346,5.2751],[7.3288,5.2677],[7.3361,5.2598],[7.333,5.2461],[7.3076,5.2539],[7.3069,5.2292],[7.2823,5.2132],[7.2643,5.2156]]]}},{"id":"7","type":"Feature","properties":{"id":"NG001_1008","name":"Isuikwuato","pop":165506,"density":441.6,"hf":57,"hf10k":3.44,"hf2":2,"hf3":2,"u15":31.3,"disp":0,"area":374.8},"geometry":{"type":"Polygon","coordinates":[[[7.5466,5.6748],[7.4827,5.664],[7.4902,5.6895],[7.4787,5.6857],[7.4724,5.6989],[7.4601,5.7035],[7.3929,5.6888],[7.383,5.7007],[7.3831,5.7076],[7.4003,5.7127],[7.3943,5.7558],[7.3924,5.8338],[7.3865,5.8632],[7.3903,5.883],[7.4552,5.8906],[7.4743,5.9095],[7.5132,5.9244],[7.5035,5.9002],[7.5052,5.8828],[7.5273,5.869],[7.5266,5.8444],[7.5346,5.8347],[7.5277,5.8341],[7.5272,5.8203],[7.5322,5.8133],[7.5354,5.8149],[7.5459,5.7917],[7.5557,5.7426],[7.5439,5.7118],[7.5466,5.6748]]]}},{"id":"8","type":"Feature","properties":{"id":"NG001_1009","name":"Obi Nwga","pop":430172,"density":1164.2,"hf":98,"hf10k":2.28,"hf2":0,"hf3":1,"u15":34.9,"disp":0,"area":369.5},"geometry":{"type":"Polygon","coordinates":[[[7.4876,5.0471],[7.4804,5.0457],[7.4832,5.0281],[7.4668,5.0243],[7.4264,5.0297],[7.4127,5.0464],[7.3838,5.0467],[7.3824,5.0651],[7.3894,5.0674],[7.4002,5.0825],[7.3961,5.0909],[7.4001,5.1035],[7.3947,5.1193],[7.3857,5.1228],[7.389,5.1277],[7.3776,5.1285],[7.368,5.1403],[7.3701,5.1519],[7.3645,5.1665],[7.3843,5.1818],[7.3797,5.2004],[7.3824,5.205],[7.3996,5.206],[7.4049,5.2146],[7.4212,5.2232],[7.4338,5.2164],[7.4389,5.2268],[7.4487,5.233],[7.4654,5.2318],[7.4835,5.2424],[7.4817,5.2592],[7.5,5.2777],[7.51,5.3043],[7.5269,5.3035],[7.5432,5.2912],[7.5531,5.2757],[7.5424,5.256],[7.5401,5.1936],[7.5279,5.156],[7.5386,5.1013],[7.504,5.0888],[7.4903,5.0716],[7.4876,5.0471]]]}},{"id":"9","type":"Feature","properties":{"id":"NG001_1010","name":"Ohafia","pop":232643,"density":427.9,"hf":75,"hf10k":3.22,"hf2":3,"hf3":1,"u15":35.6,"disp":0,"area":543.7},"geometry":{"type":"Polygon","coordinates":[[[7.8746,5.5483],[7.8671,5.5095],[7.8366,5.5089],[7.8118,5.4995],[7.8055,5.5169],[7.7936,5.5262],[7.7604,5.5351],[7.7566,5.5538],[7.8053,5.5741],[7.7742,5.5806],[7.7676,5.6149],[7.7412,5.6061],[7.726,5.6301],[7.7142,5.6395],[7.6953,5.6456],[7.6579,5.6271],[7.6407,5.6327],[7.6332,5.6436],[7.6831,5.7145],[7.6883,5.7386],[7.7125,5.7406],[7.7289,5.7614],[7.7386,5.7869],[7.725,5.8164],[7.7694,5.8137],[7.7863,5.8049],[7.8039,5.745],[7.8234,5.7402],[7.8538,5.7179],[7.8699,5.6999],[7.8706,5.6936],[7.8933,5.6823],[7.9154,5.6554],[7.91,5.5875],[7.9046,5.5687],[7.9129,5.5251],[7.9008,5.5134],[7.8873,5.5584],[7.8746,5.5483]]]}},{"id":"10","type":"Feature","properties":{"id":"NG001_1011","name":"Osisioma Ngwa","pop":447598,"density":2464.7,"hf":101,"hf10k":2.26,"hf2":3,"hf3":2,"u15":34.8,"disp":0,"area":181.6},"geometry":{"type":"Polygon","coordinates":[[[7.3278,5.1068],[7.3279,5.1004],[7.3215,5.0999],[7.3167,5.0907],[7.3247,5.0907],[7.3282,5.0848],[7.3183,5.082],[7.3215,5.0721],[7.3159,5.0626],[7.3073,5.0651],[7.2842,5.0899],[7.272,5.0765],[7.2561,5.078],[7.2787,5.1168],[7.2926,5.1726],[7.2868,5.1918],[7.271,5.2118],[7.2823,5.2132],[7.3069,5.2292],[7.3076,5.2539],[7.333,5.2461],[7.3361,5.2598],[7.3288,5.2677],[7.3346,5.2751],[7.3807,5.2817],[7.3868,5.2765],[7.3767,5.2579],[7.3987,5.2534],[7.3813,5.2364],[7.3865,5.2288],[7.3797,5.2004],[7.3843,5.1818],[7.3651,5.1697],[7.3712,5.1429],[7.3615,5.1349],[7.3546,5.1395],[7.3469,5.1254],[7.3197,5.1136],[7.3234,5.1064],[7.3278,5.1068]]]}},{"id":"11","type":"Feature","properties":{"id":"NG001_1012","name":"Ugwunagbo","pop":100958,"density":800.6,"hf":49,"hf10k":4.85,"hf2":0,"hf3":0,"u15":34.8,"disp":0,"area":126.1},"geometry":{"type":"Polygon","coordinates":[[[7.4158,5.0069],[7.4144,4.9808],[7.4004,4.9737],[7.3699,4.9791],[7.3597,4.9939],[7.352,4.9951],[7.344,4.9765],[7.3199,4.9743],[7.298,4.9571],[7.295,4.9738],[7.2855,4.9827],[7.2898,4.9876],[7.2847,4.9891],[7.2789,5.0007],[7.2704,5.0035],[7.2856,5.0214],[7.2926,5.0503],[7.3033,5.0554],[7.3073,5.0651],[7.3182,5.0653],[7.3257,5.0552],[7.3351,5.0559],[7.3348,5.0408],[7.3595,5.0405],[7.3789,5.0813],[7.3932,5.0764],[7.3894,5.0674],[7.3824,5.0651],[7.3838,5.0467],[7.4127,5.0464],[7.4264,5.0297],[7.4158,5.0069]]]}},{"id":"12","type":"Feature","properties":{"id":"NG001_1013","name":"Ukwa East","pop":94231,"density":292.4,"hf":41,"hf10k":4.35,"hf2":2,"hf3":0,"u15":36.6,"disp":0,"area":322.3},"geometry":{"type":"Polygon","coordinates":[[[7.4808,4.9328],[7.4807,4.8826],[7.4993,4.8551],[7.5007,4.8343],[7.4887,4.8218],[7.4716,4.8423],[7.4467,4.8454],[7.4292,4.8624],[7.4164,4.8667],[7.3735,4.8629],[7.3198,4.8796],[7.3053,4.8755],[7.3106,4.8886],[7.3251,4.8956],[7.3341,4.9171],[7.3247,4.9362],[7.3142,4.9442],[7.3087,4.9434],[7.3077,4.9379],[7.298,4.9571],[7.3199,4.9743],[7.344,4.9765],[7.352,4.9951],[7.3597,4.9939],[7.3699,4.9791],[7.3791,4.9755],[7.3916,4.9724],[7.412,4.979],[7.4184,5.0016],[7.4156,5.0099],[7.4264,5.0297],[7.4668,5.0243],[7.4832,5.0281],[7.4804,5.0457],[7.4876,5.0471],[7.4903,5.0716],[7.504,5.0888],[7.5386,5.1013],[7.5469,5.0881],[7.5402,5.069],[7.5189,5.0532],[7.5341,5.0481],[7.533,5.0423],[7.5097,5.0345],[7.512,5.026],[7.5064,5.0133],[7.4919,5.0078],[7.4836,4.9963],[7.4711,4.9959],[7.4603,4.9777],[7.4736,4.9651],[7.4914,4.9595],[7.4916,4.9445],[7.4808,4.9328]]]}},{"id":"13","type":"Feature","properties":{"id":"NG001_1014","name":"Ukwa West","pop":146465,"density":598.1,"hf":44,"hf10k":3.0,"hf2":3,"hf3":0,"u15":35.7,"disp":0,"area":244.9},"geometry":{"type":"Polygon","coordinates":[[[7.2938,4.9676],[7.3077,4.9379],[7.3087,4.9434],[7.319,4.9419],[7.3341,4.9171],[7.3251,4.8956],[7.3106,4.8886],[7.3053,4.8755],[7.2714,4.873],[7.218,4.8573],[7.1989,4.8617],[7.1838,4.8752],[7.1559,4.8837],[7.1419,4.9013],[7.1503,4.9243],[7.1685,4.9448],[7.2091,4.9565],[7.2284,4.971],[7.2483,5.0173],[7.2558,5.0773],[7.272,5.0765],[7.283,5.09],[7.2958,5.0817],[7.3073,5.0651],[7.3033,5.0554],[7.2926,5.0503],[7.2856,5.0214],[7.2704,5.0035],[7.2789,5.0007],[7.2847,4.9891],[7.2898,4.9876],[7.2855,4.9827],[7.295,4.9738],[7.2938,4.9676]]]}},{"id":"14","type":"Feature","properties":{"id":"NG001_1015","name":"Umu-Nneochi","pop":191705,"density":541.4,"hf":63,"hf10k":3.29,"hf2":1,"hf3":0,"u15":35.3,"disp":0,"area":354.1},"geometry":{"type":"Polygon","coordinates":[[[7.4044,6.0124],[7.4306,6.0062],[7.4615,6.0148],[7.4758,6.0124],[7.5105,6.0214],[7.5334,6.011],[7.5208,6.0003],[7.5305,5.9721],[7.5291,5.952],[7.5132,5.9244],[7.4743,5.9095],[7.4552,5.8906],[7.3903,5.883],[7.3964,5.9007],[7.392,5.9119],[7.3672,5.9035],[7.2902,5.9172],[7.2708,5.9248],[7.261,5.9389],[7.2546,5.9652],[7.264,5.9915],[7.2726,5.9977],[7.3183,5.9986],[7.3391,6.0421],[7.3868,6.0367],[7.4044,6.0124]]]}},{"id":"15","type":"Feature","properties":{"id":"NG001_1016","name":"Umuahia North","pop":377492,"density":1470.0,"hf":121,"hf10k":3.21,"hf2":1,"hf3":11,"u15":33.5,"disp":0,"area":256.8},"geometry":{"type":"Polygon","coordinates":[[[7.5706,5.5219],[7.5713,5.5032],[7.5381,5.4961],[7.5295,5.48],[7.5105,5.5029],[7.4984,5.503],[7.4965,5.4938],[7.4872,5.4919],[7.4633,5.5035],[7.4493,5.5289],[7.4596,5.5436],[7.4375,5.5662],[7.4152,5.571],[7.426,5.5856],[7.4323,5.6094],[7.4152,5.6638],[7.4082,5.677],[7.3929,5.6888],[7.4495,5.7039],[7.4724,5.6989],[7.4787,5.6857],[7.4725,5.6753],[7.4709,5.6485],[7.4997,5.6435],[7.5154,5.633],[7.516,5.6159],[7.5347,5.5938],[7.5464,5.5959],[7.5747,5.585],[7.5856,5.5705],[7.5781,5.5322],[7.5706,5.5219]]]}},{"id":"16","type":"Feature","properties":{"id":"NG001_1017","name":"Umuahia South","pop":251792,"density":1778.2,"hf":50,"hf10k":1.99,"hf2":0,"hf3":0,"u15":33.5,"disp":0,"area":141.6},"geometry":{"type":"Polygon","coordinates":[[[7.4872,5.4919],[7.4965,5.4938],[7.4984,5.503],[7.5105,5.5029],[7.5295,5.48],[7.5227,5.4528],[7.51,5.4312],[7.4901,5.4403],[7.4774,5.4381],[7.4544,5.4466],[7.4298,5.443],[7.3858,5.4551],[7.3694,5.4539],[7.3629,5.4602],[7.3762,5.4792],[7.388,5.5104],[7.4067,5.5332],[7.4083,5.5499],[7.4174,5.5621],[7.4152,5.571],[7.4375,5.5662],[7.4491,5.5576],[7.4596,5.5436],[7.4493,5.5289],[7.4543,5.5149],[7.4633,5.5035],[7.4872,5.4919]]]}}]}