{"type":"FeatureCollection","features":[{"id":"0","type":"Feature","properties":{"id":"NG004_4001","name":"Aguata","pop":526037,"density":2857.3,"hf":122,"hf10k":2.32,"hf2":4,"hf3":6,"u15":34.7,"disp":0,"area":184.1},"geometry":{"type":"Polygon","coordinates":[[[7.1463,5.9176],[7.0564,5.9306],[7.0367,5.9167],[7.029,5.9313],[7.0533,5.9493],[7.0571,5.9564],[7.0541,5.9672],[7.0464,5.9697],[7.0459,5.9831],[7.0158,5.9857],[7.0137,5.9933],[6.9976,5.9978],[7.0004,6.037],[7.0193,6.0367],[7.0305,6.055],[7.0355,6.0514],[7.0381,6.0592],[7.0439,6.0588],[7.0472,6.0498],[7.0344,6.0442],[7.0324,6.0374],[7.0421,6.0401],[7.0434,6.0344],[7.0516,6.0375],[7.0538,6.0299],[7.0739,6.0255],[7.0744,6.0343],[7.0678,6.0432],[7.0816,6.0445],[7.0825,6.0398],[7.0954,6.0492],[7.1031,6.0298],[7.1174,6.0256],[7.1203,6.0306],[7.1324,6.0308],[7.1346,6.023],[7.1286,6.012],[7.1479,5.9918],[7.1581,5.9888],[7.1524,5.9782],[7.1532,5.9656],[7.1593,5.9659],[7.163,5.9585],[7.1555,5.9465],[7.1771,5.9292],[7.1923,5.9315],[7.2028,5.921],[7.1888,5.8995],[7.1463,5.9176]]]}},{"id":"1","type":"Feature","properties":{"id":"NG004_4002","name":"Anambra East","pop":199567,"density":326.4,"hf":38,"hf10k":1.9,"hf2":1,"hf3":1,"u15":34.7,"disp":0,"area":611.5},"geometry":{"type":"Polygon","coordinates":[[[6.8918,6.412],[6.9087,6.3966],[6.9533,6.4198],[6.9641,6.4079],[6.9692,6.3929],[6.9638,6.3626],[6.9878,6.3049],[6.9667,6.2829],[6.9472,6.2829],[6.9308,6.2956],[6.9012,6.2754],[6.8916,6.2601],[6.8786,6.2502],[6.8628,6.2489],[6.8205,6.232],[6.8176,6.2154],[6.8216,6.2084],[6.8178,6.2021],[6.8059,6.2048],[6.7948,6.1991],[6.7859,6.2065],[6.7842,6.2558],[6.8261,6.2934],[6.8372,6.3338],[6.8269,6.3597],[6.8302,6.3742],[6.8439,6.3775],[6.8525,6.3901],[6.8486,6.4504],[6.8359,6.4784],[6.8358,6.4893],[6.8448,6.53],[6.8583,6.5583],[6.8086,6.5894],[6.8003,6.6935],[6.8064,6.7031],[6.8338,6.7222],[6.861,6.7534],[6.9098,6.6964],[6.9229,6.6991],[6.9356,6.6956],[6.9423,6.7028],[6.9465,6.6866],[6.9419,6.6767],[6.9321,6.6783],[6.9334,6.6696],[6.9418,6.6624],[6.9363,6.6578],[6.9385,6.647],[6.9342,6.6372],[6.9423,6.6225],[6.915,6.5864],[6.9236,6.5736],[6.9142,6.5692],[6.9051,6.5709],[6.8998,6.5549],[6.9107,6.5159],[6.8933,6.4926],[6.8957,6.4341],[6.8918,6.412]]]}},{"id":"2","type":"Feature","properties":{"id":"NG004_4003","name":"Anambra West","pop":81723,"density":138.7,"hf":33,"hf10k":4.04,"hf2":0,"hf3":0,"u15":35.2,"disp":0,"area":589.4},"geometry":{"type":"Polygon","coordinates":[[[6.8261,6.2934],[6.7842,6.2558],[6.7866,6.2103],[6.7812,6.1855],[6.7626,6.1856],[6.7427,6.2094],[6.731,6.2391],[6.7231,6.2656],[6.7128,6.3534],[6.6998,6.3817],[6.6818,6.4557],[6.6739,6.4683],[6.6617,6.5579],[6.672,6.5675],[6.7157,6.5603],[6.7641,6.5636],[6.8081,6.5802],[6.8086,6.5894],[6.8582,6.5588],[6.8448,6.53],[6.8358,6.4893],[6.8359,6.4784],[6.8486,6.4504],[6.8546,6.4048],[6.8474,6.3802],[6.8302,6.3742],[6.8269,6.3597],[6.8372,6.3338],[6.8261,6.2934]]]}},{"id":"3","type":"Feature","properties":{"id":"NG004_4004","name":"Anaocha","pop":329481,"density":2910.6,"hf":65,"hf10k":1.97,"hf2":3,"hf3":3,"u15":34.7,"disp":0,"area":113.2},"geometry":{"type":"Polygon","coordinates":[[[6.9575,6.0401],[6.9758,6.0535],[6.9683,6.0617],[6.9682,6.0746],[6.9767,6.0852],[6.976,6.0917],[6.9699,6.0971],[6.9625,6.0951],[6.9699,6.1013],[6.9694,6.1234],[6.9793,6.132],[6.9994,6.1325],[7.0087,6.1486],[7.0068,6.1665],[7.0149,6.1693],[7.0163,6.1652],[7.0107,6.1636],[7.0153,6.157],[7.0124,6.1408],[7.0207,6.1356],[7.0348,6.1386],[7.0456,6.1301],[7.0514,6.1318],[7.0553,6.1255],[7.0599,6.1329],[7.0648,6.118],[7.0767,6.1169],[7.0672,6.0947],[7.0677,6.0794],[7.0742,6.0788],[7.0736,6.0669],[7.0631,6.0544],[7.0551,6.0524],[7.0442,6.0524],[7.0439,6.0588],[7.0381,6.0592],[7.0355,6.0514],[7.0305,6.055],[7.0282,6.046],[7.0156,6.0353],[7.008,6.0392],[6.9719,6.0287],[6.9575,6.0401]]]}},{"id":"4","type":"Feature","properties":{"id":"NG004_4005","name":"Awka North","pop":155154,"density":416.4,"hf":51,"hf10k":3.29,"hf2":2,"hf3":0,"u15":34.3,"disp":0,"area":372.6},"geometry":{"type":"Polygon","coordinates":[[[7.0648,6.4372],[7.0635,6.4279],[7.0894,6.4263],[7.1154,6.4015],[7.1307,6.3994],[7.1439,6.3883],[7.1419,6.3597],[7.1523,6.3289],[7.1618,6.3156],[7.1602,6.3034],[7.1426,6.2891],[7.1491,6.2625],[7.1434,6.2356],[7.1507,6.23],[7.1369,6.2105],[7.0951,6.2685],[7.0875,6.2711],[7.0626,6.2565],[7.0562,6.2446],[7.0471,6.2474],[7.0335,6.2358],[7.0103,6.2411],[7.0104,6.2561],[7.0013,6.2651],[7.0012,6.2902],[6.993,6.2917],[6.9638,6.3626],[6.9692,6.3929],[6.9641,6.4079],[6.9533,6.4198],[7.0084,6.4378],[7.0299,6.4512],[7.0322,6.4424],[7.0648,6.4372]]]}},{"id":"5","type":"Feature","properties":{"id":"NG004_4006","name":"Awka South","pop":441172,"density":2810.0,"hf":107,"hf10k":2.43,"hf2":3,"hf3":16,"u15":34.7,"disp":0,"area":157.0},"geometry":{"type":"Polygon","coordinates":[[[7.0963,6.1333],[7.094,6.1211],[7.0865,6.1121],[7.0648,6.118],[7.0599,6.1329],[7.0553,6.1255],[7.0514,6.1318],[7.0456,6.1301],[7.0348,6.1386],[7.0207,6.1356],[7.0124,6.1408],[7.0153,6.157],[7.0107,6.1636],[7.0163,6.1652],[7.0153,6.1719],[7.0205,6.1757],[7.0408,6.1723],[7.0396,6.1838],[7.0277,6.1979],[7.0302,6.2023],[7.022,6.2009],[7.027,6.219],[7.033,6.2163],[7.0361,6.2239],[7.0276,6.2292],[7.0295,6.2359],[7.0471,6.2474],[7.0562,6.2446],[7.0626,6.2565],[7.0875,6.2711],[7.0951,6.2685],[7.1252,6.2224],[7.1292,6.2227],[7.1294,6.2164],[7.1387,6.2111],[7.1507,6.1783],[7.1231,6.1546],[7.1085,6.1507],[7.0963,6.1333]]]}},{"id":"6","type":"Feature","properties":{"id":"NG004_4007","name":"Ayamelum","pop":77443,"density":141.1,"hf":35,"hf10k":4.52,"hf2":0,"hf3":0,"u15":34.7,"disp":0,"area":548.8},"geometry":{"type":"Polygon","coordinates":[[[7.0166,6.7061],[7.0506,6.6826],[7.0702,6.6856],[7.1016,6.6756],[7.1291,6.6595],[7.1317,6.6434],[7.1156,6.6033],[7.0842,6.5623],[7.0633,6.5549],[7.0554,6.5453],[7.0463,6.5122],[7.0497,6.4744],[7.0363,6.4738],[7.0318,6.4508],[7.0244,6.4504],[7.0084,6.4378],[6.9533,6.4198],[6.9087,6.3966],[6.8918,6.412],[6.8957,6.4341],[6.8933,6.4926],[6.9107,6.5159],[6.8998,6.5549],[6.9051,6.5709],[6.9142,6.5692],[6.9236,6.5736],[6.915,6.5864],[6.9423,6.6225],[6.9342,6.6372],[6.9385,6.647],[6.9363,6.6578],[6.9418,6.6624],[6.932,6.6724],[6.9331,6.6799],[6.9419,6.6767],[6.9452,6.6804],[6.9393,6.7033],[6.9565,6.71],[6.9909,6.7131],[7.0166,6.7061]]]}},{"id":"7","type":"Feature","properties":{"id":"NG004_4008","name":"Dunukofia","pop":189512,"density":2206.2,"hf":67,"hf10k":3.54,"hf2":2,"hf3":0,"u15":34.7,"disp":0,"area":85.9},"geometry":{"type":"Polygon","coordinates":[[[6.9603,6.1686],[6.9458,6.1547],[6.9158,6.1507],[6.9111,6.1402],[6.8912,6.1433],[6.8893,6.157],[6.9094,6.1664],[6.9058,6.1797],[6.9219,6.1868],[6.9299,6.2119],[6.946,6.2116],[6.9592,6.2199],[6.9573,6.238],[6.9646,6.2457],[6.9612,6.2679],[6.9675,6.2751],[6.9667,6.2829],[6.9878,6.3049],[6.993,6.2917],[7.0012,6.2902],[7.0013,6.2651],[7.0111,6.2543],[7.0103,6.2411],[6.9954,6.2305],[6.991,6.21],[7.0021,6.2022],[6.9868,6.1845],[6.9531,6.1839],[6.95,6.1768],[6.9603,6.1686]]]}},{"id":"8","type":"Feature","properties":{"id":"NG004_4009","name":"Ekwusigo","pop":230716,"density":1924.2,"hf":62,"hf10k":2.69,"hf2":2,"hf3":1,"u15":34.7,"disp":0,"area":119.9},"geometry":{"type":"Polygon","coordinates":[[[6.8678,5.9339],[6.8264,5.9063],[6.8107,5.9121],[6.8146,5.9217],[6.801,5.9272],[6.7949,5.9618],[6.8028,5.9908],[6.7919,6.0022],[6.7953,6.0062],[6.7827,6.0176],[6.7765,6.0171],[6.7775,6.0565],[6.8345,6.0411],[6.8653,6.0496],[6.8671,6.0574],[6.8761,6.0551],[6.8641,6.0168],[6.8708,6.019],[6.8738,6.0143],[6.8648,6.0103],[6.869,6.0075],[6.8619,5.9968],[6.8635,5.9888],[6.8742,5.9895],[6.878,5.9774],[6.8693,5.9676],[6.872,5.9575],[6.8638,5.9434],[6.8678,5.9339]]]}},{"id":"9","type":"Feature","properties":{"id":"NG004_4010","name":"Idemili North","pop":463866,"density":3643.9,"hf":127,"hf10k":2.74,"hf2":1,"hf3":7,"u15":34.7,"disp":0,"area":127.3},"geometry":{"type":"Polygon","coordinates":[[[6.8745,6.0841],[6.8466,6.0738],[6.8453,6.097],[6.8262,6.0979],[6.8138,6.0929],[6.7942,6.108],[6.7928,6.1119],[6.8033,6.1153],[6.8053,6.1216],[6.8206,6.1187],[6.8343,6.1324],[6.8328,6.1434],[6.8378,6.1505],[6.8352,6.155],[6.8267,6.1538],[6.8203,6.1692],[6.8236,6.1717],[6.8319,6.1752],[6.8429,6.1704],[6.8484,6.1796],[6.8592,6.1632],[6.8661,6.1601],[6.8828,6.1601],[6.8878,6.1652],[6.8912,6.1433],[6.9036,6.1406],[6.9111,6.1402],[6.9158,6.1507],[6.9624,6.1588],[6.9785,6.1377],[6.9779,6.1296],[6.9694,6.1234],[6.9699,6.1013],[6.9635,6.0932],[6.9516,6.098],[6.9444,6.093],[6.9358,6.0978],[6.9262,6.086],[6.9171,6.09],[6.9197,6.0935],[6.916,6.0968],[6.9041,6.0992],[6.8871,6.0822],[6.8779,6.0784],[6.8745,6.0841]]]}},{"id":"10","type":"Feature","properties":{"id":"NG004_4011","name":"Idemili South","pop":343205,"density":3300.0,"hf":72,"hf10k":2.1,"hf2":3,"hf3":8,"u15":34.7,"disp":0,"area":104.0},"geometry":{"type":"Polygon","coordinates":[[[6.9682,6.0746],[6.9683,6.0617],[6.9752,6.0488],[6.9575,6.0401],[6.9736,6.0257],[6.9677,6.0179],[6.9619,6.0258],[6.96,6.0215],[6.9553,6.0241],[6.9437,6.0176],[6.9296,6.0185],[6.9185,6.045],[6.9214,6.0495],[6.9028,6.059],[6.9008,6.0672],[6.8914,6.0711],[6.8871,6.0703],[6.8789,6.0537],[6.8671,6.0574],[6.8653,6.0496],[6.8345,6.0411],[6.7775,6.0565],[6.7823,6.0766],[6.8125,6.0937],[6.8386,6.0992],[6.8453,6.097],[6.8466,6.0738],[6.8745,6.0841],[6.8779,6.0784],[6.8863,6.0819],[6.9041,6.0992],[6.916,6.0968],[6.9197,6.0935],[6.9171,6.09],[6.9262,6.086],[6.9358,6.0978],[6.9444,6.093],[6.9516,6.098],[6.9617,6.0925],[6.9699,6.0971],[6.9767,6.0852],[6.9682,6.0746]]]}},{"id":"11","type":"Feature","properties":{"id":"NG004_4012","name":"Ihiala","pop":556979,"density":1877.9,"hf":133,"hf10k":2.39,"hf2":2,"hf3":3,"u15":34.8,"disp":0,"area":296.6},"geometry":{"type":"Polygon","coordinates":[[[6.8637,5.7493],[6.8198,5.7835],[6.8107,5.7876],[6.8008,5.7846],[6.7755,5.8296],[6.7422,5.8738],[6.7484,5.8896],[6.7599,5.885],[6.7678,5.8998],[6.7873,5.9043],[6.801,5.9272],[6.8146,5.9217],[6.8107,5.9121],[6.8264,5.9063],[6.8678,5.9339],[6.8806,5.929],[6.899,5.9125],[6.926,5.911],[6.9302,5.9017],[6.9371,5.9032],[6.9421,5.8953],[6.9481,5.9056],[6.9558,5.907],[6.972,5.9024],[6.9813,5.9048],[6.9937,5.8952],[6.9484,5.8386],[6.8915,5.8089],[6.883,5.7515],[6.8766,5.7441],[6.8637,5.7493]]]}},{"id":"12","type":"Feature","properties":{"id":"NG004_4013","name":"Njikoka","pop":159597,"density":2886.0,"hf":40,"hf10k":2.51,"hf2":1,"hf3":1,"u15":34.7,"disp":0,"area":55.3},"geometry":{"type":"Polygon","coordinates":[[[6.9603,6.1686],[6.95,6.1768],[6.9531,6.1839],[6.9868,6.1845],[6.9993,6.1977],[7.0021,6.2022],[6.991,6.21],[7.0007,6.2368],[7.0103,6.2411],[7.0295,6.2359],[7.0276,6.2292],[7.0361,6.2239],[7.033,6.2163],[7.027,6.219],[7.022,6.2009],[7.0302,6.2023],[7.0277,6.1979],[7.0396,6.1838],[7.0408,6.1723],[7.0205,6.1757],[7.0162,6.1684],[7.0068,6.1665],[7.0087,6.1486],[6.9994,6.1325],[6.9793,6.132],[6.9624,6.1588],[6.9534,6.1591],[6.9534,6.1654],[6.9603,6.1686]]]}},{"id":"13","type":"Feature","properties":{"id":"NG004_4014","name":"Nnewi North","pop":360625,"density":5272.3,"hf":110,"hf10k":3.05,"hf2":1,"hf3":20,"u15":34.7,"disp":0,"area":68.4},"geometry":{"type":"Polygon","coordinates":[[[6.9362,5.9755],[6.9255,5.9684],[6.9209,5.9799],[6.9105,5.9756],[6.9022,5.9824],[6.8954,5.9782],[6.8906,5.9814],[6.8796,5.9753],[6.8742,5.9895],[6.8635,5.9888],[6.8619,5.9968],[6.869,6.0075],[6.8648,6.0103],[6.8738,6.0143],[6.8708,6.019],[6.8641,6.0168],[6.8665,6.0334],[6.8761,6.0551],[6.8841,6.0579],[6.8871,6.0703],[6.9008,6.0672],[6.9028,6.059],[6.9214,6.0495],[6.9185,6.045],[6.9296,6.0185],[6.9423,6.0194],[6.9465,6.015],[6.9523,5.998],[6.9517,5.9925],[6.9458,5.9926],[6.9448,5.9822],[6.955,5.9758],[6.9514,5.9695],[6.9462,5.9754],[6.9362,5.9755]]]}},{"id":"14","type":"Feature","properties":{"id":"NG004_4015","name":"Nnewi South","pop":422370,"density":2337.4,"hf":84,"hf10k":1.99,"hf2":2,"hf3":2,"u15":34.7,"disp":0,"area":180.7},"geometry":{"type":"Polygon","coordinates":[[[7.0004,5.9028],[6.9937,5.8952],[6.9813,5.9048],[6.972,5.9024],[6.9558,5.907],[6.9481,5.9056],[6.9421,5.8953],[6.9371,5.9032],[6.9302,5.9017],[6.926,5.911],[6.899,5.9125],[6.8806,5.929],[6.8678,5.9339],[6.8638,5.9434],[6.872,5.9575],[6.8708,5.9714],[6.878,5.9774],[6.884,5.9753],[6.8906,5.9814],[6.8954,5.9782],[6.9022,5.9824],[6.9105,5.9756],[6.9209,5.9799],[6.9255,5.9684],[6.9362,5.9755],[6.9462,5.9754],[6.9514,5.9695],[6.955,5.9758],[6.9448,5.9822],[6.9458,5.9926],[6.9518,5.9927],[6.9516,6.0027],[6.9437,6.0176],[6.9553,6.0241],[6.96,6.0215],[6.9619,6.0258],[6.9706,6.0184],[6.9719,6.0287],[6.9932,6.0368],[6.9936,6.0325],[6.9987,6.0338],[7.0012,6.0238],[6.9971,6.0234],[6.9957,6.0106],[6.9983,5.996],[7.0137,5.9933],[7.0158,5.9857],[7.0459,5.9831],[7.0464,5.9697],[7.0541,5.9672],[7.0571,5.9564],[7.029,5.9313],[7.0367,5.9167],[7.0004,5.9028]]]}},{"id":"15","type":"Feature","properties":{"id":"NG004_4016","name":"Ogbaru","pop":211801,"density":438.4,"hf":101,"hf10k":4.77,"hf2":1,"hf3":3,"u15":34.7,"disp":0,"area":483.1},"geometry":{"type":"Polygon","coordinates":[[[6.6531,5.6816],[6.6019,5.6875],[6.6006,5.7066],[6.6436,5.7473],[6.6508,5.8171],[6.6609,5.8565],[6.6735,5.8891],[6.7001,5.9293],[6.7159,5.9699],[6.7245,6.0123],[6.7255,6.0407],[6.7032,6.0512],[6.6991,6.061],[6.7045,6.0811],[6.7492,6.1137],[6.7579,6.1349],[6.779,6.1272],[6.7934,6.1314],[6.8053,6.1216],[6.8033,6.1153],[6.7928,6.1119],[6.7942,6.108],[6.8125,6.0937],[6.7823,6.0766],[6.7765,6.0171],[6.7827,6.0176],[6.7953,6.0062],[6.7919,6.0022],[6.8028,5.9908],[6.7949,5.9618],[6.801,5.9272],[6.7873,5.9043],[6.7678,5.8998],[6.7599,5.885],[6.7484,5.8896],[6.7422,5.8738],[6.7755,5.8296],[6.8008,5.7846],[6.794,5.7742],[6.7514,5.7496],[6.7301,5.7507],[6.7143,5.7613],[6.6949,5.7462],[6.6913,5.6997],[6.6531,5.6816]]]}},{"id":"16","type":"Feature","properties":{"id":"NG004_4017","name":"Onitsha North","pop":237813,"density":5960.2,"hf":116,"hf10k":4.88,"hf2":1,"hf3":11,"u15":34.7,"disp":0,"area":39.9},"geometry":{"type":"Polygon","coordinates":[[[6.8089,6.1182],[6.7852,6.14],[6.7914,6.1425],[6.7885,6.153],[6.7783,6.1509],[6.7648,6.1558],[6.7694,6.168],[6.7673,6.1818],[6.7626,6.1856],[6.7812,6.1855],[6.7859,6.2065],[6.7948,6.1991],[6.8084,6.2051],[6.7985,6.1802],[6.8091,6.1799],[6.8104,6.1736],[6.8203,6.1692],[6.8267,6.1538],[6.8352,6.155],[6.8378,6.1505],[6.8328,6.1434],[6.8343,6.1324],[6.8206,6.1187],[6.8089,6.1182]]]}},{"id":"17","type":"Feature","properties":{"id":"NG004_4018","name":"Onitsha South","pop":70505,"density":8393.5,"hf":63,"hf10k":8.94,"hf2":1,"hf3":6,"u15":34.7,"disp":0,"area":8.4},"geometry":{"type":"Polygon","coordinates":[[[6.7911,6.1343],[6.7826,6.127],[6.7579,6.1349],[6.7648,6.1558],[6.7783,6.1509],[6.7885,6.153],[6.7914,6.1425],[6.7852,6.14],[6.7911,6.1343]]]}},{"id":"18","type":"Feature","properties":{"id":"NG004_4019","name":"Orumba North","pop":231406,"density":721.8,"hf":62,"hf10k":2.68,"hf2":2,"hf3":0,"u15":34.4,"disp":0,"area":320.6},"geometry":{"type":"Polygon","coordinates":[[[7.0631,6.0544],[7.0736,6.0669],[7.0742,6.0788],[7.0677,6.0794],[7.0672,6.0947],[7.0767,6.1169],[7.0865,6.1121],[7.1085,6.1507],[7.1231,6.1546],[7.1501,6.1764],[7.1387,6.2111],[7.1506,6.2286],[7.1893,6.2395],[7.1995,6.2348],[7.2043,6.2088],[7.224,6.1914],[7.2216,6.1576],[7.2295,6.1276],[7.2397,6.1142],[7.2548,6.1047],[7.2613,6.0794],[7.2708,6.079],[7.2644,6.0542],[7.2443,6.0494],[7.2102,6.0503],[7.2005,6.0427],[7.1957,6.0481],[7.1872,6.0467],[7.1885,6.0295],[7.1787,6.0382],[7.1673,6.0333],[7.1385,6.0052],[7.1281,6.0129],[7.1346,6.023],[7.1324,6.0308],[7.1203,6.0306],[7.1174,6.0256],[7.1031,6.0298],[7.0954,6.0492],[7.0825,6.0398],[7.0816,6.0445],[7.0678,6.0432],[7.0744,6.0343],[7.0739,6.0255],[7.0538,6.0299],[7.0516,6.0375],[7.0434,6.0344],[7.0421,6.0401],[7.0324,6.0374],[7.0344,6.0442],[7.0472,6.0498],[7.0445,6.0529],[7.0631,6.0544]]]}},{"id":"19","type":"Feature","properties":{"id":"NG004_4020","name":"Orumba South","pop":197390,"density":985.5,"hf":77,"hf10k":3.9,"hf2":3,"hf3":2,"u15":34.6,"disp":0,"area":200.3},"geometry":{"type":"Polygon","coordinates":[[[7.2708,6.079],[7.3095,6.079],[7.2973,6.0562],[7.2995,6.0481],[7.3391,6.0421],[7.3226,6.0038],[7.3183,5.9986],[7.2726,5.9977],[7.264,5.9915],[7.2546,5.9652],[7.261,5.9389],[7.2569,5.9347],[7.217,5.9309],[7.2028,5.921],[7.1923,5.9315],[7.1771,5.9292],[7.1555,5.9465],[7.163,5.9585],[7.1593,5.9659],[7.1532,5.9656],[7.1524,5.9782],[7.1581,5.9888],[7.1479,5.9918],[7.1385,6.0052],[7.1673,6.0333],[7.1787,6.0382],[7.1885,6.0295],[7.1872,6.0467],[7.1957,6.0481],[7.2005,6.0427],[7.2102,6.0503],[7.2443,6.0494],[7.2644,6.0542],[7.2708,6.079]]]}},{"id":"20","type":"Feature","properties":{"id":"NG004_4021","name":"Oyi","pop":302302,"density":2020.7,"hf":58,"hf10k":1.92,"hf2":0,"hf3":2,"u15":34.7,"disp":1050,"area":149.6},"geometry":{"type":"Polygon","coordinates":[[[6.8188,6.1709],[6.8104,6.1736],[6.8091,6.1799],[6.7985,6.1802],[6.8084,6.2051],[6.8164,6.2011],[6.8216,6.2084],[6.8176,6.2154],[6.8205,6.232],[6.8628,6.2489],[6.8786,6.2502],[6.8916,6.2601],[6.9012,6.2754],[6.9308,6.2956],[6.9472,6.2829],[6.9667,6.2829],[6.9675,6.2751],[6.9612,6.2679],[6.9646,6.2457],[6.9573,6.238],[6.9592,6.2199],[6.946,6.2116],[6.9299,6.2119],[6.9219,6.1868],[6.9068,6.1819],[6.9094,6.1664],[6.9034,6.1651],[6.9018,6.1596],[6.8893,6.157],[6.8878,6.1652],[6.8828,6.1601],[6.8661,6.1601],[6.8592,6.1632],[6.8484,6.1796],[6.8429,6.1704],[6.8319,6.1752],[6.8188,6.1709]]]}}]}