{"type":"FeatureCollection","features":[{"id":"0","type":"Feature","properties":{"id":"NG017_17001","name":"Aboh-Mbaise","pop":302539,"density":1653.2,"hf":90,"hf10k":2.97,"hf2":3,"hf3":1,"u15":35.2,"disp":0,"area":183.0},"geometry":{"type":"Polygon","coordinates":[[[7.2848,5.3497],[7.2595,5.3246],[7.2358,5.3371],[7.2517,5.3464],[7.2457,5.3615],[7.2217,5.3732],[7.1994,5.3744],[7.2044,5.3961],[7.2139,5.4016],[7.2282,5.4322],[7.2409,5.4366],[7.2253,5.4484],[7.2089,5.4438],[7.2029,5.4507],[7.1803,5.4462],[7.1749,5.4637],[7.1644,5.4765],[7.1543,5.4769],[7.172,5.496],[7.195,5.4935],[7.2102,5.5118],[7.2262,5.5071],[7.2314,5.5141],[7.2357,5.5103],[7.2369,5.5176],[7.2455,5.5219],[7.2527,5.5201],[7.2545,5.5147],[7.2631,5.5224],[7.271,5.5143],[7.2849,5.4881],[7.2775,5.4853],[7.2758,5.4758],[7.2611,5.4587],[7.2698,5.454],[7.2788,5.4568],[7.2855,5.4483],[7.2886,5.4318],[7.2843,5.4267],[7.2967,5.4206],[7.2916,5.4028],[7.3226,5.3955],[7.3219,5.3825],[7.3002,5.3412],[7.2848,5.3497]]]}},{"id":"1","type":"Feature","properties":{"id":"NG017_17002","name":"Ahiazu-Mbaise","pop":247023,"density":2480.2,"hf":63,"hf10k":2.55,"hf2":2,"hf3":2,"u15":35.2,"disp":0,"area":99.6},"geometry":{"type":"Polygon","coordinates":[[[7.2369,5.5176],[7.2357,5.5103],[7.2314,5.5141],[7.2262,5.5071],[7.2033,5.5147],[7.2124,5.5234],[7.2076,5.5381],[7.2166,5.5516],[7.2416,5.5681],[7.2544,5.5706],[7.243,5.5856],[7.2128,5.5877],[7.2143,5.6051],[7.2293,5.6129],[7.2354,5.5948],[7.2543,5.5872],[7.2533,5.5969],[7.304,5.6009],[7.3089,5.5915],[7.2996,5.5768],[7.3012,5.5695],[7.3168,5.5522],[7.3245,5.5539],[7.3234,5.5433],[7.3156,5.541],[7.3191,5.5386],[7.3143,5.5318],[7.3208,5.5251],[7.3287,5.5259],[7.3027,5.5102],[7.2844,5.4908],[7.2631,5.5224],[7.2545,5.5147],[7.2527,5.5201],[7.2455,5.5219],[7.2369,5.5176]]]}},{"id":"2","type":"Feature","properties":{"id":"NG017_17003","name":"Ehime-Mbano","pop":271126,"density":1420.3,"hf":78,"hf10k":2.88,"hf2":1,"hf3":1,"u15":35.2,"disp":0,"area":190.9},"geometry":{"type":"Polygon","coordinates":[[[7.2533,5.5969],[7.2543,5.5872],[7.2354,5.5948],[7.2242,5.6211],[7.2247,5.6592],[7.2138,5.6713],[7.2304,5.6766],[7.2371,5.675],[7.2385,5.6689],[7.2464,5.6706],[7.2436,5.6823],[7.2496,5.6839],[7.2442,5.6877],[7.2533,5.7063],[7.2574,5.7305],[7.2727,5.7322],[7.2776,5.7427],[7.3089,5.7551],[7.3246,5.7433],[7.3311,5.731],[7.3685,5.6921],[7.3593,5.6794],[7.3573,5.6575],[7.348,5.6434],[7.3524,5.6364],[7.3371,5.6291],[7.3405,5.623],[7.3361,5.6157],[7.3225,5.6113],[7.316,5.6177],[7.3011,5.6038],[7.3027,5.601],[7.2533,5.5969]]]}},{"id":"3","type":"Feature","properties":{"id":"NG017_17004","name":"Ezinihitte","pop":210171,"density":1863.2,"hf":58,"hf10k":2.76,"hf2":2,"hf3":0,"u15":35.2,"disp":0,"area":112.8},"geometry":{"type":"Polygon","coordinates":[[[7.3855,5.5034],[7.356,5.4463],[7.3363,5.4321],[7.3228,5.4075],[7.3226,5.3955],[7.3164,5.3941],[7.2916,5.4028],[7.2967,5.4206],[7.2843,5.4267],[7.2886,5.4318],[7.2855,5.4483],[7.2788,5.4568],[7.2698,5.454],[7.2611,5.4587],[7.2758,5.4758],[7.2775,5.4853],[7.2849,5.4881],[7.3027,5.5102],[7.3287,5.5259],[7.3208,5.5251],[7.3143,5.5318],[7.3191,5.5386],[7.3156,5.541],[7.3261,5.5442],[7.3644,5.5339],[7.3575,5.52],[7.3722,5.5167],[7.3717,5.506],[7.3855,5.5034]]]}},{"id":"4","type":"Feature","properties":{"id":"NG017_17005","name":"Ideato North","pop":313629,"density":1524.0,"hf":74,"hf10k":2.36,"hf2":2,"hf3":1,"u15":35.1,"disp":0,"area":205.8},"geometry":{"type":"Polygon","coordinates":[[[7.2121,5.8075],[7.2058,5.7717],[7.1949,5.7854],[7.1792,5.832],[7.1996,5.8327],[7.2026,5.8443],[7.1934,5.8723],[7.187,5.8701],[7.1902,5.8539],[7.1781,5.8486],[7.1373,5.8491],[7.1325,5.8381],[7.1031,5.8283],[7.0896,5.8175],[7.0791,5.8326],[7.0466,5.8462],[7.0494,5.8685],[7.0353,5.9019],[7.045,5.9083],[7.0468,5.9229],[7.0435,5.9235],[7.0602,5.9314],[7.1077,5.9262],[7.1492,5.9167],[7.1888,5.8995],[7.2078,5.9258],[7.2288,5.9328],[7.2255,5.9222],[7.2332,5.9136],[7.2218,5.9041],[7.225,5.8941],[7.2366,5.8835],[7.2408,5.8691],[7.255,5.8671],[7.2593,5.8578],[7.2352,5.8525],[7.2239,5.8381],[7.234,5.8392],[7.2234,5.8335],[7.2121,5.8075]]]}},{"id":"5","type":"Feature","properties":{"id":"NG017_17006","name":"Ideato South","pop":95042,"density":1014.3,"hf":25,"hf10k":2.63,"hf2":0,"hf3":0,"u15":35.2,"disp":0,"area":93.7},"geometry":{"type":"MultiPolygon","coordinates":[[[[7.0466,5.8212],[7.0466,5.8462],[7.0771,5.8315],[7.0687,5.8178],[7.0611,5.814],[7.0466,5.8212]]],[[[7.1992,5.7466],[7.1894,5.7324],[7.1736,5.7425],[7.1738,5.749],[7.1641,5.7445],[7.155,5.7565],[7.1247,5.7651],[7.1169,5.7749],[7.1237,5.7866],[7.1187,5.7893],[7.1298,5.7941],[7.1264,5.8011],[7.1228,5.799],[7.1147,5.8065],[7.1098,5.8297],[7.1325,5.8381],[7.1373,5.8491],[7.1834,5.851],[7.1852,5.8327],[7.1792,5.832],[7.1843,5.8137],[7.1935,5.7981],[7.1949,5.7854],[7.2058,5.7717],[7.1992,5.7466]]]]}},{"id":"6","type":"Feature","properties":{"id":"NG017_17007","name":"Ihitte/Uboma","pop":118976,"density":1222.8,"hf":35,"hf10k":2.94,"hf2":1,"hf3":0,"u15":35.0,"disp":0,"area":97.3},"geometry":{"type":"Polygon","coordinates":[[[7.3461,5.589],[7.3323,5.592],[7.3224,5.5834],[7.3122,5.5822],[7.3055,5.586],[7.3089,5.5915],[7.3011,5.6038],[7.316,5.6177],[7.3225,5.6113],[7.3361,5.6157],[7.3405,5.623],[7.3371,5.6291],[7.3524,5.6364],[7.348,5.6434],[7.3573,5.6575],[7.3593,5.6794],[7.3685,5.6921],[7.364,5.7005],[7.3816,5.7056],[7.3897,5.6915],[7.4082,5.677],[7.4163,5.6615],[7.4323,5.6094],[7.426,5.5856],[7.4026,5.5856],[7.4008,5.5907],[7.3883,5.5837],[7.3709,5.5932],[7.367,5.6017],[7.34,5.6058],[7.3367,5.5975],[7.344,5.5955],[7.3461,5.589]]]}},{"id":"7","type":"Feature","properties":{"id":"NG017_17008","name":"Ikeduru","pop":278502,"density":1577.9,"hf":74,"hf10k":2.66,"hf2":2,"hf3":1,"u15":35.2,"disp":0,"area":176.5},"geometry":{"type":"Polygon","coordinates":[[[7.1666,5.4888],[7.162,5.4968],[7.1449,5.49],[7.1418,5.4967],[7.107,5.5162],[7.0881,5.518],[7.0785,5.524],[7.0799,5.5344],[7.0866,5.5383],[7.0727,5.5504],[7.0755,5.5703],[7.0835,5.5788],[7.0759,5.5928],[7.0878,5.605],[7.0913,5.6058],[7.0966,5.584],[7.1112,5.5726],[7.1174,5.6012],[7.1254,5.6105],[7.1429,5.6188],[7.1609,5.6204],[7.1619,5.6005],[7.1703,5.5988],[7.1827,5.6215],[7.1873,5.6188],[7.1854,5.605],[7.2064,5.6024],[7.2109,5.5999],[7.2128,5.5877],[7.2228,5.5843],[7.243,5.5856],[7.2544,5.5706],[7.2416,5.5681],[7.2166,5.5516],[7.2076,5.5381],[7.2124,5.5234],[7.2033,5.5147],[7.2096,5.5096],[7.1992,5.4955],[7.1883,5.4913],[7.1865,5.4952],[7.172,5.496],[7.1666,5.4888]]]}},{"id":"8","type":"Feature","properties":{"id":"NG017_17009","name":"Isiala Mbano","pop":257206,"density":1969.4,"hf":69,"hf10k":2.68,"hf2":1,"hf3":0,"u15":35.2,"disp":0,"area":130.6},"geometry":{"type":"Polygon","coordinates":[[[7.1827,5.6215],[7.1703,5.5988],[7.1629,5.5985],[7.1621,5.627],[7.1485,5.6243],[7.1294,5.6342],[7.1058,5.6297],[7.089,5.6488],[7.0809,5.6484],[7.0823,5.6554],[7.089,5.67],[7.0999,5.6677],[7.0955,5.6786],[7.1039,5.6807],[7.1132,5.6718],[7.1211,5.6801],[7.1385,5.6681],[7.1484,5.6546],[7.1547,5.6662],[7.1612,5.6598],[7.1657,5.6634],[7.1703,5.6687],[7.1598,5.6783],[7.1692,5.7045],[7.1655,5.7154],[7.1577,5.7169],[7.1627,5.7212],[7.1874,5.711],[7.2012,5.7095],[7.2059,5.7134],[7.2192,5.7073],[7.2301,5.718],[7.2444,5.7232],[7.2473,5.736],[7.2574,5.7305],[7.2533,5.7063],[7.2442,5.6877],[7.2496,5.6839],[7.2436,5.6823],[7.2464,5.6706],[7.2385,5.6689],[7.2371,5.675],[7.2304,5.6766],[7.2138,5.6713],[7.2247,5.6592],[7.2261,5.6127],[7.2109,5.5999],[7.1881,5.6043],[7.1847,5.6059],[7.1873,5.6188],[7.1827,5.6215]]]}},{"id":"9","type":"Feature","properties":{"id":"NG017_17010","name":"Isu","pop":134438,"density":2012.5,"hf":44,"hf10k":3.27,"hf2":0,"hf3":0,"u15":35.2,"disp":0,"area":66.8},"geometry":{"type":"Polygon","coordinates":[[[7.089,5.67],[7.0743,5.6267],[7.0627,5.6377],[7.0567,5.6353],[7.0558,5.6425],[7.0434,5.6387],[7.0432,5.6435],[7.0382,5.6428],[7.0414,5.6483],[7.0295,5.6501],[7.0349,5.6749],[7.0315,5.689],[7.0021,5.6854],[7.0028,5.6979],[7.011,5.6992],[7.0115,5.7199],[7.02,5.7177],[7.0364,5.7318],[7.0588,5.7282],[7.0633,5.7364],[7.0988,5.7295],[7.1002,5.7211],[7.0835,5.7289],[7.0782,5.7166],[7.0887,5.7062],[7.0768,5.695],[7.068,5.6936],[7.0727,5.6761],[7.0783,5.6776],[7.089,5.67]]]}},{"id":"10","type":"Feature","properties":{"id":"NG017_17011","name":"Mbatoli","pop":426121,"density":2457.4,"hf":83,"hf10k":1.95,"hf2":6,"hf3":1,"u15":35.2,"disp":17454,"area":173.4},"geometry":{"type":"Polygon","coordinates":[[[6.9889,5.5449],[6.9813,5.541],[6.9694,5.5612],[6.9568,5.5657],[6.9637,5.5814],[6.9607,5.5925],[6.9641,5.6012],[6.9552,5.6266],[7.0204,5.6526],[7.0398,5.6493],[7.0382,5.6428],[7.0432,5.6435],[7.0434,5.6387],[7.0558,5.6425],[7.0567,5.6353],[7.0627,5.6377],[7.0743,5.6267],[7.0797,5.6369],[7.0791,5.6484],[7.0869,5.6489],[7.1058,5.6297],[7.1294,5.6342],[7.1485,5.6243],[7.1621,5.627],[7.1609,5.6204],[7.1429,5.6188],[7.1254,5.6105],[7.1174,5.6012],[7.1112,5.5726],[7.0936,5.5884],[7.0913,5.6058],[7.0817,5.6001],[7.0759,5.5928],[7.0835,5.5788],[7.0755,5.5703],[7.0718,5.5556],[7.0738,5.5459],[7.0866,5.5383],[7.0799,5.5344],[7.0785,5.524],[7.0519,5.5419],[7.0442,5.5414],[7.0332,5.5207],[7.0273,5.5226],[7.0218,5.541],[7.0177,5.5346],[6.9988,5.5489],[7.0067,5.559],[6.9986,5.5689],[6.9855,5.5635],[6.9889,5.5449]]]}},{"id":"11","type":"Feature","properties":{"id":"NG017_17012","name":"Ngor-Okpala","pop":266870,"density":510.2,"hf":68,"hf10k":2.55,"hf2":4,"hf3":1,"u15":35.2,"disp":0,"area":523.1},"geometry":{"type":"Polygon","coordinates":[[[7.2786,5.2742],[7.2643,5.2156],[7.2561,5.2135],[7.2514,5.2019],[7.2421,5.1959],[7.2101,5.1966],[7.1654,5.2123],[7.1227,5.2163],[7.0838,5.229],[7.0451,5.2487],[7.0036,5.24],[7.0102,5.2724],[7.0402,5.3011],[7.0417,5.3223],[7.0353,5.3285],[7.0653,5.3436],[7.0961,5.3926],[7.1063,5.3986],[7.1526,5.3946],[7.1615,5.4035],[7.173,5.4288],[7.1467,5.4402],[7.1713,5.4673],[7.1803,5.4462],[7.2029,5.4507],[7.2089,5.4438],[7.2253,5.4484],[7.2409,5.4366],[7.2282,5.4322],[7.2139,5.4016],[7.2044,5.3961],[7.1994,5.3744],[7.2217,5.3732],[7.2457,5.3615],[7.2517,5.3464],[7.2358,5.3371],[7.2595,5.3246],[7.2848,5.3497],[7.3002,5.3412],[7.2923,5.3276],[7.2911,5.3035],[7.2786,5.2742]]]}},{"id":"12","type":"Feature","properties":{"id":"NG017_17013","name":"Njaba","pop":157063,"density":2775.0,"hf":28,"hf10k":1.78,"hf2":1,"hf3":0,"u15":35.2,"disp":0,"area":56.6},"geometry":{"type":"MultiPolygon","coordinates":[[[[7.0338,5.6639],[7.0295,5.6501],[7.0103,5.6497],[7.0033,5.6658],[6.9879,5.6579],[6.9896,5.6633],[6.9836,5.664],[6.9786,5.6746],[7.019,5.6902],[7.0315,5.689],[7.0338,5.6639]]],[[[7.011,5.6992],[6.9899,5.7035],[6.9842,5.6983],[6.9608,5.6953],[6.9744,5.7117],[6.9778,5.727],[6.9715,5.761],[6.9652,5.7718],[6.9808,5.7768],[6.9888,5.7668],[7.0078,5.7627],[6.997,5.7552],[6.9993,5.7437],[7.015,5.735],[7.0187,5.7419],[7.0398,5.7428],[7.0633,5.7364],[7.0588,5.7282],[7.0364,5.7318],[7.02,5.7177],[7.0115,5.7199],[7.011,5.6992]]]]}},{"id":"13","type":"Feature","properties":{"id":"NG017_17014","name":"Nkwerre","pop":94809,"density":2000.2,"hf":32,"hf10k":3.38,"hf2":1,"hf3":0,"u15":35.2,"disp":0,"area":47.4},"geometry":{"type":"MultiPolygon","coordinates":[[[[7.1313,5.7222],[7.1317,5.7174],[7.1277,5.72],[7.1225,5.7109],[7.1165,5.71],[7.1059,5.7233],[7.0942,5.7132],[7.0796,5.7187],[7.0843,5.7297],[7.1002,5.7211],[7.0988,5.7295],[7.1046,5.727],[7.1119,5.7346],[7.1313,5.7222]]],[[[7.0766,5.7354],[7.0834,5.7462],[7.0918,5.7457],[7.0922,5.7527],[7.0892,5.757],[7.0817,5.7562],[7.0818,5.7718],[7.0719,5.7748],[7.0696,5.7858],[7.0926,5.793],[7.1135,5.8111],[7.1298,5.7941],[7.1187,5.7893],[7.1237,5.7866],[7.1169,5.7749],[7.1247,5.7651],[7.155,5.7565],[7.1624,5.746],[7.1533,5.7426],[7.1471,5.7468],[7.1405,5.7387],[7.1271,5.7417],[7.1254,5.7374],[7.1125,5.7394],[7.1063,5.7485],[7.1002,5.7469],[7.0988,5.7295],[7.0766,5.7354]]]]}},{"id":"14","type":"Feature","properties":{"id":"NG017_17015","name":"Nwangele","pop":149830,"density":2089.7,"hf":29,"hf10k":1.94,"hf2":0,"hf3":0,"u15":35.2,"disp":0,"area":71.7},"geometry":{"type":"Polygon","coordinates":[[[7.1385,5.6681],[7.1197,5.6798],[7.1132,5.6718],[7.1081,5.6792],[7.0955,5.6786],[7.0999,5.6677],[7.0783,5.6776],[7.0727,5.6761],[7.068,5.6936],[7.0768,5.695],[7.0887,5.7062],[7.0784,5.7171],[7.0942,5.7132],[7.1059,5.7233],[7.1165,5.71],[7.1225,5.7109],[7.1277,5.72],[7.1317,5.7174],[7.1298,5.7241],[7.1189,5.7276],[7.1157,5.7341],[7.1046,5.727],[7.0988,5.7295],[7.1002,5.7469],[7.1084,5.7486],[7.111,5.7403],[7.1254,5.7374],[7.1271,5.7417],[7.1405,5.7387],[7.1471,5.7468],[7.1533,5.7426],[7.1738,5.749],[7.1736,5.7425],[7.1894,5.7324],[7.1858,5.7244],[7.1897,5.7194],[7.1833,5.7133],[7.1646,5.7219],[7.1579,5.7178],[7.1655,5.7154],[7.1692,5.7045],[7.1598,5.6783],[7.1689,5.6661],[7.1612,5.6598],[7.1547,5.6662],[7.1484,5.6546],[7.1385,5.6681]]]}},{"id":"15","type":"Feature","properties":{"id":"NG017_17016","name":"Obowo","pop":168895,"density":2057.2,"hf":61,"hf10k":3.61,"hf2":0,"hf3":3,"u15":35.1,"disp":0,"area":82.1},"geometry":{"type":"Polygon","coordinates":[[[7.3717,5.506],[7.3722,5.5167],[7.3575,5.52],[7.3644,5.5339],[7.3234,5.5433],[7.3245,5.5539],[7.3168,5.5522],[7.3012,5.5695],[7.3035,5.5845],[7.3224,5.5834],[7.3323,5.592],[7.3461,5.589],[7.344,5.5955],[7.3367,5.5975],[7.34,5.6058],[7.367,5.6017],[7.3709,5.5932],[7.3883,5.5837],[7.4008,5.5907],[7.4026,5.5856],[7.4249,5.5883],[7.4152,5.5759],[7.4174,5.5621],[7.4095,5.553],[7.4017,5.5241],[7.3855,5.5034],[7.3717,5.506]]]}},{"id":"16","type":"Feature","properties":{"id":"NG017_17017","name":"Oguta","pop":246017,"density":519.6,"hf":61,"hf10k":2.48,"hf2":2,"hf3":1,"u15":35.2,"disp":0,"area":473.5},"geometry":{"type":"Polygon","coordinates":[[[6.934,5.5543],[6.9294,5.5425],[6.9048,5.5311],[6.8888,5.5293],[6.8518,5.5806],[6.8261,5.6018],[6.7642,5.6141],[6.7234,5.616],[6.7088,5.6222],[6.6584,5.6249],[6.6689,5.6899],[6.6913,5.6997],[6.6949,5.7462],[6.7143,5.7613],[6.7301,5.7507],[6.7514,5.7496],[6.8107,5.7876],[6.8465,5.7658],[6.8284,5.7419],[6.8404,5.72],[6.8595,5.7282],[6.8599,5.7138],[6.8719,5.6934],[6.9043,5.6571],[6.9277,5.6344],[6.9552,5.6266],[6.9641,5.6012],[6.9607,5.5925],[6.9637,5.5814],[6.9568,5.5657],[6.9694,5.5612],[6.934,5.5543]]]}},{"id":"17","type":"Feature","properties":{"id":"NG017_17018","name":"Ohaji/Egbema","pop":318113,"density":338.4,"hf":58,"hf10k":1.82,"hf2":2,"hf3":0,"u15":35.2,"disp":0,"area":940.1},"geometry":{"type":"Polygon","coordinates":[[[7.0036,5.24],[6.904,5.2195],[6.8876,5.2256],[6.8664,5.2431],[6.8271,5.2524],[6.7707,5.3008],[6.7558,5.3235],[6.7625,5.4102],[6.7441,5.4491],[6.7437,5.4589],[6.7512,5.4648],[6.7414,5.4941],[6.7156,5.4891],[6.6391,5.4934],[6.6584,5.6249],[6.7088,5.6222],[6.7234,5.616],[6.813,5.6061],[6.8261,5.6018],[6.8518,5.5806],[6.8888,5.5293],[6.9048,5.5311],[6.9294,5.5425],[6.9291,5.5254],[6.8856,5.5032],[6.8964,5.4842],[6.9136,5.4677],[6.918,5.4516],[6.9302,5.4427],[6.8702,5.392],[6.8697,5.3848],[6.8905,5.3779],[6.9202,5.3855],[6.9397,5.3986],[6.9671,5.3814],[6.9764,5.394],[6.9867,5.3755],[6.9823,5.3417],[7.0229,5.3038],[7.0266,5.2887],[7.0172,5.2799],[6.9862,5.2885],[6.988,5.2601],[7.0063,5.2646],[7.0036,5.24]]]}},{"id":"18","type":"Feature","properties":{"id":"NG017_17019","name":"Okigwe","pop":195687,"density":597.5,"hf":64,"hf10k":3.27,"hf2":1,"hf3":2,"u15":35.2,"disp":0,"area":327.5},"geometry":{"type":"Polygon","coordinates":[[[7.3926,5.831],[7.3997,5.7104],[7.364,5.7005],[7.3089,5.7551],[7.2776,5.7427],[7.2727,5.7322],[7.2574,5.7305],[7.2473,5.736],[7.2564,5.7523],[7.2803,5.7575],[7.2858,5.7726],[7.2706,5.7866],[7.2519,5.8303],[7.2323,5.8398],[7.2239,5.8381],[7.2352,5.8525],[7.2593,5.8578],[7.255,5.8671],[7.2408,5.8691],[7.2366,5.8835],[7.225,5.8941],[7.2218,5.9041],[7.2332,5.9136],[7.2255,5.9222],[7.2288,5.9328],[7.2486,5.9319],[7.261,5.9389],[7.2708,5.9248],[7.2845,5.9184],[7.3629,5.9038],[7.3879,5.9128],[7.3942,5.9102],[7.3961,5.8987],[7.3864,5.8609],[7.3926,5.831]]]}},{"id":"19","type":"Feature","properties":{"id":"NG017_17027","name":"Onuimo","pop":63904,"density":701.5,"hf":16,"hf10k":2.5,"hf2":0,"hf3":0,"u15":35.2,"disp":0,"area":91.1},"geometry":{"type":"MultiPolygon","coordinates":[[[[7.2564,5.7523],[7.2444,5.7232],[7.2301,5.718],[7.2192,5.7073],[7.2081,5.713],[7.2012,5.7095],[7.1833,5.7133],[7.1897,5.7194],[7.1858,5.7244],[7.2006,5.7489],[7.2121,5.8075],[7.2234,5.8335],[7.234,5.8392],[7.2563,5.8256],[7.2706,5.7866],[7.2858,5.7726],[7.2803,5.7575],[7.2564,5.7523]]],[[[7.1934,5.8723],[7.2026,5.8443],[7.1981,5.8297],[7.1892,5.8294],[7.183,5.8366],[7.1834,5.851],[7.1902,5.8539],[7.187,5.8701],[7.1934,5.8723]]]]}},{"id":"20","type":"Feature","properties":{"id":"NG017_17020","name":"Orlu","pop":364365,"density":2807.1,"hf":113,"hf10k":3.1,"hf2":1,"hf3":8,"u15":35.2,"disp":0,"area":129.8},"geometry":{"type":"Polygon","coordinates":[[[7.0761,5.7334],[7.0398,5.7428],[7.0187,5.7419],[7.015,5.735],[6.9993,5.7437],[6.997,5.7552],[7.0078,5.7627],[6.9888,5.7668],[6.9808,5.7768],[6.9909,5.7916],[6.9817,5.7944],[6.986,5.7977],[6.9849,5.8107],[6.9982,5.8093],[7.0051,5.8228],[6.9997,5.8334],[7.001,5.8477],[7.0184,5.8452],[7.0122,5.8801],[7.021,5.8928],[7.0353,5.9019],[7.0494,5.8685],[7.0441,5.8309],[7.0466,5.8212],[7.0611,5.814],[7.0791,5.8326],[7.0896,5.8175],[7.1085,5.8303],[7.1132,5.8242],[7.1135,5.8111],[7.1029,5.7994],[7.0696,5.7858],[7.0719,5.7748],[7.0818,5.7718],[7.0817,5.7562],[7.0892,5.757],[7.0922,5.7527],[7.0918,5.7457],[7.0834,5.7462],[7.0761,5.7334]]]}},{"id":"21","type":"Feature","properties":{"id":"NG017_17021","name":"Orsu","pop":183388,"density":2799.8,"hf":52,"hf10k":2.84,"hf2":2,"hf3":1,"u15":35.2,"disp":0,"area":65.5},"geometry":{"type":"Polygon","coordinates":[[[6.9501,5.8168],[6.9419,5.8114],[6.9379,5.8003],[6.9276,5.8066],[6.9334,5.8304],[6.9484,5.8386],[6.9982,5.9008],[7.031,5.9121],[7.0468,5.9229],[7.0427,5.9052],[7.021,5.8928],[7.0122,5.8801],[7.0184,5.8452],[7.001,5.8477],[6.9997,5.8334],[7.0051,5.8228],[6.9982,5.8093],[6.9849,5.8107],[6.9854,5.7971],[6.9619,5.7924],[6.9594,5.8157],[6.9501,5.8168]]]}},{"id":"22","type":"Feature","properties":{"id":"NG017_17022","name":"Oru East","pop":247076,"density":2229.9,"hf":52,"hf10k":2.1,"hf2":1,"hf3":1,"u15":35.2,"disp":0,"area":110.8},"geometry":{"type":"Polygon","coordinates":[[[7.006,5.6463],[6.9552,5.6266],[6.9382,5.6291],[6.9116,5.6502],[6.9296,5.6634],[6.9184,5.69],[6.9433,5.6963],[6.9182,5.7445],[6.9276,5.7425],[6.9356,5.7542],[6.9568,5.7633],[6.9634,5.7711],[6.9504,5.7751],[6.9461,5.7666],[6.934,5.7775],[6.9429,5.7806],[6.9427,5.7905],[6.9283,5.7949],[6.9227,5.7897],[6.918,5.7924],[6.9276,5.8066],[6.9379,5.8003],[6.9419,5.8114],[6.9501,5.8168],[6.9594,5.8157],[6.9619,5.7924],[6.9743,5.7969],[6.9909,5.7916],[6.9824,5.7778],[6.9652,5.7718],[6.9715,5.761],[6.9778,5.727],[6.9744,5.7117],[6.9608,5.6953],[6.9842,5.6983],[6.9899,5.7035],[7.0028,5.6979],[7.0015,5.6808],[6.9787,5.6737],[6.9836,5.664],[6.9896,5.6633],[6.9879,5.6579],[7.0033,5.6658],[7.0106,5.6556],[7.006,5.6463]]]}},{"id":"23","type":"Feature","properties":{"id":"NG017_17023","name":"Oru West","pop":283578,"density":2389.0,"hf":70,"hf10k":2.47,"hf2":3,"hf3":1,"u15":35.1,"disp":0,"area":118.7},"geometry":{"type":"Polygon","coordinates":[[[6.9182,5.7445],[6.9433,5.6963],[6.9184,5.69],[6.9296,5.6634],[6.9116,5.6502],[6.8719,5.6934],[6.8599,5.7138],[6.8595,5.7282],[6.8404,5.72],[6.8284,5.7419],[6.8465,5.7658],[6.8655,5.7479],[6.8795,5.7455],[6.8898,5.8063],[6.9014,5.8168],[6.9334,5.8304],[6.9267,5.8032],[6.918,5.7924],[6.9227,5.7897],[6.9283,5.7949],[6.9427,5.7905],[6.9429,5.7806],[6.934,5.7775],[6.9461,5.7666],[6.9504,5.7751],[6.9634,5.7711],[6.9568,5.7633],[6.9356,5.7542],[6.9276,5.7425],[6.9182,5.7445]]]}},{"id":"24","type":"Feature","properties":{"id":"NG017_17024","name":"Owerri Municipal","pop":330244,"density":5292.4,"hf":110,"hf10k":3.33,"hf2":3,"hf3":9,"u15":35.2,"disp":0,"area":62.4},"geometry":{"type":"Polygon","coordinates":[[[7.069,5.4864],[7.0692,5.4736],[7.0619,5.4675],[7.0745,5.4617],[7.032,5.443],[7.0243,5.4447],[7.0024,5.4266],[7.001,5.4368],[6.9859,5.444],[6.9958,5.4562],[6.9839,5.4611],[6.9867,5.4727],[6.9747,5.4843],[6.9968,5.5107],[7.0004,5.5096],[6.9973,5.5137],[7.0095,5.5255],[7.0182,5.5085],[7.0285,5.5126],[7.0483,5.4969],[7.049,5.4898],[7.064,5.4929],[7.069,5.4864]]]}},{"id":"25","type":"Feature","properties":{"id":"NG017_17025","name":"Owerri North","pop":428842,"density":2326.9,"hf":83,"hf10k":1.94,"hf2":1,"hf3":3,"u15":35.2,"disp":0,"area":184.3},"geometry":{"type":"Polygon","coordinates":[[[7.0653,5.3436],[7.0353,5.3285],[7.0302,5.3423],[7.0342,5.3466],[7.0351,5.3766],[7.0633,5.3801],[7.0806,5.418],[7.0787,5.4254],[7.0625,5.4268],[7.0419,5.4469],[7.0748,5.4634],[7.0619,5.4675],[7.0692,5.4736],[7.069,5.4864],[7.064,5.4929],[7.049,5.4898],[7.0483,5.4969],[7.0285,5.5126],[7.0182,5.5085],[7.0059,5.5316],[7.0062,5.5416],[7.0177,5.5346],[7.0218,5.541],[7.027,5.523],[7.0318,5.5205],[7.0442,5.5414],[7.0541,5.5417],[7.0682,5.5276],[7.0881,5.518],[7.107,5.5162],[7.1418,5.4967],[7.1449,5.49],[7.162,5.4968],[7.1666,5.4888],[7.1543,5.4769],[7.1644,5.4765],[7.1713,5.4673],[7.1467,5.4402],[7.173,5.4288],[7.1615,5.4035],[7.1526,5.3946],[7.1119,5.3988],[7.0998,5.3958],[7.0653,5.3436]]]}},{"id":"26","type":"Feature","properties":{"id":"NG017_17026","name":"Owerri West","pop":438676,"density":1529.6,"hf":61,"hf10k":1.39,"hf2":3,"hf3":2,"u15":35.2,"disp":0,"area":286.8},"geometry":{"type":"MultiPolygon","coordinates":[[[[7.0063,5.2646],[6.988,5.2601],[6.9862,5.2885],[7.0172,5.2799],[7.0063,5.2646]]],[[[7.0351,5.3766],[7.0342,5.3466],[7.0302,5.3423],[7.0366,5.3249],[7.0417,5.3223],[7.0402,5.3011],[7.0266,5.2887],[7.0229,5.3038],[6.9823,5.3417],[6.9867,5.3755],[6.9764,5.394],[6.9671,5.3814],[6.9397,5.3986],[6.9202,5.3855],[6.8905,5.3779],[6.8697,5.3848],[6.8702,5.392],[6.9302,5.4427],[6.918,5.4516],[6.9136,5.4677],[6.8964,5.4842],[6.8856,5.5032],[6.9291,5.5254],[6.934,5.5543],[6.9692,5.5606],[6.9813,5.541],[6.9889,5.5449],[6.9855,5.5635],[6.9986,5.5689],[7.0067,5.559],[6.9988,5.5489],[7.0055,5.5443],[7.0095,5.5255],[6.9973,5.5137],[7.0004,5.5096],[6.9968,5.5107],[6.9747,5.4843],[6.9867,5.4727],[6.9839,5.4611],[6.9958,5.4562],[6.9859,5.444],[7.001,5.4368],[7.0024,5.4266],[7.0243,5.4447],[7.0419,5.4469],[7.0625,5.4268],[7.0787,5.4254],[7.0806,5.418],[7.0633,5.3801],[7.0351,5.3766]]]]}}]}