{"type":"FeatureCollection","features":[{"id":"0","type":"Feature","properties":{"id":"NG010_10001","name":"Aniocha North","pop":188595,"density":464.5,"hf":29,"hf10k":1.54,"hf2":2,"hf3":0,"u15":33.5,"disp":0,"area":406.0},"geometry":{"type":"Polygon","coordinates":[[[6.4629,6.2674],[6.4195,6.2476],[6.3753,6.2396],[6.3732,6.2645],[6.3894,6.2945],[6.3914,6.3098],[6.3623,6.3844],[6.3914,6.3888],[6.4313,6.4068],[6.4454,6.4252],[6.5022,6.464],[6.5233,6.4875],[6.5755,6.4951],[6.5708,6.4819],[6.5709,6.4527],[6.5793,6.4147],[6.566,6.3279],[6.5668,6.3182],[6.5815,6.2912],[6.5567,6.2931],[6.5342,6.3054],[6.5172,6.3039],[6.4629,6.2674]]]}},{"id":"1","type":"Feature","properties":{"id":"NG010_10002","name":"Aniocha South","pop":276749,"density":319.1,"hf":36,"hf10k":1.3,"hf2":1,"hf3":0,"u15":35.5,"disp":0,"area":867.4},"geometry":{"type":"Polygon","coordinates":[[[6.5274,5.9961],[6.4792,5.9853],[6.4445,5.9843],[6.4118,5.9875],[6.394,6.0248],[6.3831,6.0302],[6.3608,5.9891],[6.3458,5.9918],[6.3192,6.0186],[6.3359,6.0929],[6.348,6.1152],[6.3438,6.1554],[6.3539,6.1576],[6.377,6.1765],[6.3898,6.1953],[6.3753,6.2396],[6.4195,6.2476],[6.4629,6.2674],[6.507,6.2989],[6.5342,6.3054],[6.5567,6.2931],[6.5815,6.2912],[6.5941,6.283],[6.6345,6.2362],[6.625,6.2119],[6.6102,6.193],[6.6069,6.1646],[6.6104,6.1375],[6.62,6.1244],[6.6411,6.1094],[6.6466,6.0983],[6.629,6.0746],[6.5937,6.0798],[6.5726,6.0762],[6.5645,6.0595],[6.5728,6.0283],[6.5668,5.9964],[6.5274,5.9961]]]}},{"id":"2","type":"Feature","properties":{"id":"NG010_10003","name":"Bomadi","pop":152619,"density":735.5,"hf":22,"hf10k":1.44,"hf2":2,"hf3":0,"u15":37.9,"disp":0,"area":207.5},"geometry":{"type":"Polygon","coordinates":[[[5.8072,5.1875],[5.7786,5.1764],[5.761,5.1991],[5.7584,5.2097],[5.782,5.231],[5.8121,5.2473],[5.8083,5.2649],[5.8016,5.2719],[5.7721,5.2597],[5.7615,5.2604],[5.757,5.2679],[5.7461,5.2594],[5.7401,5.2601],[5.7379,5.2713],[5.7483,5.2759],[5.7433,5.2903],[5.7449,5.3028],[5.7366,5.3032],[5.7358,5.3091],[5.7253,5.3154],[5.7284,5.3283],[5.7509,5.3343],[5.7562,5.3456],[5.7783,5.3413],[5.7875,5.3545],[5.805,5.3588],[5.8182,5.3421],[5.7947,5.3148],[5.7998,5.306],[5.8098,5.3034],[5.8252,5.31],[5.8314,5.3075],[5.836,5.2926],[5.8446,5.2881],[5.8468,5.2598],[5.8387,5.2429],[5.8483,5.2361],[5.8486,5.2298],[5.8602,5.2255],[5.8566,5.2183],[5.8869,5.2091],[5.8837,5.1986],[5.9032,5.1914],[5.9278,5.1607],[5.9269,5.1399],[5.9164,5.1315],[5.9145,5.1082],[5.8827,5.1018],[5.8791,5.1762],[5.8638,5.1848],[5.8387,5.1762],[5.8282,5.1868],[5.8072,5.1875]]]}},{"id":"3","type":"Feature","properties":{"id":"NG010_10004","name":"Burutu","pop":185750,"density":103.5,"hf":31,"hf10k":1.67,"hf2":2,"hf3":0,"u15":37.8,"disp":0,"area":1794.3},"geometry":{"type":"MultiPolygon","coordinates":[[[[5.761,5.1991],[5.7786,5.1764],[5.8004,5.1872],[5.8186,5.1894],[5.8282,5.1868],[5.8387,5.1762],[5.8638,5.1848],[5.8791,5.1762],[5.8814,5.1095],[5.8677,5.0681],[5.8574,5.0774],[5.8483,5.0665],[5.8409,5.0676],[5.8401,5.0831],[5.8203,5.0752],[5.809,5.0864],[5.8036,5.0819],[5.7913,5.0858],[5.779,5.058],[5.7642,5.0642],[5.752,5.0537],[5.7365,5.0566],[5.7306,5.0545],[5.7194,5.0309],[5.7103,5.0238],[5.6667,5.0283],[5.6618,5.0129],[5.6479,5.0118],[5.6329,5.0184],[5.6197,5.0347],[5.5909,5.0434],[5.5846,5.0552],[5.5509,5.0556],[5.5331,5.0629],[5.5241,5.0688],[5.5116,5.0883],[5.5029,5.0925],[5.4679,5.0932],[5.4646,5.0976],[5.4692,5.1168],[5.4484,5.1337],[5.4439,5.1467],[5.4216,5.1525],[5.388,5.139],[5.3726,5.1456],[5.3604,5.1586],[5.3527,5.1679],[5.3457,5.2314],[5.3206,5.3644],[5.3517,5.3633],[5.3705,5.3566],[5.4671,5.3717],[5.5269,5.4071],[5.5813,5.3811],[5.6061,5.3776],[5.6598,5.3897],[5.6823,5.4131],[5.7042,5.4139],[5.6985,5.4009],[5.7184,5.3861],[5.7149,5.3741],[5.7231,5.3685],[5.7195,5.3429],[5.7284,5.3283],[5.7253,5.3154],[5.7358,5.3091],[5.7366,5.3032],[5.7449,5.3028],[5.7433,5.2903],[5.7483,5.2759],[5.7379,5.2713],[5.7389,5.2615],[5.7461,5.2594],[5.757,5.2679],[5.7615,5.2604],[5.7721,5.2597],[5.8016,5.2719],[5.8083,5.2649],[5.8121,5.2473],[5.782,5.231],[5.7584,5.2097],[5.761,5.1991]]],[[[5.3002,5.467],[5.3777,5.4201],[5.4312,5.4006],[5.431,5.3855],[5.3549,5.3898],[5.2602,5.4285],[5.2271,5.4512],[5.2434,5.4597],[5.3002,5.467]]]]}},{"id":"4","type":"Feature","properties":{"id":"NG010_10005","name":"Ethiope East","pop":343317,"density":750.9,"hf":29,"hf10k":0.84,"hf2":2,"hf3":3,"u15":36.4,"disp":0,"area":457.2},"geometry":{"type":"Polygon","coordinates":[[[6.0542,5.6593],[6.0585,5.6218],[6.0503,5.6121],[6.0286,5.5952],[6.0162,5.5918],[6.0114,5.5785],[5.9977,5.5694],[5.99,5.5574],[5.969,5.5494],[5.9549,5.5498],[5.9546,5.5664],[5.9226,5.563],[5.9142,5.5993],[5.9014,5.5991],[5.9183,5.629],[5.9068,5.6572],[5.8783,5.6804],[5.8747,5.6883],[5.8596,5.6902],[5.8529,5.7031],[5.8682,5.7479],[5.8879,5.753],[5.8905,5.7633],[5.9061,5.7704],[5.9246,5.7483],[5.9409,5.7464],[5.9586,5.7507],[5.9817,5.7481],[6.0157,5.7643],[6.0398,5.7646],[6.0937,5.7941],[6.1209,5.8397],[6.1235,5.8235],[6.1379,5.8146],[6.1444,5.8178],[6.1518,5.8049],[6.1557,5.7688],[6.1438,5.7514],[6.1134,5.7516],[6.0921,5.7169],[6.0742,5.719],[6.0601,5.6889],[6.0412,5.6855],[6.0542,5.6593]]]}},{"id":"5","type":"Feature","properties":{"id":"NG010_10006","name":"Ethiope West","pop":405474,"density":744.8,"hf":35,"hf10k":0.86,"hf2":4,"hf3":1,"u15":36.5,"disp":0,"area":544.4},"geometry":{"type":"Polygon","coordinates":[[[5.8333,5.9411],[5.9213,5.8773],[5.9065,5.8439],[5.9024,5.8111],[5.89,5.7908],[5.8753,5.7919],[5.8696,5.7813],[5.8628,5.7888],[5.8525,5.7872],[5.8434,5.7925],[5.8378,5.7817],[5.8304,5.7844],[5.8258,5.7807],[5.8256,5.771],[5.8126,5.78],[5.8125,5.7889],[5.8084,5.7918],[5.8025,5.7869],[5.7956,5.7918],[5.7923,5.8088],[5.7781,5.8119],[5.7706,5.8278],[5.7793,5.839],[5.7723,5.8528],[5.7577,5.8525],[5.7461,5.865],[5.7251,5.8597],[5.7211,5.8631],[5.728,5.8985],[5.7161,5.893],[5.6957,5.8918],[5.6919,5.9022],[5.6818,5.9038],[5.6407,5.9458],[5.626,5.9398],[5.6169,5.9173],[5.6103,5.914],[5.5793,5.9255],[5.5751,5.932],[5.579,5.947],[5.5672,5.9598],[5.5713,5.9909],[5.5834,6.0111],[5.5936,6.0181],[5.6575,6.0332],[5.6689,6.052],[5.7951,5.9796],[5.812,5.9839],[5.8353,5.9515],[5.8333,5.9411]]]}},{"id":"6","type":"Feature","properties":{"id":"NG010_10007","name":"Ika North East","pop":334663,"density":701.9,"hf":32,"hf10k":0.96,"hf2":1,"hf3":1,"u15":34.7,"disp":0,"area":476.8},"geometry":{"type":"Polygon","coordinates":[[[6.3858,6.1842],[6.3438,6.1554],[6.3476,6.1207],[6.3146,6.1084],[6.2704,6.1001],[6.2459,6.0853],[6.2313,6.0923],[6.217,6.111],[6.2244,6.1571],[6.204,6.1616],[6.1802,6.157],[6.1743,6.1672],[6.1636,6.1708],[6.1883,6.2556],[6.2082,6.2538],[6.2352,6.2635],[6.2339,6.2509],[6.242,6.2544],[6.251,6.2226],[6.2814,6.2582],[6.2841,6.2728],[6.2806,6.2846],[6.2466,6.3127],[6.2817,6.3574],[6.3623,6.3844],[6.3914,6.3098],[6.3894,6.2945],[6.3712,6.2541],[6.3898,6.1953],[6.3858,6.1842]]]}},{"id":"7","type":"Feature","properties":{"id":"NG010_10008","name":"Ika South","pop":373393,"density":900.6,"hf":45,"hf10k":1.21,"hf2":2,"hf3":1,"u15":34.7,"disp":0,"area":414.6},"geometry":{"type":"Polygon","coordinates":[[[6.3305,6.0707],[6.3192,6.0186],[6.3097,6.0102],[6.2995,6.0108],[6.2934,6.0191],[6.2566,6.0167],[6.2328,6.0338],[6.2449,6.0537],[6.1955,6.0545],[6.1693,6.0825],[6.1344,6.1357],[6.1157,6.2],[6.1122,6.2409],[6.0849,6.2635],[6.0766,6.2787],[6.0861,6.2892],[6.088,6.3183],[6.113,6.3491],[6.1266,6.3561],[6.1675,6.3315],[6.1887,6.3095],[6.1976,6.2827],[6.2126,6.2792],[6.2466,6.3127],[6.2806,6.2846],[6.2841,6.2728],[6.2814,6.2582],[6.251,6.2226],[6.242,6.2544],[6.2339,6.2509],[6.2352,6.2635],[6.2082,6.2538],[6.1883,6.2556],[6.1636,6.1708],[6.1743,6.1672],[6.1802,6.157],[6.204,6.1616],[6.2244,6.1571],[6.217,6.111],[6.2313,6.0923],[6.2459,6.0853],[6.2704,6.1001],[6.3146,6.1084],[6.3476,6.1207],[6.3305,6.0707]]]}},{"id":"8","type":"Feature","properties":{"id":"NG010_10009","name":"Isoko North","pop":301478,"density":664.0,"hf":35,"hf10k":1.16,"hf2":1,"hf3":1,"u15":36.4,"disp":0,"area":454.0},"geometry":{"type":"Polygon","coordinates":[[[6.3186,5.4934],[6.3302,5.5312],[6.286,5.5511],[6.2758,5.5342],[6.246,5.509],[6.2364,5.5089],[6.1954,5.5428],[6.1719,5.5028],[6.143,5.4743],[6.1262,5.4423],[6.088,5.4043],[6.062,5.4388],[6.0565,5.4533],[6.0577,5.4818],[6.0725,5.5131],[6.0868,5.5271],[6.1112,5.5377],[6.1166,5.5481],[6.1124,5.5751],[6.1151,5.5849],[6.1239,5.5926],[6.1633,5.5943],[6.2115,5.6217],[6.2366,5.6192],[6.2774,5.623],[6.3256,5.6379],[6.3277,5.6269],[6.3352,5.6214],[6.3648,5.5695],[6.3841,5.5148],[6.3852,5.4962],[6.3734,5.4879],[6.3739,5.4802],[6.3896,5.4637],[6.4459,5.463],[6.4565,5.4533],[6.4535,5.4394],[6.4462,5.4327],[6.4226,5.4299],[6.3823,5.4422],[6.3764,5.4394],[6.3679,5.4454],[6.3633,5.4428],[6.3658,5.4331],[6.3502,5.4321],[6.3352,5.4673],[6.3218,5.4829],[6.3186,5.4934]]]}},{"id":"9","type":"Feature","properties":{"id":"NG010_10010","name":"Isoko South","pop":443381,"density":620.1,"hf":34,"hf10k":0.77,"hf2":2,"hf3":0,"u15":36.4,"disp":0,"area":715.0},"geometry":{"type":"Polygon","coordinates":[[[6.2594,5.2279],[6.2335,5.2382],[6.22,5.2387],[6.2185,5.2503],[6.2074,5.2521],[6.197,5.2466],[6.1874,5.2304],[6.1513,5.2398],[6.1178,5.2811],[6.095,5.3186],[6.0963,5.3642],[6.088,5.4043],[6.1262,5.4423],[6.143,5.4743],[6.1719,5.5028],[6.1954,5.5428],[6.2364,5.5089],[6.246,5.509],[6.2758,5.5342],[6.286,5.5511],[6.3302,5.5312],[6.3186,5.4934],[6.3502,5.4321],[6.3453,5.4245],[6.3417,5.3899],[6.3445,5.3681],[6.3395,5.3465],[6.3178,5.3221],[6.3106,5.3035],[6.3,5.299],[6.2885,5.2849],[6.2835,5.2706],[6.2732,5.2747],[6.2594,5.2279]]]}},{"id":"10","type":"Feature","properties":{"id":"NG010_10011","name":"Ndokwa East","pop":172362,"density":107.9,"hf":35,"hf10k":2.03,"hf2":2,"hf3":0,"u15":36.9,"disp":0,"area":1597.4},"geometry":{"type":"Polygon","coordinates":[[[6.4089,5.3048],[6.3476,5.3205],[6.3335,5.3176],[6.3254,5.3065],[6.3106,5.3035],[6.3178,5.3221],[6.3395,5.3465],[6.3434,5.357],[6.3417,5.3899],[6.3467,5.4284],[6.3568,5.4344],[6.3658,5.4331],[6.3633,5.4428],[6.3679,5.4454],[6.3764,5.4394],[6.3823,5.4422],[6.411,5.4312],[6.4462,5.4327],[6.4535,5.4394],[6.4565,5.4533],[6.4459,5.463],[6.3896,5.4637],[6.3767,5.4759],[6.3725,5.4855],[6.3852,5.4962],[6.3841,5.5148],[6.3648,5.5695],[6.3352,5.6214],[6.3277,5.6269],[6.3256,5.6379],[6.3535,5.6423],[6.3915,5.6655],[6.4266,5.6705],[6.4347,5.684],[6.4705,5.6914],[6.4752,5.7029],[6.4732,5.7143],[6.4495,5.7272],[6.4387,5.7429],[6.4365,5.7914],[6.4432,5.8123],[6.4615,5.8312],[6.477,5.8604],[6.4776,5.8694],[6.4715,5.877],[6.4497,5.8879],[6.4428,5.9004],[6.4792,5.9853],[6.4886,5.9909],[6.5274,5.9961],[6.6076,5.994],[6.6171,5.9968],[6.6327,6.0136],[6.6586,6.0041],[6.6994,6.003],[6.7062,5.9969],[6.7197,5.9962],[6.7159,5.9699],[6.7001,5.9293],[6.6735,5.8891],[6.6609,5.8565],[6.6508,5.8171],[6.6436,5.7473],[6.6006,5.7066],[6.5997,5.6789],[6.6213,5.6426],[6.6176,5.6315],[6.6038,5.6149],[6.601,5.5969],[6.5848,5.5617],[6.5689,5.5534],[6.5426,5.5492],[6.5308,5.532],[6.5382,5.4758],[6.5245,5.4387],[6.5088,5.4257],[6.4831,5.4206],[6.4766,5.4041],[6.4855,5.3792],[6.4959,5.3697],[6.5026,5.3389],[6.4902,5.324],[6.4731,5.3219],[6.4502,5.3276],[6.4345,5.3233],[6.426,5.3112],[6.4089,5.3048]]]}},{"id":"11","type":"Feature","properties":{"id":"NG010_10012","name":"Ndokwa West","pop":306494,"density":379.0,"hf":36,"hf10k":1.17,"hf2":2,"hf3":0,"u15":36.0,"disp":0,"area":808.6},"geometry":{"type":"Polygon","coordinates":[[[6.4375,5.7979],[6.4387,5.7429],[6.4495,5.7272],[6.4732,5.7143],[6.4752,5.7029],[6.4705,5.6914],[6.4347,5.684],[6.4266,5.6705],[6.3915,5.6655],[6.3535,5.6423],[6.2774,5.623],[6.2366,5.6192],[6.2115,5.6217],[6.1848,5.6548],[6.1668,5.7265],[6.2036,5.7499],[6.2085,5.7624],[6.2656,5.7772],[6.2969,5.7672],[6.3274,5.7871],[6.3746,5.8015],[6.3765,5.8216],[6.3679,5.8461],[6.3288,5.9139],[6.2979,5.9426],[6.271,5.9601],[6.2438,5.9674],[6.2566,6.0167],[6.2934,6.0191],[6.2995,6.0108],[6.3097,6.0102],[6.3192,6.0186],[6.3458,5.9918],[6.3608,5.9891],[6.3831,6.0302],[6.394,6.0248],[6.4118,5.9875],[6.4792,5.9853],[6.4428,5.9004],[6.4497,5.8879],[6.4715,5.877],[6.4776,5.8694],[6.477,5.8604],[6.4375,5.7979]]]}},{"id":"12","type":"Feature","properties":{"id":"NG010_10013","name":"Okpe","pop":251658,"density":579.3,"hf":25,"hf10k":0.99,"hf2":1,"hf3":0,"u15":36.6,"disp":0,"area":434.4},"geometry":{"type":"Polygon","coordinates":[[[5.9068,5.6572],[5.9183,5.629],[5.9009,5.6019],[5.8955,5.609],[5.8869,5.6058],[5.8612,5.6209],[5.8461,5.5872],[5.8235,5.5875],[5.7774,5.6243],[5.7583,5.618],[5.7059,5.5818],[5.6559,5.6143],[5.6802,5.6513],[5.6965,5.647],[5.6924,5.6618],[5.6506,5.7007],[5.7157,5.714],[5.726,5.7199],[5.7254,5.7314],[5.777,5.8149],[5.7949,5.8065],[5.7956,5.7918],[5.8025,5.7869],[5.8084,5.7918],[5.8125,5.7889],[5.8126,5.78],[5.8256,5.771],[5.8258,5.7807],[5.8304,5.7844],[5.8378,5.7817],[5.8434,5.7925],[5.8525,5.7872],[5.8628,5.7888],[5.8696,5.7813],[5.8744,5.7914],[5.8873,5.7892],[5.8942,5.7986],[5.9026,5.7946],[5.9061,5.7704],[5.8905,5.7633],[5.8879,5.753],[5.8682,5.7479],[5.8529,5.7031],[5.8596,5.6902],[5.8747,5.6883],[5.8783,5.6804],[5.9068,5.6572]]]}},{"id":"13","type":"Feature","properties":{"id":"NG010_10014","name":"Oshimili North","pop":342861,"density":673.6,"hf":24,"hf10k":0.7,"hf2":2,"hf3":0,"u15":36.1,"disp":0,"area":509.0},"geometry":{"type":"Polygon","coordinates":[[[6.6563,6.1067],[6.6452,6.1012],[6.6104,6.1375],[6.6069,6.1646],[6.6102,6.193],[6.625,6.2119],[6.6345,6.2362],[6.5941,6.283],[6.5815,6.2912],[6.5668,6.3182],[6.5793,6.4147],[6.5709,6.4527],[6.5708,6.4819],[6.5755,6.4951],[6.5857,6.4979],[6.6088,6.4995],[6.6327,6.4893],[6.6463,6.4887],[6.6689,6.5012],[6.6739,6.4683],[6.6818,6.4557],[6.6998,6.3817],[6.7128,6.3534],[6.7231,6.2656],[6.7058,6.2618],[6.6874,6.1889],[6.7132,6.1527],[6.6999,6.1191],[6.6885,6.1084],[6.6563,6.1067]]]}},{"id":"14","type":"Feature","properties":{"id":"NG010_10015","name":"Oshimili South","pop":257127,"density":985.9,"hf":39,"hf10k":1.52,"hf2":2,"hf3":2,"u15":34.2,"disp":0,"area":260.8},"geometry":{"type":"Polygon","coordinates":[[[6.7032,6.0512],[6.7255,6.0407],[6.7197,5.9962],[6.7062,5.9969],[6.6994,6.003],[6.6586,6.0041],[6.6327,6.0136],[6.6171,5.9968],[6.6076,5.994],[6.5668,5.9964],[6.5728,6.0283],[6.5645,6.0595],[6.5726,6.0762],[6.5937,6.0798],[6.629,6.0746],[6.6452,6.1012],[6.6563,6.1067],[6.6885,6.1084],[6.6999,6.1191],[6.714,6.1561],[6.6874,6.1889],[6.7058,6.2618],[6.7231,6.2656],[6.7427,6.2094],[6.7673,6.1818],[6.7694,6.168],[6.7553,6.1207],[6.7045,6.0811],[6.6991,6.061],[6.7032,6.0512]]]}},{"id":"15","type":"Feature","properties":{"id":"NG010_10016","name":"Patani","pop":96247,"density":419.0,"hf":14,"hf10k":1.45,"hf2":1,"hf3":0,"u15":37.7,"disp":0,"area":229.7},"geometry":{"type":"MultiPolygon","coordinates":[[[[6.1943,5.2167],[6.2007,5.1695],[6.1909,5.1586],[6.1659,5.1611],[6.1437,5.1348],[6.1297,5.1293],[6.0979,5.1499],[6.0858,5.1508],[6.0696,5.1413],[6.0623,5.103],[6.055,5.0972],[6.0272,5.0957],[6.0045,5.1037],[5.9809,5.1306],[5.9867,5.144],[5.9843,5.1594],[5.9899,5.186],[6.1547,5.226],[6.1615,5.2357],[6.1874,5.2304],[6.2031,5.2515],[6.2185,5.2503],[6.22,5.2387],[6.2021,5.2318],[6.1943,5.2167]]],[[[6.277,5.2764],[6.2835,5.2706],[6.293,5.2388],[6.279,5.2289],[6.2594,5.2279],[6.262,5.2466],[6.277,5.2764]]]]}},{"id":"16","type":"Feature","properties":{"id":"NG010_10017","name":"Sapele","pop":407718,"density":712.5,"hf":35,"hf10k":0.86,"hf2":3,"hf3":1,"u15":36.6,"disp":0,"area":572.2},"geometry":{"type":"Polygon","coordinates":[[[5.777,5.8149],[5.7254,5.7314],[5.726,5.7199],[5.7157,5.714],[5.6394,5.698],[5.6014,5.7324],[5.6042,5.7732],[5.5983,5.7811],[5.5707,5.7783],[5.5556,5.8254],[5.5456,5.8334],[5.5434,5.8406],[5.5494,5.8557],[5.5383,5.8625],[5.5469,5.8698],[5.5481,5.8866],[5.5261,5.8927],[5.5124,5.9044],[5.5004,5.9194],[5.5002,5.9314],[5.4696,5.9315],[5.475,5.9478],[5.4737,6.0274],[5.4897,6.03],[5.4914,6.0386],[5.4973,6.0425],[5.5009,6.0366],[5.513,6.0353],[5.5189,6.0274],[5.5153,6.0219],[5.5192,6.0163],[5.5346,6.0097],[5.5366,5.9899],[5.5463,5.9854],[5.5713,5.9909],[5.5672,5.9598],[5.579,5.947],[5.5751,5.932],[5.5894,5.9191],[5.6103,5.914],[5.6169,5.9173],[5.626,5.9398],[5.6407,5.9458],[5.6818,5.9038],[5.6919,5.9022],[5.6957,5.8918],[5.7161,5.893],[5.728,5.8985],[5.7211,5.8631],[5.7251,5.8597],[5.7461,5.865],[5.7577,5.8525],[5.7723,5.8528],[5.7793,5.839],[5.7706,5.8278],[5.777,5.8149]]]}},{"id":"17","type":"Feature","properties":{"id":"NG010_10018","name":"Udu","pop":453959,"density":2970.9,"hf":41,"hf10k":0.9,"hf2":3,"hf3":0,"u15":36.7,"disp":0,"area":152.8},"geometry":{"type":"Polygon","coordinates":[[[5.8856,5.4312],[5.8411,5.4085],[5.8146,5.4152],[5.8029,5.4311],[5.7885,5.4423],[5.7673,5.4482],[5.7591,5.4662],[5.749,5.4686],[5.7505,5.4743],[5.7437,5.4829],[5.7558,5.4958],[5.7669,5.488],[5.779,5.4906],[5.779,5.5018],[5.7693,5.523],[5.784,5.516],[5.8005,5.5183],[5.7897,5.5327],[5.7993,5.5396],[5.7894,5.5415],[5.7854,5.5514],[5.8105,5.5484],[5.8196,5.562],[5.8264,5.5421],[5.8501,5.5265],[5.8673,5.4933],[5.8904,5.4831],[5.8877,5.4363],[5.8856,5.4312]]]}},{"id":"18","type":"Feature","properties":{"id":"NG010_10019","name":"Ughelli North","pop":791337,"density":1033.3,"hf":58,"hf10k":0.73,"hf2":3,"hf3":1,"u15":37.5,"disp":0,"area":765.8},"geometry":{"type":"Polygon","coordinates":[[[6.0945,5.3703],[6.095,5.3186],[6.1444,5.2474],[6.1615,5.2357],[6.1547,5.226],[6.1119,5.2152],[6.0712,5.2079],[6.0523,5.2092],[6.0283,5.2212],[6.013,5.2339],[6.0068,5.2459],[6.0047,5.2671],[6.0285,5.3269],[6.0116,5.3757],[5.9942,5.3973],[5.9811,5.4312],[5.9952,5.4618],[5.9939,5.4754],[5.9687,5.4822],[5.9593,5.4918],[5.9685,5.4952],[5.9651,5.5046],[5.9087,5.5041],[5.9066,5.5145],[5.9275,5.5342],[5.9173,5.5465],[5.8504,5.5564],[5.8461,5.5872],[5.8612,5.6209],[5.8869,5.6058],[5.8955,5.609],[5.9014,5.5991],[5.9142,5.5993],[5.9226,5.563],[5.9546,5.5664],[5.9549,5.5498],[5.969,5.5494],[5.99,5.5574],[5.9977,5.5694],[6.0114,5.5785],[6.0162,5.5918],[6.0409,5.603],[6.0585,5.6218],[6.0577,5.6468],[6.0412,5.6855],[6.0601,5.6889],[6.0742,5.719],[6.0921,5.7169],[6.1134,5.7516],[6.1438,5.7514],[6.1497,5.7557],[6.1627,5.7406],[6.1737,5.7067],[6.18,5.6652],[6.191,5.6444],[6.2115,5.6217],[6.1633,5.5943],[6.1361,5.5954],[6.1151,5.5849],[6.1124,5.5751],[6.1166,5.5481],[6.1112,5.5377],[6.0779,5.5208],[6.0577,5.4818],[6.0565,5.4533],[6.062,5.4388],[6.088,5.4043],[6.0945,5.3703]]]}},{"id":"19","type":"Feature","properties":{"id":"NG010_10020","name":"Ughelli South","pop":394913,"density":499.6,"hf":45,"hf10k":1.14,"hf2":1,"hf3":0,"u15":37.8,"disp":0,"area":790.5},"geometry":{"type":"Polygon","coordinates":[[[5.9942,5.3973],[6.0116,5.3757],[6.0285,5.3269],[6.0047,5.2671],[6.0068,5.2459],[6.013,5.2339],[6.0432,5.2121],[6.0712,5.2079],[6.0297,5.193],[5.9899,5.186],[5.9843,5.1594],[5.9867,5.144],[5.9809,5.1306],[5.9605,5.1572],[5.9461,5.1642],[5.9278,5.1607],[5.9032,5.1914],[5.8837,5.1986],[5.8869,5.2091],[5.8566,5.2183],[5.8602,5.2255],[5.8486,5.2298],[5.8483,5.2361],[5.8387,5.2429],[5.8468,5.2598],[5.8446,5.2881],[5.836,5.2926],[5.8314,5.3075],[5.8252,5.31],[5.8098,5.3034],[5.7998,5.306],[5.7947,5.3148],[5.8182,5.3421],[5.805,5.3588],[5.7875,5.3545],[5.7783,5.3413],[5.761,5.347],[5.7509,5.3343],[5.7284,5.3283],[5.7195,5.3429],[5.7231,5.3685],[5.7149,5.3741],[5.7184,5.3861],[5.6985,5.4009],[5.7025,5.4102],[5.7523,5.4209],[5.7885,5.4423],[5.8146,5.4152],[5.8411,5.4085],[5.8856,5.4312],[5.8904,5.4831],[5.8673,5.4933],[5.8501,5.5265],[5.8264,5.5421],[5.8196,5.562],[5.8278,5.5604],[5.8313,5.5531],[5.8376,5.5642],[5.8421,5.5577],[5.9173,5.5465],[5.9275,5.5342],[5.9066,5.5145],[5.9087,5.5041],[5.9651,5.5046],[5.9685,5.4952],[5.9593,5.4918],[5.9687,5.4822],[5.9939,5.4754],[5.9952,5.4618],[5.9811,5.4312],[5.9942,5.3973]]]}},{"id":"20","type":"Feature","properties":{"id":"NG010_10021","name":"Ukwuani","pop":199503,"density":493.9,"hf":31,"hf10k":1.55,"hf2":2,"hf3":0,"u15":36.1,"disp":0,"area":403.9},"geometry":{"type":"Polygon","coordinates":[[[6.1869,5.7368],[6.1776,5.7356],[6.1668,5.7265],[6.1627,5.7406],[6.1497,5.7557],[6.156,5.773],[6.1518,5.8049],[6.1444,5.8178],[6.1379,5.8146],[6.1235,5.8235],[6.1209,5.8397],[6.1519,5.8577],[6.2014,5.897],[6.2176,5.9165],[6.2438,5.9674],[6.271,5.9601],[6.3117,5.9311],[6.3335,5.9068],[6.3679,5.8461],[6.3765,5.8216],[6.3746,5.8015],[6.3274,5.7871],[6.2969,5.7672],[6.2656,5.7772],[6.2085,5.7624],[6.2054,5.7517],[6.1869,5.7368]]]}},{"id":"21","type":"Feature","properties":{"id":"NG010_10022","name":"Uvwie","pop":404375,"density":4854.4,"hf":67,"hf10k":1.66,"hf2":4,"hf3":3,"u15":36.6,"disp":0,"area":83.3},"geometry":{"type":"Polygon","coordinates":[[[5.7897,5.5327],[5.8005,5.5183],[5.784,5.516],[5.784,5.525],[5.7734,5.5278],[5.7799,5.5474],[5.773,5.546],[5.7573,5.5562],[5.7511,5.5502],[5.7481,5.5564],[5.743,5.5529],[5.7317,5.557],[5.7305,5.5669],[5.7059,5.5818],[5.7583,5.618],[5.7774,5.6243],[5.8186,5.5897],[5.8461,5.5872],[5.8504,5.5564],[5.8421,5.5577],[5.8376,5.5642],[5.8313,5.5531],[5.8278,5.5604],[5.8196,5.562],[5.8105,5.5484],[5.7882,5.5527],[5.7842,5.5489],[5.7868,5.5439],[5.7993,5.5396],[5.7897,5.5327]]]}},{"id":"22","type":"Feature","properties":{"id":"NG010_10023","name":"Warri North","pop":118886,"density":54.2,"hf":28,"hf10k":2.36,"hf2":1,"hf3":0,"u15":36.6,"disp":0,"area":2193.7},"geometry":{"type":"Polygon","coordinates":[[[5.2472,5.622],[5.2282,5.6193],[5.181,5.592],[5.1701,5.5938],[5.1497,5.6092],[5.1215,5.6432],[5.0845,5.713],[5.0798,5.7468],[5.0678,5.7667],[5.0408,5.7827],[5.026,5.8179],[4.9768,5.8877],[5.0181,5.9505],[5.0922,6.1089],[5.127,6.1639],[5.1344,6.1694],[5.1455,6.1416],[5.1579,6.1467],[5.1615,6.1427],[5.1687,6.1636],[5.1819,6.1569],[5.184,6.1474],[5.1937,6.1518],[5.2026,6.1454],[5.2104,6.1531],[5.2224,6.1479],[5.2172,6.1356],[5.2337,6.1124],[5.234,6.0648],[5.24,6.0616],[5.2576,6.0644],[5.2702,6.0543],[5.2486,5.9842],[5.2542,5.9547],[5.269,5.9368],[5.2705,5.9165],[5.276,5.9068],[5.3051,5.9173],[5.3159,5.9323],[5.3587,5.9696],[5.3365,5.9844],[5.327,5.9827],[5.323,6.0053],[5.3274,6.0183],[5.3904,6.019],[5.4019,6.0231],[5.4134,6.0215],[5.4176,6.0094],[5.4281,6.007],[5.4337,6.0142],[5.4297,6.0319],[5.4428,6.0414],[5.4521,6.0343],[5.4562,6.0224],[5.4737,6.0274],[5.475,5.9478],[5.4696,5.9315],[5.5002,5.9314],[5.5004,5.9194],[5.5124,5.9044],[5.5261,5.8927],[5.5481,5.8866],[5.5501,5.8824],[5.5469,5.8698],[5.5383,5.8625],[5.5494,5.8557],[5.5434,5.8406],[5.5556,5.8254],[5.5667,5.7987],[5.5691,5.7756],[5.5415,5.7708],[5.5234,5.7877],[5.5085,5.7865],[5.4954,5.7962],[5.4637,5.8054],[5.4548,5.825],[5.4248,5.8239],[5.4164,5.8299],[5.4107,5.8202],[5.3812,5.8234],[5.3668,5.8114],[5.3644,5.8019],[5.3539,5.8047],[5.3339,5.7911],[5.3327,5.7601],[5.341,5.7453],[5.3244,5.7294],[5.3382,5.7231],[5.386,5.7208],[5.434,5.7089],[5.4568,5.6853],[5.4336,5.6688],[5.435,5.6523],[5.4128,5.647],[5.3992,5.6373],[5.3878,5.608],[5.3735,5.5985],[5.3512,5.5961],[5.3013,5.614],[5.2472,5.622]]]}},{"id":"23","type":"Feature","properties":{"id":"NG010_10024","name":"Warri South","pop":452709,"density":831.9,"hf":89,"hf10k":1.97,"hf2":6,"hf3":3,"u15":36.6,"disp":0,"area":544.2},"geometry":{"type":"Polygon","coordinates":[[[5.779,5.4906],[5.7669,5.488],[5.7558,5.4958],[5.7079,5.4779],[5.6996,5.4665],[5.673,5.4667],[5.6479,5.4812],[5.6432,5.4891],[5.6465,5.4926],[5.6387,5.5029],[5.6278,5.5009],[5.6184,5.505],[5.6201,5.5145],[5.5998,5.5132],[5.5958,5.5191],[5.5822,5.5145],[5.5678,5.5352],[5.5501,5.5497],[5.5425,5.569],[5.5106,5.5961],[5.5011,5.6206],[5.4857,5.6312],[5.5172,5.661],[5.5266,5.6947],[5.5151,5.7278],[5.5043,5.739],[5.5015,5.7521],[5.5064,5.7627],[5.5285,5.752],[5.5404,5.7521],[5.5492,5.7563],[5.5415,5.7708],[5.5691,5.7756],[5.5766,5.781],[5.5983,5.7811],[5.6042,5.7732],[5.6014,5.7324],[5.6394,5.698],[5.6506,5.7007],[5.6924,5.6618],[5.6965,5.647],[5.6802,5.6513],[5.6559,5.6143],[5.7305,5.5669],[5.7317,5.557],[5.743,5.5529],[5.7481,5.5564],[5.7511,5.5502],[5.7573,5.5562],[5.773,5.546],[5.7799,5.5474],[5.7734,5.5278],[5.784,5.525],[5.784,5.516],[5.7715,5.5237],[5.769,5.5194],[5.779,5.5018],[5.779,5.4906]]]}},{"id":"24","type":"Feature","properties":{"id":"NG010_10025","name":"Warri South-West","pop":57288,"density":44.8,"hf":11,"hf10k":1.92,"hf2":2,"hf3":0,"u15":36.6,"disp":9853,"area":1278.5},"geometry":{"type":"MultiPolygon","coordinates":[[[[5.7079,5.4779],[5.7343,5.4899],[5.7503,5.491],[5.7437,5.4829],[5.7505,5.4743],[5.749,5.4686],[5.7591,5.4662],[5.7673,5.4482],[5.7885,5.4423],[5.7523,5.4209],[5.7025,5.4102],[5.7042,5.4139],[5.6823,5.4131],[5.6598,5.3897],[5.6398,5.3829],[5.5948,5.3776],[5.5579,5.3899],[5.5269,5.4071],[5.525,5.4171],[5.5145,5.4265],[5.5073,5.4437],[5.5085,5.4681],[5.5195,5.5011],[5.5311,5.5053],[5.5689,5.5038],[5.6201,5.5145],[5.6184,5.505],[5.6278,5.5009],[5.6387,5.5029],[5.6465,5.4926],[5.6432,5.4891],[5.6479,5.4812],[5.673,5.4667],[5.6996,5.4665],[5.7079,5.4779]]],[[[5.5098,5.5009],[5.5002,5.4807],[5.491,5.4328],[5.4723,5.3994],[5.431,5.3855],[5.4312,5.4006],[5.3777,5.4201],[5.3002,5.467],[5.2434,5.4597],[5.2271,5.4512],[5.2083,5.4675],[5.1571,5.5371],[5.1637,5.5547],[5.2141,5.6012],[5.2873,5.5999],[5.3266,5.588],[5.3873,5.5857],[5.3936,5.5883],[5.4029,5.6133],[5.4021,5.6299],[5.4179,5.6399],[5.4669,5.6311],[5.4804,5.6218],[5.5425,5.569],[5.5501,5.5497],[5.5678,5.5352],[5.5822,5.5145],[5.5407,5.5187],[5.5243,5.5134],[5.5098,5.5009]]],[[[5.5128,5.6547],[5.4857,5.6312],[5.445,5.6544],[5.435,5.6523],[5.4336,5.6688],[5.4568,5.6853],[5.434,5.7089],[5.386,5.7208],[5.3382,5.7231],[5.3244,5.7294],[5.341,5.7453],[5.3327,5.7601],[5.3339,5.7911],[5.3539,5.8047],[5.3644,5.8019],[5.3668,5.8114],[5.3812,5.8234],[5.4107,5.8202],[5.4164,5.8299],[5.4248,5.8239],[5.4548,5.825],[5.4637,5.8054],[5.4722,5.8003],[5.4954,5.7962],[5.5085,5.7865],[5.5234,5.7877],[5.5415,5.7708],[5.5492,5.7563],[5.5285,5.752],[5.5064,5.7627],[5.5015,5.7521],[5.5266,5.6947],[5.5128,5.6547]]]]}}]}