{"type":"FeatureCollection","features":[{"id":"0","type":"Feature","properties":{"id":"NG025_25001","name":"Agege","pop":225286,"density":18466.1,"hf":80,"hf10k":3.55,"hf2":1,"hf3":4,"u15":33.1,"disp":0,"area":12.2},"geometry":{"type":"Polygon","coordinates":[[[3.3331,6.6021],[3.3266,6.6082],[3.3138,6.6057],[3.2991,6.6213],[3.306,6.6478],[3.3145,6.6479],[3.3226,6.6274],[3.3367,6.6265],[3.3331,6.6021]]]}},{"id":"1","type":"Feature","properties":{"id":"NG025_25002","name":"Ajeromi/Ifelodun","pop":181950,"density":14556.0,"hf":79,"hf10k":4.34,"hf2":2,"hf3":2,"u15":33.1,"disp":0,"area":12.5},"geometry":{"type":"Polygon","coordinates":[[[3.3505,6.4528],[3.3491,6.437],[3.3371,6.4381],[3.3213,6.4436],[3.3156,6.4598],[3.3388,6.4746],[3.3505,6.4729],[3.3564,6.4595],[3.3505,6.4528]]]}},{"id":"2","type":"Feature","properties":{"id":"NG025_25003","name":"Alimosho","pop":2355624,"density":12886.3,"hf":194,"hf10k":0.82,"hf2":1,"hf3":4,"u15":33.1,"disp":0,"area":182.8},"geometry":{"type":"Polygon","coordinates":[[[3.2712,6.4786],[3.2464,6.4771],[3.2416,6.4728],[3.2372,6.4815],[3.241,6.4847],[3.2333,6.4943],[3.2233,6.5013],[3.2157,6.4979],[3.2003,6.5295],[3.1996,6.5552],[3.1917,6.5696],[3.1933,6.5778],[3.2246,6.6018],[3.2378,6.6198],[3.2384,6.6608],[3.2561,6.6819],[3.2574,6.693],[3.2699,6.6816],[3.2736,6.6698],[3.29,6.6628],[3.3055,6.6486],[3.2983,6.6227],[3.316,6.6046],[3.3099,6.6006],[3.3057,6.5682],[3.2947,6.5727],[3.2864,6.568],[3.2886,6.5333],[3.2818,6.5215],[3.2925,6.5068],[3.29,6.4916],[3.2712,6.4786]]]}},{"id":"3","type":"Feature","properties":{"id":"NG025_25004","name":"Amuwo Odofin","pop":501288,"density":4389.6,"hf":99,"hf10k":1.97,"hf2":1,"hf3":7,"u15":33.1,"disp":0,"area":114.2},"geometry":{"type":"Polygon","coordinates":[[[3.3347,6.44],[3.3321,6.4299],[3.3545,6.4245],[3.3596,6.3977],[3.2017,6.4021],[3.1994,6.432],[3.2302,6.442],[3.2309,6.4593],[3.2379,6.4582],[3.2337,6.4786],[3.2372,6.4815],[3.244,6.4722],[3.2464,6.4771],[3.2702,6.4781],[3.29,6.4916],[3.2903,6.4828],[3.3152,6.4888],[3.3215,6.4958],[3.3273,6.478],[3.3155,6.4563],[3.3213,6.4436],[3.3347,6.44]]]}},{"id":"4","type":"Feature","properties":{"id":"NG025_25005","name":"Apapa","pop":158782,"density":4245.5,"hf":56,"hf10k":3.53,"hf2":3,"hf3":2,"u15":32.8,"disp":0,"area":37.4},"geometry":{"type":"Polygon","coordinates":[[[3.4028,6.4364],[3.4003,6.4104],[3.3844,6.4099],[3.3771,6.398],[3.3596,6.3977],[3.3545,6.4245],[3.3321,6.4299],[3.3317,6.4374],[3.3491,6.437],[3.351,6.4548],[3.3561,6.4552],[3.3505,6.4729],[3.3388,6.4746],[3.348,6.4791],[3.3555,6.4733],[3.3696,6.4745],[3.3815,6.4635],[3.3811,6.4545],[3.4028,6.4364]]]}},{"id":"5","type":"Feature","properties":{"id":"NG025_25006","name":"Badagry","pop":875408,"density":1994.1,"hf":85,"hf10k":0.97,"hf2":1,"hf3":2,"u15":33.1,"disp":0,"area":439.0},"geometry":{"type":"Polygon","coordinates":[[[3.0922,6.4676],[3.0998,6.4394],[3.1089,6.4271],[3.1063,6.4108],[3.1007,6.409],[3.0684,6.4099],[3.0614,6.4155],[3.031,6.4098],[3.0208,6.397],[2.844,6.3916],[2.6998,6.3752],[2.6988,6.4588],[2.723,6.4615],[2.7377,6.4526],[2.7592,6.4525],[2.7937,6.4621],[2.8183,6.4546],[2.8314,6.4449],[2.8582,6.4491],[2.86,6.4668],[2.8765,6.4699],[2.8888,6.4813],[2.8855,6.5114],[2.9243,6.5127],[2.9265,6.5047],[2.935,6.5086],[2.9314,6.512],[2.9351,6.5163],[2.954,6.5127],[2.9542,6.5018],[3.0598,6.5018],[3.0772,6.4924],[3.103,6.4996],[3.1121,6.4907],[3.1151,6.4753],[3.103,6.4674],[3.0922,6.4676]]]}},{"id":"6","type":"Feature","properties":{"id":"NG025_25007","name":"Epe","pop":396179,"density":301.3,"hf":49,"hf10k":1.24,"hf2":3,"hf3":0,"u15":35.8,"disp":3689,"area":1315.0},"geometry":{"type":"Polygon","coordinates":[[[4.0624,6.6286],[4.0547,6.622],[4.0545,6.6152],[4.0612,6.5852],[4.0696,6.5726],[4.0988,6.5719],[4.1013,6.5577],[4.1095,6.5542],[4.1168,6.5558],[4.1213,6.5699],[4.1318,6.5798],[4.1444,6.5822],[4.1778,6.6041],[4.1932,6.5953],[4.2136,6.5989],[4.2224,6.5957],[4.241,6.5716],[4.2327,6.5469],[4.1636,6.507],[4.1693,6.4875],[4.2049,6.4721],[4.2248,6.4734],[4.2349,6.4591],[4.2476,6.4552],[4.2601,6.4442],[4.2763,6.4559],[4.3122,6.4453],[4.321,6.4514],[4.3284,6.4481],[4.3537,6.4511],[4.3686,6.4385],[4.3597,6.3678],[4.279,6.3782],[4.2557,6.3941],[4.2244,6.4014],[4.2018,6.4251],[4.1596,6.4212],[4.1439,6.4338],[4.11,6.423],[4.0826,6.4374],[4.0706,6.4345],[4.041,6.4652],[4.0121,6.4728],[3.9991,6.4924],[3.9886,6.4906],[3.9663,6.5027],[3.9486,6.5004],[3.9481,6.5065],[3.9406,6.5105],[3.9209,6.5063],[3.9105,6.5089],[3.8953,6.5034],[3.8949,6.5329],[3.8845,6.5371],[3.8534,6.5369],[3.8664,6.5115],[3.8468,6.5128],[3.7883,6.5001],[3.6821,6.4875],[3.6543,6.4934],[3.6399,6.4802],[3.619,6.4886],[3.629,6.4989],[3.6162,6.5134],[3.629,6.5248],[3.6355,6.5447],[3.6572,6.5577],[3.7007,6.5976],[3.697,6.6069],[3.6997,6.6185],[3.6838,6.64],[3.699,6.6841],[3.9121,6.6812],[3.9788,6.6919],[3.9825,6.6827],[4.0913,6.6797],[4.0969,6.6715],[4.0964,6.6526],[4.09,6.6475],[4.0933,6.6462],[4.0762,6.6334],[4.0585,6.6345],[4.0624,6.6286]]]}},{"id":"7","type":"Feature","properties":{"id":"NG025_25008","name":"Eti Osa","pop":1110761,"density":6243.7,"hf":90,"hf10k":0.81,"hf2":4,"hf3":12,"u15":31.1,"disp":0,"area":177.9},"geometry":{"type":"Polygon","coordinates":[[[3.4017,6.4008],[3.3771,6.398],[3.3844,6.4099],[3.4003,6.4104],[3.4029,6.4408],[3.4085,6.4538],[3.4037,6.4614],[3.4221,6.4681],[3.4384,6.4633],[3.4462,6.4639],[3.4459,6.4689],[3.4756,6.4604],[3.4827,6.4701],[3.4869,6.4669],[3.4832,6.4609],[3.4795,6.4637],[3.4763,6.4603],[3.4847,6.4539],[3.4863,6.4576],[3.4919,6.4471],[3.492,6.4566],[3.5045,6.4542],[3.5128,6.4689],[3.5221,6.4655],[3.5176,6.4615],[3.5237,6.4652],[3.534,6.4603],[3.5313,6.4644],[3.5346,6.4681],[3.5526,6.4677],[3.5795,6.4958],[3.5728,6.5118],[3.6012,6.5165],[3.6162,6.5134],[3.627,6.5053],[3.6285,6.4965],[3.619,6.4886],[3.6399,6.4802],[3.6515,6.4922],[3.6642,6.4927],[3.6734,6.4823],[3.6734,6.474],[3.6425,6.4442],[3.6282,6.4219],[3.4678,6.4173],[3.44,6.4186],[3.4304,6.4238],[3.4088,6.4161],[3.4017,6.4008]]]}},{"id":"8","type":"Feature","properties":{"id":"NG025_25009","name":"Ibeju Lekki","pop":670445,"density":1612.0,"hf":49,"hf10k":0.73,"hf2":2,"hf3":0,"u15":31.2,"disp":0,"area":415.9},"geometry":{"type":"Polygon","coordinates":[[[4.2018,6.4251],[4.2244,6.4014],[4.2557,6.3941],[4.279,6.3782],[4.1922,6.3881],[3.9755,6.4258],[3.8964,6.4337],[3.8054,6.4353],[3.7148,6.4241],[3.6282,6.4219],[3.6425,6.4442],[3.6734,6.474],[3.667,6.4915],[3.6821,6.4875],[3.7883,6.5001],[3.8468,6.5128],[3.8664,6.5115],[3.8534,6.5369],[3.8773,6.5373],[3.8949,6.5329],[3.8953,6.5034],[3.9105,6.5089],[3.9209,6.5063],[3.9406,6.5105],[3.9481,6.5065],[3.9486,6.5004],[3.9663,6.5027],[3.9886,6.4906],[3.9991,6.4924],[4.0121,6.4728],[4.041,6.4652],[4.0706,6.4345],[4.0826,6.4374],[4.11,6.423],[4.1439,6.4338],[4.1596,6.4212],[4.2018,6.4251]]]}},{"id":"9","type":"Feature","properties":{"id":"NG025_25010","name":"Ifako/Ijaye","pop":530708,"density":16584.6,"hf":117,"hf10k":2.2,"hf2":1,"hf3":4,"u15":33.1,"disp":0,"area":32.0},"geometry":{"type":"Polygon","coordinates":[[[3.3367,6.6265],[3.3226,6.6274],[3.3145,6.6479],[3.306,6.6478],[3.29,6.6628],[3.2736,6.6698],[3.2577,6.697],[3.2725,6.6984],[3.2855,6.6868],[3.3124,6.6747],[3.345,6.6726],[3.3534,6.6582],[3.3417,6.651],[3.3432,6.6359],[3.3367,6.6265]]]}},{"id":"10","type":"Feature","properties":{"id":"NG025_25011","name":"Ikeja","pop":390394,"density":9545.1,"hf":157,"hf10k":4.02,"hf2":9,"hf3":15,"u15":33.1,"disp":0,"area":40.9},"geometry":{"type":"Polygon","coordinates":[[[3.3677,6.5717],[3.3669,6.5585],[3.3519,6.5555],[3.3376,6.5903],[3.3305,6.5805],[3.3157,6.5806],[3.3151,6.5879],[3.3088,6.5881],[3.3099,6.6006],[3.3158,6.6054],[3.3266,6.6082],[3.3331,6.6018],[3.3346,6.6258],[3.3432,6.6359],[3.3412,6.6495],[3.3515,6.658],[3.3527,6.6523],[3.3727,6.6411],[3.3646,6.6298],[3.3657,6.6166],[3.3586,6.6108],[3.3666,6.605],[3.3695,6.6075],[3.383,6.5935],[3.3677,6.5717]]]}},{"id":"11","type":"Feature","properties":{"id":"NG025_25012","name":"Ikorodu","pop":2039136,"density":4937.4,"hf":187,"hf10k":0.92,"hf2":4,"hf3":5,"u15":35.9,"disp":0,"area":413.0},"geometry":{"type":"Polygon","coordinates":[[[3.6285,6.5387],[3.6184,6.5475],[3.5884,6.5486],[3.5766,6.5429],[3.5552,6.5187],[3.5411,6.5235],[3.5243,6.5136],[3.4969,6.5225],[3.4896,6.5162],[3.4807,6.5219],[3.4675,6.5356],[3.4665,6.5436],[3.4879,6.601],[3.4792,6.598],[3.4824,6.6023],[3.4772,6.6079],[3.4732,6.6013],[3.4643,6.6019],[3.4666,6.5964],[3.4618,6.5911],[3.4417,6.607],[3.4426,6.6138],[3.4524,6.6227],[3.4312,6.6406],[3.4521,6.6409],[3.4477,6.6618],[3.4421,6.6628],[3.4442,6.6711],[3.4392,6.6828],[3.4432,6.6859],[3.459,6.6735],[3.4614,6.6833],[3.699,6.6841],[3.6838,6.64],[3.6997,6.6185],[3.697,6.6069],[3.7007,6.5976],[3.6572,6.5577],[3.6418,6.5515],[3.6285,6.5387]]]}},{"id":"12","type":"Feature","properties":{"id":"NG025_25013","name":"Kosofe","pop":602948,"density":9852.1,"hf":161,"hf10k":2.67,"hf2":7,"hf3":13,"u15":32.5,"disp":0,"area":61.2},"geometry":{"type":"Polygon","coordinates":[[[3.4064,6.5535],[3.4027,6.533],[3.3968,6.5502],[3.3801,6.5483],[3.3669,6.5585],[3.3682,6.5727],[3.383,6.5935],[3.3695,6.6075],[3.3666,6.605],[3.3586,6.6108],[3.3657,6.6166],[3.3646,6.6298],[3.3727,6.6411],[3.4312,6.6406],[3.4524,6.6227],[3.4426,6.6138],[3.4418,6.6071],[3.4316,6.6027],[3.4298,6.5952],[3.419,6.5907],[3.4052,6.595],[3.4056,6.5842],[3.4186,6.5847],[3.4188,6.5815],[3.3979,6.5667],[3.4064,6.5535]]]}},{"id":"13","type":"Feature","properties":{"id":"NG025_25020","name":"Lagos Island","pop":56850,"density":11370.0,"hf":61,"hf10k":10.73,"hf2":3,"hf3":2,"u15":26.6,"disp":0,"area":5.0},"geometry":{"type":"Polygon","coordinates":[[[3.4071,6.4571],[3.4022,6.4395],[3.3815,6.4541],[3.3799,6.4617],[3.3921,6.4659],[3.4071,6.4571]]]}},{"id":"14","type":"Feature","properties":{"id":"NG025_25019","name":"Lagos Mainland","pop":269905,"density":13361.6,"hf":91,"hf10k":3.37,"hf2":6,"hf3":8,"u15":29.9,"disp":0,"area":20.2},"geometry":{"type":"Polygon","coordinates":[[[3.3938,6.4849],[3.3802,6.466],[3.3645,6.4763],[3.3691,6.4822],[3.3633,6.49],[3.3721,6.5064],[3.3655,6.5173],[3.3683,6.5253],[3.3761,6.529],[3.382,6.524],[3.4003,6.5239],[3.4051,6.5154],[3.3979,6.4909],[3.3899,6.4928],[3.3938,6.4849]]]}},{"id":"15","type":"Feature","properties":{"id":"NG025_25014","name":"Mushin","pop":254073,"density":14945.5,"hf":120,"hf10k":4.72,"hf2":1,"hf3":12,"u15":33.1,"disp":0,"area":17.0},"geometry":{"type":"Polygon","coordinates":[[[3.3523,6.5182],[3.3266,6.4986],[3.3223,6.5016],[3.3344,6.517],[3.3383,6.549],[3.3669,6.5585],[3.3673,6.5197],[3.3585,6.5128],[3.3523,6.5182]]]}},{"id":"16","type":"Feature","properties":{"id":"NG025_25015","name":"Ojo","pop":872979,"density":5060.7,"hf":146,"hf10k":1.67,"hf2":6,"hf3":2,"u15":33.1,"disp":0,"area":172.5},"geometry":{"type":"Polygon","coordinates":[[[3.201,6.4345],[3.2017,6.4021],[3.0208,6.397],[3.031,6.4098],[3.0477,6.4139],[3.1063,6.4108],[3.1089,6.4271],[3.0998,6.4394],[3.0922,6.4676],[3.103,6.4674],[3.1151,6.4753],[3.1121,6.4907],[3.103,6.4996],[3.1159,6.5049],[3.1604,6.5081],[3.1753,6.5148],[3.1905,6.5315],[3.1996,6.5319],[3.2062,6.5233],[3.2161,6.4975],[3.2233,6.5013],[3.241,6.4847],[3.2337,6.4786],[3.2379,6.4582],[3.2309,6.4593],[3.2302,6.442],[3.2158,6.4351],[3.201,6.4345]]]}},{"id":"17","type":"Feature","properties":{"id":"NG025_25016","name":"Oshodi/Isolo","pop":596538,"density":11047.0,"hf":171,"hf10k":2.87,"hf2":16,"hf3":10,"u15":33.1,"disp":0,"area":54.0},"geometry":{"type":"Polygon","coordinates":[[[3.3237,6.5061],[3.3173,6.4898],[3.2903,6.4828],[3.2925,6.5068],[3.2818,6.5215],[3.2886,6.5333],[3.2864,6.568],[3.2947,6.5727],[3.3057,6.5682],[3.3088,6.5881],[3.3151,6.5879],[3.3157,6.5806],[3.3305,6.5805],[3.3376,6.5903],[3.3518,6.5557],[3.338,6.5485],[3.3344,6.517],[3.3237,6.5061]]]}},{"id":"18","type":"Feature","properties":{"id":"NG025_25017","name":"Shomolu","pop":210215,"density":20409.2,"hf":75,"hf10k":3.57,"hf2":1,"hf3":6,"u15":32.0,"disp":0,"area":10.3},"geometry":{"type":"Polygon","coordinates":[[[3.3746,6.5279],[3.3675,6.5244],[3.3669,6.5585],[3.3801,6.5483],[3.397,6.5501],[3.3998,6.524],[3.3746,6.5279]]]}},{"id":"19","type":"Feature","properties":{"id":"NG025_25018","name":"Surulere","pop":283385,"density":14169.2,"hf":169,"hf10k":5.96,"hf2":4,"hf3":16,"u15":33.1,"disp":0,"area":20.0},"geometry":{"type":"Polygon","coordinates":[[[3.3636,6.4891],[3.3691,6.4822],[3.3634,6.4739],[3.3457,6.4786],[3.3155,6.4598],[3.3273,6.478],[3.3223,6.5016],[3.3266,6.4986],[3.3377,6.5111],[3.3486,6.5126],[3.3523,6.5182],[3.3585,6.5128],[3.3646,6.5204],[3.3721,6.5064],[3.3636,6.4891]]]}}]}