{"type":"FeatureCollection","features":[{"id":"0","type":"Feature","properties":{"id":"NG023_23001","name":"Adavi","pop":242084,"density":398.6,"hf":51,"hf10k":2.11,"hf2":1,"hf3":0,"u15":43.2,"disp":0,"area":607.4},"geometry":{"type":"Polygon","coordinates":[[[6.3987,7.6982],[6.4254,7.7239],[6.4594,7.7442],[6.4989,7.7773],[6.5178,7.7773],[6.5241,7.7919],[6.5577,7.8205],[6.5674,7.8269],[6.584,7.8249],[6.6164,7.8592],[6.6368,7.849],[6.6607,7.8444],[6.69,7.8173],[6.7103,7.7865],[6.6883,7.7809],[6.6074,7.7276],[6.5927,7.7258],[6.5706,7.7019],[6.5596,7.6991],[6.543,7.6863],[6.5039,7.6296],[6.4539,7.6265],[6.4346,7.61],[6.4309,7.5934],[6.4134,7.5686],[6.4088,7.5272],[6.3702,7.5423],[6.3449,7.5459],[6.3129,7.5439],[6.2978,7.5336],[6.2716,7.5488],[6.2562,7.5484],[6.234,7.5588],[6.2241,7.5516],[6.1963,7.5679],[6.1774,7.5867],[6.2046,7.5881],[6.1999,7.5965],[6.217,7.6176],[6.2255,7.6208],[6.2448,7.6028],[6.2548,7.6065],[6.2583,7.6022],[6.2504,7.582],[6.2583,7.5789],[6.2868,7.5939],[6.3256,7.6275],[6.3451,7.6307],[6.3614,7.64],[6.3987,7.6982]]]}},{"id":"1","type":"Feature","properties":{"id":"NG023_23002","name":"Ajaokuta","pop":232702,"density":143.5,"hf":56,"hf10k":2.41,"hf2":4,"hf3":0,"u15":43.2,"disp":0,"area":1621.5},"geometry":{"type":"Polygon","coordinates":[[[6.6692,7.24],[6.6377,7.2942],[6.5695,7.2753],[6.5443,7.2749],[6.5114,7.267],[6.4997,7.2922],[6.4973,7.333],[6.4669,7.3653],[6.4505,7.3555],[6.4357,7.3597],[6.4341,7.3767],[6.4222,7.389],[6.4321,7.3977],[6.4282,7.4153],[6.4239,7.4175],[6.3798,7.3982],[6.3569,7.4149],[6.2921,7.5004],[6.2968,7.5082],[6.2978,7.5336],[6.3274,7.5477],[6.3702,7.5423],[6.4088,7.5272],[6.4134,7.5686],[6.4309,7.5934],[6.4346,7.61],[6.4539,7.6265],[6.5039,7.6296],[6.543,7.6863],[6.5596,7.6991],[6.5706,7.7019],[6.5927,7.7258],[6.6074,7.7276],[6.6883,7.7809],[6.7103,7.7865],[6.7149,7.7809],[6.725,7.7855],[6.7421,7.7842],[6.7579,7.7504],[6.7443,7.6706],[6.7352,7.6504],[6.7204,7.6375],[6.6993,7.5897],[6.7131,7.5125],[6.703,7.4518],[6.7085,7.3691],[6.6929,7.2947],[6.6902,7.2191],[6.6692,7.24]]]}},{"id":"2","type":"Feature","properties":{"id":"NG023_23003","name":"Ankpa","pop":450373,"density":350.0,"hf":87,"hf10k":1.93,"hf2":3,"hf3":0,"u15":45.2,"disp":0,"area":1286.8},"geometry":{"type":"Polygon","coordinates":[[[7.7524,7.6397],[7.7326,7.639],[7.7243,7.6205],[7.7362,7.5994],[7.7374,7.5391],[7.7558,7.5304],[7.7641,7.4337],[7.7762,7.4195],[7.7929,7.4149],[7.7994,7.4011],[7.7971,7.376],[7.8026,7.3643],[7.7687,7.3019],[7.7605,7.3095],[7.756,7.3048],[7.7275,7.3076],[7.6999,7.3183],[7.6506,7.3468],[7.6294,7.3472],[7.6255,7.3196],[7.5527,7.2912],[7.4738,7.2886],[7.4397,7.3022],[7.429,7.2944],[7.4193,7.2957],[7.3964,7.3066],[7.3954,7.3139],[7.386,7.3173],[7.3692,7.3636],[7.3779,7.3751],[7.3943,7.374],[7.4013,7.3821],[7.4351,7.3884],[7.4437,7.399],[7.4611,7.4011],[7.4522,7.4189],[7.4462,7.4496],[7.4503,7.5133],[7.4904,7.5244],[7.5162,7.5227],[7.5244,7.5288],[7.5658,7.5873],[7.551,7.6271],[7.556,7.6435],[7.5884,7.6562],[7.595,7.6411],[7.6406,7.6743],[7.6519,7.6957],[7.7078,7.706],[7.7243,7.7032],[7.7299,7.695],[7.7374,7.6945],[7.7526,7.7082],[7.7524,7.6397]]]}},{"id":"3","type":"Feature","properties":{"id":"NG023_23004","name":"Bassa","pop":111822,"density":57.2,"hf":130,"hf10k":11.63,"hf2":2,"hf3":0,"u15":44.4,"disp":0,"area":1954.2},"geometry":{"type":"Polygon","coordinates":[[[6.8253,7.5822],[6.8175,7.5261],[6.7993,7.4835],[6.8001,7.4684],[6.8145,7.4592],[6.8076,7.4448],[6.7851,7.4438],[6.7544,7.4802],[6.7275,7.4784],[6.7076,7.4844],[6.7131,7.5125],[6.6993,7.5897],[6.7204,7.6375],[6.7352,7.6504],[6.7443,7.6706],[6.7694,7.8004],[6.799,7.8232],[6.8496,7.8499],[6.9665,7.8791],[7.0728,7.9427],[7.2538,8.015],[7.3932,8.0439],[7.4458,8.0469],[7.3965,7.9748],[7.3779,7.9356],[7.3506,7.9001],[7.3463,7.8748],[7.3491,7.847],[7.3113,7.801],[7.3021,7.7819],[7.2909,7.7765],[7.2069,7.7851],[7.1806,7.7685],[7.148,7.7254],[7.1083,7.6932],[7.0846,7.6915],[7.0198,7.7038],[7.0055,7.6981],[6.9947,7.6803],[6.9698,7.6737],[6.9493,7.6425],[6.9336,7.6331],[6.9091,7.6243],[6.8765,7.62],[6.8411,7.6013],[6.8253,7.5822]]]}},{"id":"4","type":"Feature","properties":{"id":"NG023_23005","name":"Dekina","pop":610379,"density":249.8,"hf":166,"hf10k":2.72,"hf2":5,"hf3":1,"u15":44.6,"disp":0,"area":2443.0},"geometry":{"type":"Polygon","coordinates":[[[6.8145,7.4592],[6.8001,7.4684],[6.7993,7.4835],[6.8175,7.5261],[6.8253,7.5822],[6.8411,7.6013],[6.8765,7.62],[6.9091,7.6243],[6.9336,7.6331],[6.9493,7.6425],[6.9698,7.6737],[6.9947,7.6803],[7.0055,7.6981],[7.0198,7.7038],[7.0846,7.6915],[7.1083,7.6932],[7.148,7.7254],[7.1806,7.7685],[7.2069,7.7851],[7.2909,7.7765],[7.3021,7.7819],[7.3113,7.801],[7.3491,7.847],[7.3552,7.8271],[7.3885,7.787],[7.4123,7.7367],[7.4286,7.717],[7.4422,7.6878],[7.4401,7.6301],[7.4611,7.553],[7.4503,7.5133],[7.4462,7.4496],[7.4522,7.4189],[7.4611,7.4011],[7.4437,7.399],[7.4351,7.3884],[7.4013,7.3821],[7.3943,7.374],[7.3695,7.3766],[7.3599,7.3631],[7.3414,7.3634],[7.3101,7.3533],[7.2512,7.3598],[7.2133,7.3519],[7.1645,7.3516],[7.1481,7.3558],[7.1327,7.3758],[7.1368,7.396],[7.1301,7.422],[7.1377,7.4383],[7.1256,7.4556],[7.1211,7.4725],[7.1036,7.4813],[7.0486,7.4819],[7.0298,7.4457],[7.0283,7.4328],[7.0144,7.4127],[6.9828,7.417],[6.967,7.4132],[6.9428,7.4207],[6.8781,7.416],[6.8701,7.4114],[6.8461,7.4146],[6.8373,7.4352],[6.8132,7.453],[6.8145,7.4592]]]}},{"id":"5","type":"Feature","properties":{"id":"NG023_23006","name":"Ibaji","pop":130277,"density":96.8,"hf":98,"hf10k":7.52,"hf2":2,"hf3":0,"u15":45.6,"disp":0,"area":1346.3},"geometry":{"type":"Polygon","coordinates":[[[6.8357,7.0171],[6.864,7.0115],[6.8725,7.022],[6.8834,7.0151],[6.9012,7.0161],[6.9064,7.0125],[6.9058,7.0062],[6.8926,6.9944],[6.9047,6.977],[6.9232,6.9752],[6.9538,6.9539],[6.9644,6.9619],[6.9631,6.8597],[6.9608,6.8409],[6.9522,6.8279],[6.9524,6.8081],[6.9299,6.7865],[6.9234,6.802],[6.8968,6.7924],[6.8783,6.7606],[6.86,6.7532],[6.8421,6.7305],[6.8064,6.7031],[6.8003,6.6935],[6.809,6.6159],[6.8081,6.5802],[6.7641,6.5636],[6.7157,6.5603],[6.672,6.5675],[6.6617,6.5579],[6.6592,6.6078],[6.6528,6.6343],[6.628,6.6746],[6.6179,6.7049],[6.6317,6.7691],[6.6108,6.8221],[6.6462,6.8854],[6.6527,6.9078],[6.673,6.9357],[6.6793,6.972],[6.713,7.0027],[6.7226,7.0215],[6.7707,7.0339],[6.7947,7.0244],[6.8003,7.0523],[6.8088,7.0607],[6.8197,7.0592],[6.8345,7.0409],[6.8357,7.0171]]]}},{"id":"6","type":"Feature","properties":{"id":"NG023_23007","name":"Idah","pop":101757,"density":773.2,"hf":58,"hf10k":5.7,"hf2":1,"hf3":0,"u15":42.8,"disp":0,"area":131.6},"geometry":{"type":"Polygon","coordinates":[[[6.7707,7.0339],[6.7226,7.0215],[6.713,7.0027],[6.6793,6.972],[6.6773,7.0341],[6.6901,7.0683],[6.7115,7.1047],[6.7158,7.1228],[6.7235,7.1312],[6.7427,7.1375],[6.7489,7.1304],[6.7536,7.1396],[6.7696,7.123],[6.789,7.1224],[6.7937,7.1171],[6.7858,7.108],[6.788,7.0891],[6.782,7.0638],[6.7854,7.0392],[6.8003,7.0523],[6.7947,7.0244],[6.7707,7.0339]]]}},{"id":"7","type":"Feature","properties":{"id":"NG023_23008","name":"Igalamela-Odolu","pop":219326,"density":105.5,"hf":87,"hf10k":3.97,"hf2":2,"hf3":0,"u15":42.3,"disp":0,"area":2078.1},"geometry":{"type":"Polygon","coordinates":[[[6.8119,7.2465],[6.8756,7.225],[6.9182,7.1996],[6.9493,7.1924],[6.99,7.1948],[7.0317,7.2058],[7.0412,7.2173],[7.0441,7.2599],[7.0479,7.2638],[7.0647,7.2528],[7.1369,7.2393],[7.1621,7.2285],[7.1655,7.2396],[7.1896,7.2413],[7.2139,7.235],[7.2233,7.2251],[7.2274,7.1732],[7.2619,7.1659],[7.2873,7.1718],[7.3074,7.1833],[7.2982,7.1652],[7.2847,7.1125],[7.2929,7.1056],[7.3672,7.0889],[7.3668,7.0399],[7.3272,7.0241],[7.3122,7.0052],[7.2413,6.9713],[7.2389,6.9414],[7.2329,6.9297],[7.2178,6.9253],[7.2101,6.9035],[7.1877,6.9012],[7.1759,6.8965],[7.1701,6.8839],[7.1562,6.8831],[7.1468,6.8642],[7.12,6.8484],[7.0814,6.8004],[7.0601,6.7949],[7.0554,6.7862],[7.042,6.783],[7.0207,6.7893],[6.9908,6.7854],[6.9861,6.7886],[6.9853,6.7988],[6.99,6.8232],[6.9868,6.8445],[6.9782,6.85],[6.9608,6.8409],[6.9608,6.891],[6.9659,6.9095],[6.9644,6.9619],[6.9538,6.9539],[6.9232,6.9752],[6.9047,6.977],[6.8926,6.9944],[6.9058,7.0062],[6.9064,7.0125],[6.9012,7.0161],[6.8834,7.0151],[6.8725,7.022],[6.864,7.0115],[6.8357,7.0171],[6.8345,7.0409],[6.8197,7.0592],[6.8088,7.0607],[6.7854,7.0392],[6.782,7.0638],[6.788,7.0891],[6.7858,7.108],[6.7937,7.1171],[6.789,7.1224],[6.7696,7.123],[6.7536,7.1396],[6.7489,7.1304],[6.7427,7.1375],[6.7235,7.1312],[6.7158,7.1228],[6.7158,7.1357],[6.6933,7.2165],[6.7145,7.2197],[6.7292,7.2289],[6.7378,7.2416],[6.7457,7.2779],[6.753,7.2896],[6.765,7.2882],[6.7702,7.2805],[6.7902,7.2781],[6.8119,7.2465]]]}},{"id":"8","type":"Feature","properties":{"id":"NG023_23009","name":"Ijumu","pop":185859,"density":142.4,"hf":52,"hf10k":2.8,"hf2":4,"hf3":1,"u15":44.3,"disp":0,"area":1304.9},"geometry":{"type":"Polygon","coordinates":[[[6.1223,7.6823],[6.1219,7.6472],[6.1048,7.6146],[6.0987,7.5882],[6.0434,7.5775],[6.0289,7.5653],[6.0235,7.5473],[6.013,7.5334],[6.0041,7.5292],[5.9965,7.5595],[5.9376,7.6488],[5.9215,7.7161],[5.9306,7.7448],[5.9194,7.7502],[5.9083,7.7483],[5.85,7.7286],[5.8277,7.734],[5.8164,7.7278],[5.801,7.7333],[5.773,7.7473],[5.7916,7.7821],[5.768,7.7876],[5.7558,7.7956],[5.7373,7.8211],[5.76,7.8342],[5.7892,7.8619],[5.8267,7.905],[5.8323,7.9226],[5.8657,7.9457],[5.908,7.9993],[5.9487,8.0847],[5.9576,8.0961],[5.9771,8.1067],[5.9909,8.1352],[6.0271,8.1545],[6.0755,8.0416],[6.0796,8.0124],[6.0544,7.9302],[6.0695,7.8909],[6.0671,7.8631],[6.037,7.8713],[6.0218,7.8407],[6.0414,7.8025],[6.0537,7.79],[6.0483,7.7573],[6.0538,7.747],[6.0857,7.7386],[6.0983,7.7049],[6.1223,7.6823]]]}},{"id":"9","type":"Feature","properties":{"id":"NG023_23010","name":"Kabba/Bunu","pop":231477,"density":87.2,"hf":58,"hf10k":2.51,"hf2":3,"hf3":0,"u15":44.2,"disp":0,"area":2654.4},"geometry":{"type":"Polygon","coordinates":[[[6.2682,7.7828],[6.2682,7.7065],[6.259,7.7065],[6.2342,7.7184],[6.1864,7.7184],[6.1726,7.7147],[6.1223,7.6823],[6.0983,7.7049],[6.0857,7.7386],[6.0538,7.747],[6.0483,7.7573],[6.0537,7.79],[6.0414,7.8025],[6.0218,7.8407],[6.037,7.8713],[6.0671,7.8631],[6.0686,7.8743],[6.0695,7.8909],[6.0544,7.9302],[6.0796,8.0124],[6.0755,8.0416],[6.0271,8.1545],[6.0715,8.1628],[6.0584,8.1815],[6.0552,8.2108],[6.0731,8.2279],[6.0666,8.2645],[6.0837,8.3011],[6.0894,8.3247],[6.087,8.354],[6.078,8.3694],[6.0827,8.4018],[6.1113,8.4312],[6.1131,8.4415],[6.1634,8.4511],[6.1928,8.4649],[6.2415,8.4593],[6.2682,8.4492],[6.3004,8.4281],[6.3463,8.3867],[6.3601,8.3647],[6.396,8.3288],[6.4502,8.2424],[6.4732,8.2176],[6.4962,8.1633],[6.4916,8.145],[6.4575,8.0935],[6.4474,8.0631],[6.4456,8.0356],[6.464,8.0062],[6.418,8.0203],[6.3877,8.0016],[6.339,8.042],[6.3298,8.0613],[6.2866,8.0953],[6.2516,8.1008],[6.2296,8.0953],[6.2204,8.0687],[6.2305,8.0457],[6.2415,8.0337],[6.2489,7.997],[6.27,7.9694],[6.2875,7.9611],[6.2939,7.9436],[6.3086,7.94],[6.3197,7.9289],[6.3298,7.9032],[6.3243,7.8876],[6.3233,7.8434],[6.2774,7.8012],[6.2682,7.7828]]]}},{"id":"10","type":"Feature","properties":{"id":"NG023_23011","name":"Kogi","pop":99153,"density":66.4,"hf":81,"hf10k":8.17,"hf2":1,"hf3":0,"u15":45.1,"disp":0,"area":1492.2},"geometry":{"type":"Polygon","coordinates":[[[6.7694,7.8004],[6.7903,7.8857],[6.7921,7.9151],[6.7774,7.9979],[6.7793,8.0448],[6.7618,8.0889],[6.7204,8.1259],[6.6913,8.183],[6.7126,8.202],[6.7181,8.2433],[6.7274,8.2524],[6.72,8.2746],[6.7301,8.2838],[6.7494,8.2635],[6.7614,8.2727],[6.7614,8.293],[6.7494,8.2994],[6.7512,8.3049],[6.7669,8.3086],[6.7724,8.3352],[6.7908,8.3306],[6.8073,8.3426],[6.8367,8.3913],[6.8377,8.3968],[6.8248,8.4042],[6.8321,8.4171],[6.8321,8.4253],[6.8248,8.4327],[6.8279,8.4576],[6.9408,8.4589],[6.9808,8.4437],[6.9696,8.3913],[6.9576,8.3748],[6.9346,8.3012],[6.965,8.2654],[6.9723,8.2249],[7.0008,8.1817],[7.0027,8.167],[6.9834,8.1155],[6.987,8.0779],[6.9709,8.0301],[6.9792,8.0006],[6.9783,7.9859],[6.9636,7.9602],[6.9526,7.9179],[6.9636,7.8793],[6.8496,7.8499],[6.799,7.8232],[6.7694,7.8004]]]}},{"id":"11","type":"Feature","properties":{"id":"NG023_23012","name":"Lokoja","pop":360317,"density":113.1,"hf":89,"hf10k":2.47,"hf2":8,"hf3":2,"u15":43.4,"disp":0,"area":3187.0},"geometry":{"type":"Polygon","coordinates":[[[6.7903,7.8857],[6.7579,7.7504],[6.7421,7.7842],[6.725,7.7855],[6.7149,7.7809],[6.69,7.8173],[6.6607,7.8444],[6.6368,7.849],[6.6164,7.8592],[6.5716,7.8874],[6.5574,7.9019],[6.5259,7.8996],[6.4891,7.8734],[6.4456,7.8545],[6.4244,7.8333],[6.3868,7.8113],[6.3445,7.8076],[6.3153,7.8333],[6.3233,7.8434],[6.3243,7.8876],[6.3298,7.9032],[6.327,7.9161],[6.3086,7.94],[6.2939,7.9436],[6.2875,7.9611],[6.27,7.9694],[6.2489,7.997],[6.2415,8.0337],[6.2305,8.0457],[6.2204,8.0687],[6.2296,8.0953],[6.2516,8.1008],[6.2866,8.0953],[6.3298,8.0613],[6.339,8.042],[6.3877,8.0016],[6.418,8.0203],[6.464,8.0062],[6.4456,8.0356],[6.4474,8.0631],[6.4575,8.0935],[6.4916,8.145],[6.4962,8.1633],[6.4732,8.2176],[6.4502,8.2424],[6.396,8.3288],[6.3601,8.3647],[6.3463,8.3867],[6.3004,8.4281],[6.2682,8.4492],[6.2149,8.4639],[6.1928,8.4649],[6.1634,8.4511],[6.1131,8.4415],[6.1251,8.5556],[6.1479,8.5963],[6.1699,8.663],[6.2085,8.7324],[6.2677,8.7388],[6.3026,8.7278],[6.3587,8.6846],[6.3799,8.6487],[6.3983,8.6294],[6.4056,8.6119],[6.4529,8.4483],[6.5035,8.4125],[6.5274,8.3757],[6.5513,8.3693],[6.5798,8.3306],[6.5991,8.3242],[6.6083,8.3141],[6.6414,8.2553],[6.6653,8.2268],[6.6837,8.213],[6.6901,8.1854],[6.7204,8.1259],[6.7618,8.0889],[6.7793,8.0448],[6.7774,7.9979],[6.7921,7.9151],[6.7903,7.8857]]]}},{"id":"12","type":"Feature","properties":{"id":"NG023_23013","name":"Mopa-Muro","pop":67741,"density":87.6,"hf":32,"hf10k":4.72,"hf2":2,"hf3":0,"u15":42.5,"disp":0,"area":773.4},"geometry":{"type":"Polygon","coordinates":[[[5.9487,8.0847],[5.908,7.9993],[5.8657,7.9457],[5.8349,7.924],[5.8275,7.9408],[5.8055,7.9505],[5.7697,7.9758],[5.7598,8.0031],[5.7896,8.0501],[5.7963,8.0941],[5.8262,8.1762],[5.8383,8.192],[5.8725,8.22],[5.8995,8.2575],[5.9505,8.2934],[5.9625,8.3133],[6.0275,8.345],[6.0625,8.3548],[6.087,8.354],[6.0894,8.3247],[6.0837,8.3011],[6.0666,8.2645],[6.0731,8.2279],[6.0552,8.2108],[6.0584,8.1815],[6.0715,8.1628],[6.0243,8.1539],[5.9909,8.1352],[5.9771,8.1067],[5.9576,8.0961],[5.9487,8.0847]]]}},{"id":"13","type":"Feature","properties":{"id":"NG023_23014","name":"Ofu","pop":339504,"density":218.5,"hf":95,"hf10k":2.8,"hf2":3,"hf3":0,"u15":45.2,"disp":0,"area":1554.0},"geometry":{"type":"Polygon","coordinates":[[[7.3463,7.2469],[7.3301,7.2074],[7.3074,7.1833],[7.2873,7.1718],[7.2619,7.1659],[7.2274,7.1732],[7.2233,7.2251],[7.2139,7.235],[7.1896,7.2413],[7.1655,7.2396],[7.1621,7.2285],[7.1369,7.2393],[7.0647,7.2528],[7.0479,7.2638],[7.0441,7.2599],[7.0412,7.2173],[7.0317,7.2058],[6.99,7.1948],[6.9493,7.1924],[6.9182,7.1996],[6.8756,7.225],[6.8119,7.2465],[6.7902,7.2781],[6.7702,7.2805],[6.765,7.2882],[6.753,7.2896],[6.7457,7.2779],[6.7378,7.2416],[6.7292,7.2289],[6.7145,7.2197],[6.6933,7.2165],[6.6902,7.2191],[6.6938,7.2432],[6.691,7.2763],[6.7085,7.3691],[6.703,7.4518],[6.7076,7.4844],[6.7275,7.4784],[6.7544,7.4802],[6.7851,7.4438],[6.8076,7.4448],[6.8132,7.453],[6.8181,7.452],[6.8373,7.4352],[6.8461,7.4146],[6.8701,7.4114],[6.8781,7.416],[6.9428,7.4207],[6.967,7.4132],[6.9828,7.417],[7.0144,7.4127],[7.0283,7.4328],[7.0298,7.4457],[7.0486,7.4819],[7.1036,7.4813],[7.1211,7.4725],[7.1256,7.4556],[7.1377,7.4383],[7.1301,7.422],[7.1368,7.396],[7.1327,7.3758],[7.1481,7.3558],[7.1968,7.3506],[7.2512,7.3598],[7.3101,7.3533],[7.3414,7.3634],[7.3599,7.3631],[7.3695,7.3766],[7.3779,7.3751],[7.3681,7.3604],[7.3827,7.333],[7.3798,7.3275],[7.386,7.3173],[7.3954,7.3139],[7.3958,7.3032],[7.3867,7.3088],[7.3555,7.2976],[7.3463,7.2469]]]}},{"id":"14","type":"Feature","properties":{"id":"NG023_23015","name":"Ogori/Magongo","pop":21791,"density":275.1,"hf":13,"hf10k":5.97,"hf2":1,"hf3":0,"u15":43.2,"disp":0,"area":79.2},"geometry":{"type":"Polygon","coordinates":[[[6.1881,7.4394],[6.1828,7.4294],[6.1709,7.4441],[6.1597,7.4476],[6.1124,7.4487],[6.1101,7.4941],[6.1465,7.516],[6.1583,7.5283],[6.1724,7.5196],[6.1981,7.4961],[6.2063,7.4704],[6.2253,7.4684],[6.2196,7.4578],[6.1881,7.4394]]]}},{"id":"15","type":"Feature","properties":{"id":"NG023_23016","name":"Okehi","pop":152395,"density":199.2,"hf":37,"hf10k":2.43,"hf2":1,"hf3":0,"u15":43.2,"disp":0,"area":765.1},"geometry":{"type":"Polygon","coordinates":[[[6.0987,7.5882],[6.1048,7.6146],[6.1219,7.6472],[6.1223,7.6823],[6.1726,7.7147],[6.1864,7.7184],[6.2342,7.7184],[6.259,7.7065],[6.2682,7.7065],[6.2719,7.7295],[6.2682,7.7828],[6.2774,7.8012],[6.3153,7.8333],[6.3445,7.8076],[6.3868,7.8113],[6.4244,7.8333],[6.4456,7.8545],[6.4891,7.8734],[6.5259,7.8996],[6.5408,7.9015],[6.5574,7.9019],[6.5716,7.8874],[6.6164,7.8592],[6.584,7.8249],[6.5674,7.8269],[6.5577,7.8205],[6.5241,7.7919],[6.5178,7.7773],[6.4989,7.7773],[6.4594,7.7442],[6.4254,7.7239],[6.3987,7.6982],[6.3614,7.64],[6.3451,7.6307],[6.3256,7.6275],[6.2868,7.5939],[6.2583,7.5789],[6.2504,7.582],[6.2583,7.6022],[6.2548,7.6065],[6.2448,7.6028],[6.2255,7.6208],[6.217,7.6176],[6.1999,7.5965],[6.2046,7.5881],[6.1774,7.5867],[6.1893,7.5753],[6.1788,7.5721],[6.179,7.567],[6.1336,7.5521],[6.1188,7.5914],[6.0987,7.5882]]]}},{"id":"16","type":"Feature","properties":{"id":"NG023_23017","name":"Okene","pop":160313,"density":1457.4,"hf":59,"hf10k":3.68,"hf2":2,"hf3":0,"u15":43.2,"disp":0,"area":110.0},"geometry":{"type":"Polygon","coordinates":[[[6.1336,7.5521],[6.1893,7.5753],[6.2234,7.5518],[6.234,7.5588],[6.2562,7.5484],[6.2776,7.5458],[6.2978,7.5336],[6.2968,7.5082],[6.2921,7.5004],[6.2812,7.501],[6.2638,7.4801],[6.2379,7.4756],[6.2253,7.4684],[6.2063,7.4704],[6.1981,7.4961],[6.1583,7.5283],[6.1659,7.5485],[6.1336,7.5521]]]}},{"id":"17","type":"Feature","properties":{"id":"NG023_23018","name":"Olamaboro","pop":418816,"density":371.0,"hf":112,"hf10k":2.67,"hf2":3,"hf3":0,"u15":43.7,"disp":0,"area":1128.8},"geometry":{"type":"Polygon","coordinates":[[[7.6506,7.3468],[7.6999,7.3183],[7.7275,7.3076],[7.756,7.3048],[7.7605,7.3095],[7.7687,7.3019],[7.8012,7.2926],[7.7942,7.2687],[7.7971,7.2331],[7.79,7.2169],[7.7794,7.2089],[7.7293,7.1927],[7.718,7.1836],[7.691,7.1918],[7.6724,7.1737],[7.6431,7.1583],[7.6355,7.1471],[7.6374,7.1327],[7.6019,7.0906],[7.5994,7.0793],[7.6111,7.0272],[7.6078,7.0176],[7.5932,7.018],[7.5807,7.0272],[7.5436,7.0401],[7.5305,7.0323],[7.502,7.069],[7.4702,7.0868],[7.4704,7.0939],[7.4647,7.0892],[7.4574,7.0959],[7.4424,7.0959],[7.4319,7.1016],[7.3944,7.0929],[7.3868,7.0861],[7.3894,7.0651],[7.3847,7.0517],[7.3668,7.0399],[7.3672,7.0889],[7.2929,7.1056],[7.2847,7.1125],[7.3015,7.1731],[7.3301,7.2074],[7.3463,7.2469],[7.3555,7.2976],[7.3867,7.3088],[7.429,7.2944],[7.4397,7.3022],[7.4738,7.2886],[7.5527,7.2912],[7.6255,7.3196],[7.6294,7.3472],[7.6506,7.3468]]]}},{"id":"18","type":"Feature","properties":{"id":"NG023_23019","name":"Omala","pop":110677,"density":71.1,"hf":54,"hf10k":4.88,"hf2":4,"hf3":0,"u15":45.5,"disp":0,"area":1556.1},"geometry":{"type":"Polygon","coordinates":[[[7.5658,7.5873],[7.5162,7.5227],[7.4904,7.5244],[7.4503,7.5133],[7.4611,7.553],[7.4401,7.6301],[7.4422,7.6878],[7.4286,7.717],[7.4123,7.7367],[7.3885,7.787],[7.3552,7.8271],[7.3491,7.847],[7.3463,7.8748],[7.3506,7.9001],[7.3779,7.9356],[7.4181,8.0074],[7.4458,8.0469],[7.451,8.0486],[7.5053,8.0472],[7.5835,8.0377],[7.6772,8.0166],[7.6636,7.9059],[7.6929,7.8386],[7.7447,7.7687],[7.7526,7.7442],[7.7526,7.7082],[7.7374,7.6945],[7.7299,7.695],[7.7243,7.7032],[7.7078,7.706],[7.6519,7.6957],[7.6406,7.6743],[7.595,7.6411],[7.5884,7.6562],[7.556,7.6435],[7.551,7.6271],[7.5658,7.5873]]]}},{"id":"19","type":"Feature","properties":{"id":"NG023_23020","name":"Yagba East","pop":133357,"density":87.7,"hf":47,"hf10k":3.52,"hf2":1,"hf3":0,"u15":42.7,"disp":0,"area":1520.3},"geometry":{"type":"Polygon","coordinates":[[[5.7697,7.9758],[5.8275,7.9408],[5.8349,7.924],[5.8202,7.896],[5.76,7.8342],[5.7373,7.8211],[5.729,7.8283],[5.7102,7.8301],[5.6427,7.8287],[5.6232,7.843],[5.6142,7.8656],[5.5988,7.9585],[5.6096,7.9661],[5.627,7.9571],[5.6455,7.963],[5.6476,7.9862],[5.6681,8.0023],[5.6625,8.0152],[5.6507,8.0236],[5.6399,8.0538],[5.6597,8.0698],[5.6563,8.0747],[5.6436,8.074],[5.6331,8.1213],[5.6372,8.1677],[5.6445,8.188],[5.6819,8.2441],[5.6868,8.271],[5.7014,8.2929],[5.6882,8.4529],[5.7827,8.4279],[5.8494,8.4223],[5.9121,8.4239],[5.9568,8.4084],[6.0406,8.393],[6.0601,8.3938],[6.0827,8.4018],[6.078,8.3694],[6.087,8.354],[6.0625,8.3548],[6.0275,8.345],[5.9625,8.3133],[5.9505,8.2934],[5.8995,8.2575],[5.8725,8.22],[5.8383,8.192],[5.8262,8.1762],[5.7963,8.0941],[5.7896,8.0501],[5.7598,8.0031],[5.7697,7.9758]]]}},{"id":"20","type":"Feature","properties":{"id":"NG023_23021","name":"Yagba West","pop":99320,"density":77.8,"hf":36,"hf10k":3.62,"hf2":3,"hf3":0,"u15":43.1,"disp":0,"area":1275.9},"geometry":{"type":"Polygon","coordinates":[[[5.6339,8.1297],[5.6372,8.0912],[5.6436,8.074],[5.5766,8.0712],[5.516,8.0222],[5.5059,8.0187],[5.5146,8.105],[5.5139,8.1112],[5.498,8.1107],[5.498,8.1147],[5.5327,8.1468],[5.5397,8.1908],[5.5371,8.2055],[5.5139,8.2124],[5.5104,8.2084],[5.5013,8.2153],[5.4662,8.2025],[5.4223,8.2281],[5.4184,8.2838],[5.3971,8.292],[5.3723,8.2742],[5.3567,8.2747],[5.3532,8.3099],[5.3358,8.3286],[5.3245,8.3338],[5.3215,8.3411],[5.3419,8.3752],[5.3966,8.4383],[5.4535,8.4863],[5.4766,8.4999],[5.4962,8.529],[5.503,8.5345],[5.5146,8.5351],[5.5132,8.5385],[5.5241,8.5369],[5.5542,8.5125],[5.5745,8.506],[5.6429,8.4629],[5.6882,8.4529],[5.7014,8.2929],[5.6868,8.271],[5.6819,8.2441],[5.6445,8.188],[5.6372,8.1677],[5.6339,8.1297]]]}}]}