{"type":"FeatureCollection","features":[{"id":"0","type":"Feature","properties":{"id":"NG029_29001","name":"Akoko North East","pop":170847,"density":460.3,"hf":48,"hf10k":2.81,"hf2":0,"hf3":2,"u15":36.6,"disp":0,"area":371.2},"geometry":{"type":"Polygon","coordinates":[[[5.7448,7.4834],[5.6864,7.4812],[5.6567,7.4866],[5.6103,7.4845],[5.6182,7.5639],[5.6359,7.5594],[5.6711,7.5596],[5.7119,7.5506],[5.7861,7.5538],[5.8685,7.5764],[5.8935,7.5885],[5.9173,7.6302],[5.94,7.6451],[5.9965,7.5595],[6.0041,7.5356],[6.002,7.5282],[5.9756,7.5302],[5.9651,7.514],[5.9542,7.5152],[5.9512,7.5012],[5.9459,7.5002],[5.8235,7.4959],[5.8207,7.5022],[5.8133,7.5022],[5.7448,7.4834]]]}},{"id":"1","type":"Feature","properties":{"id":"NG029_29002","name":"Akoko North West","pop":145903,"density":285.0,"hf":39,"hf10k":2.67,"hf2":2,"hf3":0,"u15":36.5,"disp":0,"area":511.9},"geometry":{"type":"Polygon","coordinates":[[[5.8935,7.5885],[5.7861,7.5538],[5.7527,7.5508],[5.7119,7.5506],[5.6711,7.5596],[5.6359,7.5594],[5.6182,7.5639],[5.6246,7.5824],[5.6551,7.6287],[5.681,7.6237],[5.6886,7.6324],[5.6994,7.6829],[5.7165,7.701],[5.7676,7.7372],[5.773,7.7473],[5.8164,7.7278],[5.8277,7.734],[5.85,7.7286],[5.9194,7.7502],[5.9287,7.7466],[5.9306,7.7411],[5.9215,7.7161],[5.94,7.6451],[5.9173,7.6302],[5.8935,7.5885]]]}},{"id":"2","type":"Feature","properties":{"id":"NG029_29003","name":"Akoko South East","pop":58586,"density":260.2,"hf":33,"hf10k":5.63,"hf2":1,"hf3":0,"u15":36.5,"disp":0,"area":225.2},"geometry":{"type":"Polygon","coordinates":[[[5.9685,7.4149],[5.9797,7.3914],[5.9749,7.3752],[5.9873,7.3611],[5.9809,7.3489],[5.9504,7.3445],[5.9003,7.3605],[5.8816,7.3844],[5.8469,7.3945],[5.8275,7.4506],[5.8235,7.4959],[5.9512,7.5012],[5.9481,7.4873],[5.9633,7.4604],[5.9845,7.4561],[5.9873,7.4479],[5.9872,7.4415],[5.9756,7.4323],[5.9685,7.4149]]]}},{"id":"3","type":"Feature","properties":{"id":"NG029_29004","name":"Akoko South West","pop":230998,"density":436.7,"hf":71,"hf10k":3.07,"hf2":1,"hf3":0,"u15":36.6,"disp":0,"area":529.0},"geometry":{"type":"Polygon","coordinates":[[[5.8482,7.3971],[5.8204,7.3859],[5.7872,7.3534],[5.7567,7.3412],[5.6966,7.303],[5.6697,7.3001],[5.64,7.3092],[5.5044,7.3162],[5.5212,7.3325],[5.5883,7.4317],[5.5994,7.4502],[5.6103,7.4845],[5.7371,7.4824],[5.8207,7.5022],[5.8303,7.4395],[5.8482,7.3971]]]}},{"id":"4","type":"Feature","properties":{"id":"NG029_29005","name":"Akure North","pop":383273,"density":600.0,"hf":53,"hf10k":1.38,"hf2":3,"hf3":0,"u15":36.6,"disp":0,"area":638.8},"geometry":{"type":"Polygon","coordinates":[[[5.3163,7.1624],[5.2493,7.2018],[5.2221,7.2298],[5.2235,7.2338],[5.2132,7.2378],[5.217,7.2428],[5.2142,7.2524],[5.2205,7.2569],[5.2126,7.3145],[5.19,7.3769],[5.1945,7.4009],[5.1924,7.4369],[5.2453,7.4335],[5.3203,7.4413],[5.3466,7.3814],[5.3582,7.2956],[5.3908,7.2819],[5.4188,7.2498],[5.4161,7.2221],[5.4245,7.2083],[5.4192,7.1701],[5.4278,7.1206],[5.4334,7.116],[5.4575,7.1189],[5.477,7.1144],[5.4863,7.1098],[5.491,7.1006],[5.4753,7.0812],[5.4497,7.0648],[5.3652,7.0925],[5.3163,7.1624]]]}},{"id":"5","type":"Feature","properties":{"id":"NG029_29006","name":"Akure South","pop":641910,"density":2464.1,"hf":83,"hf10k":1.29,"hf2":5,"hf3":9,"u15":36.6,"disp":0,"area":260.5},"geometry":{"type":"Polygon","coordinates":[[[5.2221,7.2298],[5.2493,7.2018],[5.2735,7.1917],[5.3163,7.1624],[5.3652,7.0925],[5.2545,7.1076],[5.2294,7.1195],[5.207,7.1433],[5.1587,7.1699],[5.1214,7.2057],[5.1082,7.2283],[5.0831,7.2507],[5.083,7.2719],[5.0972,7.2776],[5.1258,7.2788],[5.128,7.2845],[5.1352,7.2847],[5.1669,7.2708],[5.169,7.2654],[5.2085,7.2509],[5.2142,7.2524],[5.217,7.2428],[5.2132,7.2378],[5.2235,7.2338],[5.2221,7.2298]]]}},{"id":"6","type":"Feature","properties":{"id":"NG029_29007","name":"Ese Odo","pop":109320,"density":143.3,"hf":34,"hf10k":3.11,"hf2":1,"hf3":0,"u15":37.7,"disp":0,"area":762.9},"geometry":{"type":"Polygon","coordinates":[[[5.0833,6.0924],[5.0469,6.0145],[5.0366,6.0223],[5.0328,6.0361],[5.0089,6.0625],[4.996,6.0622],[4.9915,6.0538],[4.9769,6.0537],[4.9654,6.0634],[4.9586,6.0846],[4.9444,6.081],[4.914,6.1436],[4.8534,6.2069],[4.8412,6.2263],[4.8347,6.2457],[4.8345,6.2715],[4.8658,6.3152],[4.8695,6.3281],[4.8648,6.3419],[4.8489,6.3557],[4.8489,6.3668],[4.8709,6.4029],[4.8744,6.4268],[4.8651,6.4378],[4.8706,6.4416],[4.9058,6.4565],[4.916,6.4566],[4.9234,6.4511],[4.9508,6.3635],[4.9957,6.3001],[5.0026,6.294],[5.0156,6.2924],[5.041,6.2743],[5.0534,6.2468],[5.0635,6.2483],[5.0733,6.2395],[5.0788,6.2226],[5.0756,6.2134],[5.0818,6.218],[5.0872,6.2145],[5.0861,6.2078],[5.0924,6.1983],[5.1032,6.2022],[5.1128,6.1955],[5.1155,6.2061],[5.1199,6.207],[5.1287,6.1897],[5.1359,6.1867],[5.132,6.1808],[5.1377,6.1731],[5.127,6.1639],[5.0833,6.0924]]]}},{"id":"7","type":"Feature","properties":{"id":"NG029_29008","name":"Idanre","pop":338495,"density":174.3,"hf":75,"hf10k":2.22,"hf2":1,"hf3":1,"u15":36.6,"disp":0,"area":1941.6},"geometry":{"type":"Polygon","coordinates":[[[5.2548,6.8827],[5.2089,6.8108],[5.197,6.7739],[5.1508,6.746],[5.1223,6.6987],[5.1056,6.7125],[5.0888,6.7189],[5.0785,6.715],[5.0633,6.7264],[5.0535,6.7344],[5.0469,6.7574],[5.0171,6.7739],[5.0022,6.7913],[5.0021,6.8153],[4.9881,6.8987],[5.0067,6.9908],[4.9953,7.0341],[4.9923,7.0784],[5.0042,7.1053],[5.001,7.1158],[5.0055,7.126],[5.0072,7.1602],[5.0033,7.2002],[5.0221,7.2134],[5.0322,7.2313],[5.0367,7.256],[5.0636,7.2497],[5.0831,7.2507],[5.0928,7.2441],[5.1214,7.2057],[5.1587,7.1699],[5.207,7.1433],[5.2294,7.1195],[5.2471,7.1103],[5.3761,7.0916],[5.4497,7.0648],[5.4755,7.0506],[5.4785,7.0165],[5.5337,6.9171],[5.5371,6.8848],[5.2724,6.8883],[5.2548,6.8827]]]}},{"id":"8","type":"Feature","properties":{"id":"NG029_29009","name":"Ifedore","pop":556667,"density":1450.8,"hf":73,"hf10k":1.31,"hf2":0,"hf3":4,"u15":36.5,"disp":0,"area":383.7},"geometry":{"type":"Polygon","coordinates":[[[5.1943,7.4212],[5.19,7.3769],[5.2126,7.3145],[5.2193,7.2554],[5.2085,7.2509],[5.1945,7.2551],[5.1944,7.2586],[5.169,7.2654],[5.1669,7.2708],[5.1352,7.2847],[5.128,7.2845],[5.1258,7.2788],[5.0972,7.2776],[5.083,7.2719],[5.0831,7.2507],[5.0636,7.2497],[5.0367,7.256],[5.0421,7.2883],[5.0427,7.3483],[5.0305,7.3806],[5.0063,7.392],[5.0044,7.4132],[5.0089,7.4256],[5.0486,7.4573],[5.0652,7.4602],[5.1321,7.4449],[5.1877,7.4406],[5.1924,7.4369],[5.1943,7.4212]]]}},{"id":"9","type":"Feature","properties":{"id":"NG029_29010","name":"Ilaje","pop":317629,"density":234.5,"hf":65,"hf10k":2.05,"hf2":1,"hf3":0,"u15":37.1,"disp":0,"area":1354.6},"geometry":{"type":"Polygon","coordinates":[[[5.0469,6.0145],[5.0181,5.9505],[4.9768,5.8877],[4.9486,5.9244],[4.8538,6.0248],[4.8037,6.0638],[4.7496,6.1209],[4.6921,6.1606],[4.6152,6.235],[4.5609,6.2763],[4.4832,6.3261],[4.4884,6.3362],[4.5029,6.327],[4.5053,6.3202],[4.5225,6.3132],[4.5473,6.3118],[4.572,6.2973],[4.5949,6.3319],[4.5968,6.3681],[4.5758,6.381],[4.5148,6.3971],[4.4871,6.3877],[4.4747,6.3883],[4.4798,6.409],[4.5073,6.4156],[4.5231,6.4073],[4.5352,6.4083],[4.56,6.4509],[4.5663,6.4768],[4.5643,6.499],[4.6052,6.4922],[4.6182,6.4845],[4.6266,6.4679],[4.6387,6.4597],[4.6649,6.421],[4.7003,6.3972],[4.717,6.3918],[4.7522,6.3938],[4.8263,6.4109],[4.8679,6.4369],[4.8744,6.4268],[4.8718,6.4066],[4.8498,6.3714],[4.8489,6.3557],[4.8648,6.3419],[4.8695,6.3281],[4.8658,6.3152],[4.8345,6.2715],[4.8394,6.2309],[4.8534,6.2069],[4.914,6.1436],[4.9444,6.081],[4.9586,6.0846],[4.9654,6.0634],[4.9769,6.0537],[4.9915,6.0538],[4.996,6.0622],[5.0089,6.0625],[5.0328,6.0361],[5.0366,6.0223],[5.0469,6.0145]]]}},{"id":"10","type":"Feature","properties":{"id":"NG029_29011","name":"Ile Oluji/Okeigbo","pop":515905,"density":581.4,"hf":102,"hf10k":1.98,"hf2":1,"hf3":1,"u15":37.2,"disp":0,"area":887.3},"geometry":{"type":"Polygon","coordinates":[[[4.7218,7.0991],[4.6167,7.0847],[4.6351,7.1134],[4.673,7.1404],[4.6682,7.1588],[4.6719,7.1662],[4.6839,7.1681],[4.7034,7.1618],[4.709,7.1646],[4.7154,7.172],[4.7209,7.1951],[4.7366,7.2072],[4.7467,7.223],[4.7347,7.284],[4.7547,7.3611],[4.8756,7.3788],[4.9434,7.37],[4.9897,7.3776],[5.0063,7.392],[5.0305,7.3806],[5.0427,7.3483],[5.0421,7.2883],[5.0322,7.2313],[5.0147,7.206],[4.9685,7.191],[4.8771,7.187],[4.8686,7.1342],[4.8799,7.1037],[4.8564,7.0991],[4.8437,7.1041],[4.8262,7.0995],[4.821,7.1038],[4.8167,7.1002],[4.7218,7.0991]]]}},{"id":"11","type":"Feature","properties":{"id":"NG029_29012","name":"Irele","pop":186526,"density":194.4,"hf":44,"hf10k":2.36,"hf2":1,"hf3":0,"u15":38.7,"disp":0,"area":959.7},"geometry":{"type":"Polygon","coordinates":[[[5.0491,6.3819],[5.0438,6.3666],[5.0292,6.3636],[5.0278,6.3452],[5.0353,6.3285],[5.0154,6.309],[5.0156,6.2924],[5.0026,6.294],[4.9508,6.3635],[4.9234,6.4511],[4.916,6.4566],[4.9058,6.4565],[4.8549,6.4313],[4.8316,6.458],[4.8278,6.4698],[4.8397,6.5005],[4.8682,6.5367],[4.8659,6.6053],[4.8817,6.6465],[4.9272,6.6628],[4.9807,6.6582],[5.009,6.6472],[5.0187,6.6511],[5.0334,6.6789],[5.0729,6.7121],[5.0888,6.7189],[5.1056,6.7125],[5.1223,6.6987],[5.1124,6.6562],[5.1125,6.6267],[5.1281,6.5882],[5.1406,6.5742],[5.1621,6.562],[5.1642,6.5545],[5.1504,6.5117],[5.1534,6.498],[5.1028,6.4414],[5.1076,6.435],[5.1037,6.4213],[5.1095,6.4138],[5.1037,6.4022],[5.0757,6.3773],[5.0491,6.3819]]]}},{"id":"12","type":"Feature","properties":{"id":"NG029_29013","name":"Odigbo","pop":578688,"density":320.1,"hf":80,"hf10k":1.38,"hf2":1,"hf3":0,"u15":38.8,"disp":363,"area":1807.6},"geometry":{"type":"Polygon","coordinates":[[[4.5553,6.6236],[4.5121,6.5541],[4.4966,6.5051],[4.4788,6.5354],[4.4543,6.6073],[4.4265,6.6127],[4.3902,6.6282],[4.38,6.6392],[4.3761,6.6632],[4.389,6.6744],[4.3897,6.7159],[4.4146,6.7417],[4.4219,6.762],[4.4801,6.8039],[4.5374,6.8331],[4.5474,6.845],[4.629,6.8696],[4.6865,6.8699],[4.7198,6.8886],[4.7878,6.9146],[4.8372,6.9437],[4.8761,6.9568],[4.9113,6.958],[4.9881,6.8987],[5.0021,6.8153],[5.0022,6.7913],[5.0171,6.7739],[5.0469,6.7574],[5.0535,6.7344],[5.0785,6.715],[5.0334,6.6789],[5.0187,6.6511],[5.009,6.6472],[4.9807,6.6582],[4.9272,6.6628],[4.9161,6.6599],[4.8817,6.6465],[4.8768,6.6404],[4.8659,6.6053],[4.868,6.5865],[4.8355,6.5891],[4.8114,6.5844],[4.7479,6.668],[4.7329,6.7067],[4.7132,6.7334],[4.6882,6.7305],[4.6381,6.7385],[4.6252,6.72],[4.6115,6.6811],[4.5959,6.6589],[4.5825,6.6422],[4.5673,6.6366],[4.5553,6.6236]]]}},{"id":"13","type":"Feature","properties":{"id":"NG029_29014","name":"Okitipupa","pop":368984,"density":461.1,"hf":58,"hf10k":1.57,"hf2":0,"hf3":0,"u15":37.6,"disp":0,"area":800.2},"geometry":{"type":"Polygon","coordinates":[[[4.8682,6.5367],[4.836,6.494],[4.8278,6.4671],[4.8549,6.4313],[4.8355,6.4146],[4.7522,6.3938],[4.717,6.3918],[4.691,6.4027],[4.6584,6.4275],[4.6387,6.4597],[4.6266,6.4679],[4.6182,6.4845],[4.6052,6.4922],[4.6042,6.5038],[4.5882,6.5324],[4.5899,6.5674],[4.6008,6.6183],[4.5923,6.6367],[4.5825,6.6422],[4.6115,6.6811],[4.6335,6.7367],[4.6882,6.7305],[4.7132,6.7334],[4.7329,6.7067],[4.7479,6.668],[4.8114,6.5844],[4.8355,6.5891],[4.868,6.5865],[4.8682,6.5367]]]}},{"id":"14","type":"Feature","properties":{"id":"NG029_29015","name":"Ondo East","pop":66502,"density":209.1,"hf":18,"hf10k":2.71,"hf2":0,"hf3":0,"u15":37.3,"disp":0,"area":318.1},"geometry":{"type":"Polygon","coordinates":[[[4.9895,6.9002],[4.9113,6.958],[4.917,7.0029],[4.9126,7.0036],[4.9262,7.0636],[4.9241,7.0826],[4.9154,7.0911],[4.9183,7.0934],[4.8799,7.1037],[4.8686,7.1342],[4.8771,7.187],[4.9685,7.191],[5.0033,7.2002],[5.0072,7.1602],[5.0055,7.126],[5.001,7.1158],[5.0042,7.1053],[4.9932,7.0849],[4.9923,7.0637],[5.0067,6.9797],[4.9895,6.9002]]]}},{"id":"15","type":"Feature","properties":{"id":"NG029_29016","name":"Ondo West","pop":436371,"density":538.8,"hf":56,"hf10k":1.28,"hf2":1,"hf3":2,"u15":37.3,"disp":0,"area":809.9},"geometry":{"type":"Polygon","coordinates":[[[4.7878,6.9146],[4.6837,6.869],[4.629,6.8696],[4.5474,6.845],[4.5575,6.8895],[4.5562,6.9588],[4.5616,6.9883],[4.5726,7.005],[4.6096,7.0311],[4.6167,7.0847],[4.7218,7.0991],[4.8167,7.1002],[4.821,7.1038],[4.8262,7.0995],[4.8437,7.1041],[4.8564,7.0991],[4.8799,7.1037],[4.9183,7.0934],[4.9154,7.0911],[4.9241,7.0826],[4.9262,7.0636],[4.9126,7.0036],[4.917,7.0029],[4.9113,6.958],[4.8761,6.9568],[4.8372,6.9437],[4.7878,6.9146]]]}},{"id":"16","type":"Feature","properties":{"id":"NG029_29017","name":"Ose","pop":164602,"density":112.6,"hf":37,"hf10k":2.25,"hf2":2,"hf3":0,"u15":36.5,"disp":0,"area":1462.4},"geometry":{"type":"Polygon","coordinates":[[[5.6648,6.7289],[5.6404,6.7469],[5.6293,6.7459],[5.6052,6.7291],[5.5822,6.7041],[5.5766,6.704],[5.5617,6.7298],[5.5614,6.7723],[5.5458,6.8043],[5.5435,6.8248],[5.549,6.8331],[5.5712,6.8453],[5.5702,6.8693],[5.5655,6.876],[5.5765,6.9007],[5.5789,6.97],[5.5871,6.9912],[5.6223,7.0025],[5.637,7.0146],[5.6414,7.0571],[5.6515,7.0756],[5.6932,7.0832],[5.6997,7.0888],[5.6977,7.1054],[5.6875,7.1183],[5.6939,7.1303],[5.7613,7.1704],[5.7576,7.1824],[5.7269,7.1942],[5.7156,7.221],[5.697,7.2375],[5.6754,7.2789],[5.6697,7.3001],[5.7031,7.3058],[5.7567,7.3412],[5.7872,7.3534],[5.8204,7.3859],[5.838,7.3961],[5.8658,7.3908],[5.8816,7.3844],[5.9003,7.3605],[5.9504,7.3445],[5.9175,7.3337],[5.9167,7.3156],[5.9246,7.2992],[5.8965,7.2581],[5.8973,7.2312],[5.9035,7.2172],[5.8843,7.1999],[5.8837,7.1929],[5.8939,7.1829],[5.8823,7.176],[5.873,7.1626],[5.8628,7.1283],[5.8426,7.118],[5.843,7.1098],[5.8549,7.0963],[5.8237,7.0814],[5.7926,7.0217],[5.7938,7.0053],[5.7856,6.9683],[5.7998,6.9213],[5.7879,6.8945],[5.7871,6.8714],[5.7697,6.8399],[5.7781,6.8178],[5.7708,6.7965],[5.7579,6.7844],[5.7265,6.7695],[5.7026,6.7361],[5.6648,6.7289]]]}},{"id":"17","type":"Feature","properties":{"id":"NG029_29018","name":"Owo","pop":387189,"density":378.0,"hf":56,"hf10k":1.45,"hf2":1,"hf3":1,"u15":36.5,"disp":0,"area":1024.3},"geometry":{"type":"Polygon","coordinates":[[[5.7228,7.2005],[5.7343,7.1887],[5.7576,7.1824],[5.7613,7.1704],[5.6893,7.1248],[5.6875,7.1183],[5.6977,7.1054],[5.6997,7.0888],[5.6932,7.0832],[5.6515,7.0756],[5.6414,7.0571],[5.637,7.0146],[5.6223,7.0025],[5.5917,6.995],[5.5843,6.9866],[5.5789,6.97],[5.5765,6.9007],[5.5655,6.876],[5.5552,6.883],[5.5371,6.8848],[5.53,6.9263],[5.4785,7.0165],[5.4783,7.046],[5.4497,7.0648],[5.4873,7.0932],[5.49,7.1061],[5.4668,7.1171],[5.4334,7.116],[5.4278,7.1206],[5.4192,7.1701],[5.4245,7.2083],[5.4161,7.2221],[5.4188,7.2498],[5.3882,7.2832],[5.4046,7.2903],[5.4732,7.3018],[5.5044,7.3162],[5.6558,7.3065],[5.6697,7.3001],[5.6754,7.2789],[5.697,7.2375],[5.7156,7.221],[5.7228,7.2005]]]}}]}