{"type":"FeatureCollection","features":[{"id":"0","type":"Feature","properties":{"id":"NG030_30003","name":"Atakunmosa East","pop":66619,"density":187.3,"hf":50,"hf10k":7.51,"hf2":0,"hf3":0,"u15":36.6,"disp":0,"area":355.7},"geometry":{"type":"Polygon","coordinates":[[[4.8449,7.3754],[4.7547,7.3611],[4.7455,7.3138],[4.7338,7.3073],[4.7122,7.3157],[4.6997,7.3329],[4.6823,7.3441],[4.6879,7.3518],[4.6825,7.3698],[4.6647,7.3846],[4.6702,7.4042],[4.6457,7.4452],[4.6513,7.4444],[4.6513,7.4568],[4.6737,7.4678],[4.6779,7.466],[4.6798,7.471],[4.6917,7.4644],[4.7087,7.4653],[4.7093,7.4877],[4.7166,7.5044],[4.7657,7.5042],[4.7785,7.5227],[4.7825,7.557],[4.7953,7.5588],[4.8024,7.5659],[4.8209,7.5678],[4.8435,7.528],[4.837,7.5221],[4.8518,7.4862],[4.8388,7.4581],[4.8425,7.4442],[4.8271,7.4],[4.8472,7.3826],[4.8449,7.3754]]]}},{"id":"1","type":"Feature","properties":{"id":"NG030_30004","name":"Atakunmosa West","pop":92996,"density":234.6,"hf":45,"hf10k":4.84,"hf2":0,"hf3":0,"u15":35.8,"disp":0,"area":396.4},"geometry":{"type":"Polygon","coordinates":[[[4.7093,7.4877],[4.7087,7.4653],[4.6917,7.4644],[4.6798,7.471],[4.6779,7.466],[4.6737,7.4678],[4.6513,7.4568],[4.6513,7.4444],[4.638,7.4442],[4.6419,7.4797],[4.6264,7.5018],[4.6135,7.5057],[4.6008,7.5192],[4.5865,7.5426],[4.5815,7.5516],[4.5861,7.5737],[4.5456,7.5956],[4.5272,7.614],[4.5347,7.6246],[4.5338,7.6414],[4.5399,7.6571],[4.5524,7.6566],[4.5636,7.6684],[4.5799,7.7002],[4.5781,7.7146],[4.5997,7.73],[4.6011,7.736],[4.5877,7.7405],[4.5969,7.7453],[4.5967,7.7551],[4.6103,7.7523],[4.6163,7.7438],[4.6364,7.7425],[4.6463,7.7365],[4.6363,7.7069],[4.6407,7.7088],[4.6629,7.6886],[4.6537,7.6824],[4.669,7.6588],[4.6551,7.6559],[4.6605,7.6388],[4.6813,7.6183],[4.678,7.6152],[4.6849,7.6059],[4.7044,7.5953],[4.7126,7.5837],[4.721,7.5635],[4.7236,7.5381],[4.7436,7.5345],[4.7617,7.553],[4.7825,7.557],[4.7785,7.5227],[4.7657,7.5042],[4.7166,7.5044],[4.7093,7.4877]]]}},{"id":"2","type":"Feature","properties":{"id":"NG030_30001","name":"Ayedade","pop":251334,"density":253.5,"hf":77,"hf10k":3.06,"hf2":0,"hf3":0,"u15":35.8,"disp":0,"area":991.5},"geometry":{"type":"Polygon","coordinates":[[[4.3977,7.2506],[4.412,7.2013],[4.4239,7.1908],[4.4163,7.1652],[4.4187,7.1589],[4.4103,7.1277],[4.3852,7.1172],[4.3769,7.0957],[4.3507,7.0657],[4.2982,7.0906],[4.2848,7.0918],[4.2615,7.0837],[4.2188,7.0471],[4.2008,7.0474],[4.186,7.0854],[4.1689,7.1741],[4.0884,7.1334],[4.0845,7.1399],[4.0764,7.1349],[4.0711,7.139],[4.0726,7.1468],[4.0855,7.1512],[4.072,7.1628],[4.082,7.2009],[4.0901,7.1979],[4.1014,7.2102],[4.1154,7.2123],[4.1458,7.2023],[4.18,7.219],[4.2184,7.2264],[4.2607,7.2416],[4.2885,7.2923],[4.2879,7.3013],[4.304,7.3075],[4.3209,7.3536],[4.3141,7.3665],[4.3203,7.3804],[4.3041,7.412],[4.307,7.4245],[4.2931,7.432],[4.3054,7.461],[4.2944,7.4716],[4.2944,7.4822],[4.2803,7.4894],[4.2708,7.5029],[4.2757,7.5195],[4.2939,7.5422],[4.299,7.5577],[4.3323,7.5674],[4.347,7.5838],[4.3359,7.6069],[4.3123,7.6089],[4.305,7.6198],[4.3296,7.6351],[4.3713,7.5968],[4.3969,7.5924],[4.4136,7.6135],[4.4297,7.6107],[4.4394,7.6187],[4.486,7.6222],[4.4922,7.6101],[4.5088,7.5991],[4.4841,7.5819],[4.4774,7.5659],[4.4579,7.5836],[4.4387,7.5818],[4.4133,7.516],[4.3868,7.4908],[4.3893,7.4491],[4.3776,7.4437],[4.3719,7.4215],[4.381,7.3948],[4.3745,7.3751],[4.3821,7.3614],[4.3992,7.3468],[4.3987,7.3116],[4.407,7.2998],[4.3962,7.2823],[4.4073,7.2635],[4.3977,7.2506]]]}},{"id":"3","type":"Feature","properties":{"id":"NG030_30002","name":"Ayedire","pop":101448,"density":376.4,"hf":30,"hf10k":2.96,"hf2":0,"hf3":0,"u15":35.8,"disp":0,"area":269.5},"geometry":{"type":"Polygon","coordinates":[[[4.3359,7.6069],[4.347,7.5838],[4.3323,7.5674],[4.299,7.5577],[4.2939,7.5422],[4.2736,7.5147],[4.2725,7.4969],[4.2944,7.4822],[4.2944,7.4716],[4.2826,7.4775],[4.2505,7.4786],[4.2001,7.494],[4.1882,7.4904],[4.1729,7.4936],[4.149,7.4775],[4.1554,7.5092],[4.1543,7.5654],[4.1442,7.5791],[4.1416,7.5932],[4.1449,7.5969],[4.1584,7.6044],[4.17,7.5984],[4.177,7.6102],[4.183,7.6082],[4.1865,7.6179],[4.2129,7.6099],[4.2316,7.6409],[4.2479,7.6408],[4.2854,7.6562],[4.2919,7.6519],[4.2995,7.6537],[4.302,7.6481],[4.2939,7.6386],[4.3123,7.6089],[4.3359,7.6069]]]}},{"id":"4","type":"Feature","properties":{"id":"NG030_30005","name":"Boluwaduro","pop":67176,"density":397.5,"hf":26,"hf10k":3.87,"hf2":0,"hf3":0,"u15":35.8,"disp":0,"area":169.0},"geometry":{"type":"Polygon","coordinates":[[[4.8451,7.8744],[4.8436,7.8632],[4.8158,7.8503],[4.8033,7.8661],[4.7707,7.8623],[4.7622,7.8784],[4.7446,7.8852],[4.7456,7.923],[4.7544,7.9332],[4.7449,7.9543],[4.7753,7.9683],[4.7837,7.9574],[4.8048,7.9796],[4.8095,7.9968],[4.8265,7.9829],[4.846,7.9866],[4.862,7.9608],[4.8795,7.955],[4.8819,7.9442],[4.8912,7.9409],[4.8936,7.9345],[4.8722,7.8837],[4.8451,7.8744]]]}},{"id":"5","type":"Feature","properties":{"id":"NG030_30006","name":"Boripe","pop":207495,"density":2577.6,"hf":57,"hf10k":2.75,"hf2":1,"hf3":1,"u15":35.8,"disp":0,"area":80.5},"geometry":{"type":"Polygon","coordinates":[[[4.7446,7.8852],[4.7279,7.8746],[4.721,7.8771],[4.721,7.8599],[4.7159,7.8537],[4.719,7.8373],[4.7004,7.8381],[4.6933,7.8522],[4.6719,7.8591],[4.661,7.8753],[4.6746,7.8887],[4.6592,7.9094],[4.6747,7.9142],[4.6937,7.9303],[4.6916,7.9475],[4.7171,7.9544],[4.7479,7.9498],[4.7544,7.9332],[4.7456,7.923],[4.7446,7.8852]]]}},{"id":"6","type":"Feature","properties":{"id":"NG030_30007","name":"Ede North","pop":224022,"density":2302.4,"hf":50,"hf10k":2.23,"hf2":2,"hf3":0,"u15":35.8,"disp":0,"area":97.3},"geometry":{"type":"Polygon","coordinates":[[[4.4811,7.746],[4.5151,7.7213],[4.5548,7.7083],[4.5578,7.714],[4.5781,7.7146],[4.5799,7.7002],[4.5636,7.6684],[4.5524,7.6566],[4.5399,7.6571],[4.5189,7.681],[4.4993,7.6933],[4.4757,7.69],[4.4468,7.7119],[4.4416,7.7254],[4.429,7.7225],[4.3992,7.7328],[4.3952,7.7304],[4.3911,7.7407],[4.4076,7.7514],[4.4172,7.7705],[4.4268,7.7603],[4.4318,7.7677],[4.4501,7.7758],[4.4557,7.7536],[4.4811,7.746]]]}},{"id":"7","type":"Feature","properties":{"id":"NG030_30008","name":"Ede South","pop":106365,"density":489.9,"hf":36,"hf10k":3.38,"hf2":2,"hf3":0,"u15":35.8,"disp":0,"area":217.1},"geometry":{"type":"Polygon","coordinates":[[[4.486,7.6222],[4.4394,7.6187],[4.4297,7.6107],[4.4108,7.6125],[4.3969,7.5924],[4.3713,7.5968],[4.3296,7.6351],[4.3371,7.6684],[4.3821,7.7006],[4.3896,7.7015],[4.3952,7.7304],[4.3992,7.7328],[4.429,7.7225],[4.4416,7.7254],[4.4468,7.7119],[4.4757,7.69],[4.4993,7.6933],[4.5189,7.681],[4.5399,7.6571],[4.5338,7.6414],[4.5347,7.6246],[4.5088,7.5991],[4.4922,7.6101],[4.486,7.6222]]]}},{"id":"8","type":"Feature","properties":{"id":"NG030_30009","name":"Egbedore","pop":254235,"density":884.3,"hf":75,"hf10k":2.95,"hf2":1,"hf3":3,"u15":35.9,"disp":4914,"area":287.5},"geometry":{"type":"Polygon","coordinates":[[[4.4854,7.7553],[4.4811,7.746],[4.4557,7.7536],[4.4501,7.7758],[4.4318,7.7677],[4.4268,7.7603],[4.4172,7.7705],[4.4076,7.7514],[4.3911,7.7407],[4.3952,7.7304],[4.3896,7.7015],[4.3821,7.7006],[4.3387,7.6685],[4.3228,7.6836],[4.3204,7.7011],[4.3375,7.7248],[4.3417,7.7527],[4.3372,7.7845],[4.326,7.8064],[4.3562,7.8455],[4.3691,7.8463],[4.3743,7.8519],[4.4011,7.8984],[4.4225,7.8884],[4.4476,7.8843],[4.4487,7.8687],[4.437,7.853],[4.4553,7.828],[4.4726,7.827],[4.4792,7.8374],[4.486,7.827],[4.5022,7.8313],[4.5202,7.8561],[4.5356,7.8601],[4.5493,7.8316],[4.5496,7.8201],[4.5458,7.8089],[4.5336,7.8065],[4.5368,7.7953],[4.5266,7.7943],[4.5323,7.775],[4.5231,7.7707],[4.5172,7.7761],[4.5061,7.7747],[4.5007,7.7636],[4.4854,7.7553]]]}},{"id":"9","type":"Feature","properties":{"id":"NG030_30010","name":"Ejigbo","pop":281624,"density":767.8,"hf":60,"hf10k":2.13,"hf2":1,"hf3":0,"u15":35.9,"disp":0,"area":366.8},"geometry":{"type":"Polygon","coordinates":[[[4.3417,7.7527],[4.3375,7.7248],[4.3204,7.7011],[4.3113,7.71],[4.3049,7.7378],[4.2977,7.743],[4.293,7.7595],[4.2993,7.7844],[4.2926,7.7895],[4.2786,7.7834],[4.274,7.788],[4.2693,7.8056],[4.2575,7.8165],[4.2499,7.8354],[4.2397,7.8122],[4.1873,7.8117],[4.1337,7.7935],[4.1304,7.8178],[4.1148,7.8142],[4.0751,7.82],[4.0762,7.8249],[4.0911,7.8502],[4.0936,7.8636],[4.0991,7.8637],[4.1166,7.8492],[4.1307,7.8489],[4.1471,7.8496],[4.2028,7.8687],[4.1913,7.9102],[4.234,7.9312],[4.2356,7.9564],[4.2508,7.9655],[4.2763,7.9712],[4.3071,7.9445],[4.3282,7.935],[4.3602,7.8828],[4.3659,7.8515],[4.3711,7.8487],[4.3562,7.8455],[4.326,7.8064],[4.3372,7.7845],[4.3417,7.7527]]]}},{"id":"10","type":"Feature","properties":{"id":"NG030_30011","name":"Ife Central","pop":278491,"density":1944.8,"hf":59,"hf10k":2.12,"hf2":2,"hf3":3,"u15":35.8,"disp":0,"area":143.2},"geometry":{"type":"Polygon","coordinates":[[[4.5634,7.4816],[4.5669,7.4781],[4.564,7.4709],[4.5574,7.4703],[4.5478,7.4865],[4.55,7.4939],[4.5396,7.498],[4.532,7.4897],[4.5202,7.4962],[4.4901,7.4932],[4.4892,7.4822],[4.4756,7.4758],[4.4687,7.4875],[4.4742,7.5047],[4.4893,7.5146],[4.4803,7.5253],[4.4894,7.5339],[4.4878,7.5556],[4.4812,7.5568],[4.4774,7.5659],[4.4841,7.5819],[4.5272,7.614],[4.5456,7.5956],[4.5861,7.5737],[4.5815,7.5516],[4.6135,7.5057],[4.6074,7.4922],[4.5953,7.4883],[4.589,7.4923],[4.5852,7.4877],[4.5797,7.4919],[4.5634,7.4816]]]}},{"id":"11","type":"Feature","properties":{"id":"NG030_30012","name":"Ife East","pop":413985,"density":1523.1,"hf":70,"hf10k":1.69,"hf2":1,"hf3":0,"u15":35.8,"disp":0,"area":271.8},"geometry":{"type":"Polygon","coordinates":[[[4.5673,7.2705],[4.5441,7.2888],[4.5504,7.3084],[4.5465,7.3171],[4.5504,7.3185],[4.5129,7.3534],[4.5168,7.3751],[4.544,7.393],[4.5449,7.4202],[4.5093,7.4163],[4.503,7.4398],[4.488,7.4514],[4.4662,7.4589],[4.4756,7.4758],[4.4892,7.4822],[4.4901,7.4932],[4.4965,7.4952],[4.5202,7.4962],[4.532,7.4897],[4.5396,7.498],[4.5473,7.4963],[4.5478,7.4865],[4.5551,7.4798],[4.5522,7.4743],[4.558,7.4703],[4.564,7.4709],[4.5669,7.4781],[4.5637,7.4834],[4.5706,7.4895],[4.5797,7.4919],[4.5852,7.4877],[4.589,7.4923],[4.5953,7.4883],[4.6074,7.4922],[4.6135,7.5057],[4.6264,7.5018],[4.6419,7.4797],[4.638,7.4442],[4.6457,7.4452],[4.6488,7.4366],[4.6543,7.4349],[4.6702,7.4042],[4.6601,7.4107],[4.6326,7.3963],[4.626,7.4088],[4.6146,7.4103],[4.605,7.399],[4.6085,7.3925],[4.6218,7.3903],[4.6187,7.3853],[4.5906,7.3855],[4.6235,7.3215],[4.5938,7.3037],[4.5989,7.2871],[4.5955,7.2736],[4.5673,7.2705]]]}},{"id":"12","type":"Feature","properties":{"id":"NG030_30013","name":"Ife North","pop":174654,"density":403.1,"hf":41,"hf10k":2.35,"hf2":1,"hf3":1,"u15":35.8,"disp":0,"area":433.3},"geometry":{"type":"Polygon","coordinates":[[[4.5187,7.2498],[4.5134,7.246],[4.4701,7.2485],[4.4468,7.2288],[4.4329,7.196],[4.4239,7.1908],[4.412,7.2013],[4.4074,7.2266],[4.3978,7.2467],[4.4073,7.2635],[4.3962,7.2823],[4.407,7.2998],[4.3987,7.3116],[4.3992,7.3468],[4.3821,7.3614],[4.3745,7.3751],[4.381,7.3948],[4.3719,7.4215],[4.3776,7.4437],[4.3893,7.4491],[4.3868,7.4908],[4.4133,7.516],[4.4387,7.5818],[4.4579,7.5836],[4.489,7.5509],[4.4894,7.5339],[4.4803,7.5253],[4.4893,7.5146],[4.4742,7.5047],[4.4689,7.4955],[4.4756,7.4758],[4.4662,7.4589],[4.488,7.4514],[4.503,7.4398],[4.5093,7.4163],[4.5449,7.4202],[4.5475,7.4136],[4.544,7.393],[4.5168,7.3751],[4.5129,7.3534],[4.4975,7.3451],[4.4905,7.314],[4.4947,7.2695],[4.5187,7.2498]]]}},{"id":"13","type":"Feature","properties":{"id":"NG030_30014","name":"Ife South","pop":179728,"density":171.9,"hf":80,"hf10k":4.45,"hf2":1,"hf3":0,"u15":35.8,"disp":0,"area":1045.8},"geometry":{"type":"Polygon","coordinates":[[[4.5772,7.0234],[4.5163,7.0226],[4.4889,6.9918],[4.4634,6.9933],[4.4542,7.0009],[4.4382,7.0047],[4.4245,7.0024],[4.4005,6.9807],[4.3904,6.9809],[4.3743,6.9989],[4.371,7.018],[4.3787,7.0261],[4.3712,7.0325],[4.3703,7.0562],[4.3507,7.0657],[4.3769,7.0957],[4.3852,7.1172],[4.4103,7.1277],[4.4239,7.1908],[4.4329,7.196],[4.452,7.2346],[4.4701,7.2485],[4.5134,7.246],[4.5187,7.2498],[4.4947,7.2695],[4.4905,7.314],[4.4975,7.3451],[4.5129,7.3534],[4.5504,7.3185],[4.5465,7.3171],[4.5504,7.3084],[4.5441,7.2888],[4.5673,7.2705],[4.5955,7.2736],[4.5989,7.2871],[4.5938,7.3037],[4.6235,7.3215],[4.5906,7.3855],[4.6187,7.3853],[4.6218,7.3903],[4.6085,7.3925],[4.605,7.399],[4.6146,7.4103],[4.626,7.4088],[4.6326,7.3963],[4.6601,7.4107],[4.6702,7.4042],[4.6647,7.3846],[4.6832,7.3678],[4.6879,7.3518],[4.6823,7.3441],[4.6997,7.3329],[4.7122,7.3157],[4.7338,7.3073],[4.7455,7.3138],[4.7347,7.284],[4.7467,7.223],[4.7366,7.2072],[4.7209,7.1951],[4.7154,7.172],[4.709,7.1646],[4.7034,7.1618],[4.6839,7.1681],[4.6719,7.1662],[4.6682,7.1588],[4.673,7.1404],[4.6268,7.1041],[4.6139,7.08],[4.6096,7.0311],[4.5772,7.0234]]]}},{"id":"14","type":"Feature","properties":{"id":"NG030_30015","name":"Ifedayo","pop":36579,"density":328.1,"hf":28,"hf10k":7.65,"hf2":0,"hf3":0,"u15":36.7,"disp":0,"area":111.5},"geometry":{"type":"Polygon","coordinates":[[[5.0003,7.9448],[4.9905,7.9312],[4.9463,7.9018],[4.9295,7.9239],[4.9317,7.9315],[4.9229,7.9515],[4.9266,7.9596],[4.9396,7.9675],[4.9376,7.9823],[4.9709,7.981],[4.9986,8.0088],[5.002,8.0189],[4.999,8.0303],[5.0054,8.0433],[5.0397,8.0719],[5.0534,8.0578],[5.0565,8.0311],[5.0355,8.0052],[5.0313,7.9769],[5.0165,7.9552],[5.0003,7.9448]]]}},{"id":"15","type":"Feature","properties":{"id":"NG030_30016","name":"Ifelodun","pop":179977,"density":1147.8,"hf":46,"hf10k":2.56,"hf2":0,"hf3":0,"u15":35.8,"disp":0,"area":156.8},"geometry":{"type":"Polygon","coordinates":[[[4.6916,7.9475],[4.6937,7.9303],[4.6747,7.9142],[4.6592,7.9094],[4.6746,7.8887],[4.661,7.8753],[4.6719,7.8591],[4.664,7.8411],[4.6482,7.8428],[4.6341,7.861],[4.6235,7.8557],[4.604,7.8877],[4.6237,7.9112],[4.6199,7.9179],[4.6096,7.9244],[4.5827,7.9279],[4.5687,7.9378],[4.5675,7.9436],[4.5796,7.972],[4.5983,7.977],[4.6119,7.9679],[4.6458,7.9583],[4.6824,7.9634],[4.6946,7.9742],[4.7008,8.0069],[4.7171,8.0067],[4.7415,7.9967],[4.7508,8.012],[4.7612,8.0161],[4.7753,7.9683],[4.7449,7.9543],[4.7479,7.9498],[4.7171,7.9544],[4.6916,7.9475]]]}},{"id":"16","type":"Feature","properties":{"id":"NG030_30017","name":"Ila","pop":156841,"density":552.5,"hf":59,"hf10k":3.76,"hf2":1,"hf3":1,"u15":35.9,"disp":0,"area":283.9},"geometry":{"type":"Polygon","coordinates":[[[4.9238,7.9567],[4.9317,7.9315],[4.9295,7.9239],[4.9463,7.9018],[4.9273,7.8804],[4.9219,7.8619],[4.9078,7.8656],[4.8962,7.8554],[4.8655,7.8417],[4.8436,7.8632],[4.8451,7.8744],[4.8722,7.8837],[4.8936,7.9345],[4.8912,7.9409],[4.8819,7.9442],[4.8795,7.955],[4.862,7.9608],[4.846,7.9866],[4.8265,7.9829],[4.8095,7.9968],[4.8088,8.0617],[4.8186,8.0536],[4.8525,8.0681],[4.8575,8.0726],[4.8541,8.0955],[4.8872,8.0909],[4.9269,8.0799],[4.9497,8.0555],[4.9608,8.0524],[4.9669,8.0467],[4.9692,8.0242],[4.9732,8.0214],[4.9834,8.0323],[4.9999,8.0297],[4.9986,8.0088],[4.9709,7.981],[4.9376,7.9823],[4.9396,7.9675],[4.9238,7.9567]]]}},{"id":"17","type":"Feature","properties":{"id":"NG030_30018","name":"Ilesha East","pop":153551,"density":1804.4,"hf":32,"hf10k":2.08,"hf2":0,"hf3":0,"u15":35.8,"disp":0,"area":85.1},"geometry":{"type":"Polygon","coordinates":[[[4.7083,7.5873],[4.7215,7.5939],[4.7284,7.6048],[4.742,7.6095],[4.7459,7.6232],[4.7629,7.6214],[4.7748,7.6365],[4.7927,7.6418],[4.7917,7.6328],[4.809,7.6263],[4.8137,7.6165],[4.8175,7.6029],[4.8131,7.5746],[4.8209,7.5678],[4.7617,7.553],[4.7436,7.5345],[4.7311,7.5341],[4.7236,7.5381],[4.7191,7.5714],[4.7083,7.5873]]]}},{"id":"18","type":"Feature","properties":{"id":"NG030_30019","name":"Ilesha West","pop":354804,"density":3541.0,"hf":75,"hf10k":2.11,"hf2":2,"hf3":3,"u15":35.8,"disp":0,"area":100.2},"geometry":{"type":"Polygon","coordinates":[[[4.7643,7.6701],[4.7794,7.678],[4.7957,7.67],[4.7829,7.6369],[4.7748,7.6365],[4.7629,7.6214],[4.7459,7.6232],[4.742,7.6095],[4.7284,7.6048],[4.7215,7.5939],[4.7083,7.5873],[4.7044,7.5953],[4.6849,7.6059],[4.678,7.6152],[4.6813,7.6183],[4.6622,7.6345],[4.6551,7.6559],[4.669,7.6588],[4.6537,7.6824],[4.6663,7.6895],[4.6973,7.6823],[4.7122,7.6715],[4.7177,7.6756],[4.7346,7.6707],[4.748,7.6789],[4.7643,7.6701]]]}},{"id":"19","type":"Feature","properties":{"id":"NG030_30020","name":"Irepodun","pop":74877,"density":991.7,"hf":34,"hf10k":4.54,"hf2":0,"hf3":0,"u15":35.8,"disp":0,"area":75.5},"geometry":{"type":"Polygon","coordinates":[[[4.5326,7.8715],[4.5356,7.8601],[4.5202,7.8561],[4.5022,7.8313],[4.4838,7.8277],[4.4792,7.8374],[4.4828,7.8674],[4.4964,7.8805],[4.4968,7.8975],[4.5236,7.9347],[4.5222,7.9556],[4.5531,7.9753],[4.5768,7.9641],[4.564,7.9237],[4.5676,7.9112],[4.5563,7.908],[4.5326,7.8715]]]}},{"id":"20","type":"Feature","properties":{"id":"NG030_30021","name":"Irewole","pop":181160,"density":634.3,"hf":42,"hf10k":2.32,"hf2":2,"hf3":0,"u15":35.8,"disp":0,"area":285.6},"geometry":{"type":"Polygon","coordinates":[[[4.2492,7.3413],[4.2289,7.3546],[4.2268,7.364],[4.2135,7.3561],[4.1983,7.364],[4.1888,7.3583],[4.1718,7.363],[4.1643,7.3565],[4.1577,7.3629],[4.1455,7.398],[4.1353,7.4031],[4.1414,7.4397],[4.137,7.4462],[4.1355,7.4708],[4.1729,7.4936],[4.1882,7.4904],[4.2001,7.494],[4.2505,7.4786],[4.2826,7.4775],[4.3054,7.461],[4.2931,7.432],[4.307,7.4245],[4.3041,7.412],[4.3191,7.3861],[4.3141,7.3665],[4.3209,7.3536],[4.304,7.3075],[4.2879,7.3013],[4.2492,7.3413]]]}},{"id":"21","type":"Feature","properties":{"id":"NG030_30022","name":"Isokan","pop":155877,"density":586.9,"hf":40,"hf10k":2.57,"hf2":1,"hf3":0,"u15":35.8,"disp":0,"area":265.6},"geometry":{"type":"Polygon","coordinates":[[[4.23,7.2301],[4.18,7.219],[4.1458,7.2023],[4.1154,7.2123],[4.1014,7.2102],[4.0901,7.1979],[4.082,7.2009],[4.0942,7.2282],[4.1026,7.2331],[4.1112,7.2512],[4.1254,7.2578],[4.1313,7.2995],[4.1109,7.3269],[4.1205,7.3353],[4.1192,7.3485],[4.1317,7.3583],[4.1353,7.4031],[4.1455,7.398],[4.153,7.3701],[4.1643,7.3565],[4.1718,7.363],[4.1888,7.3583],[4.1983,7.364],[4.2135,7.3561],[4.2268,7.364],[4.2289,7.3546],[4.2492,7.3446],[4.2879,7.3013],[4.2885,7.2923],[4.2663,7.2459],[4.23,7.2301]]]}},{"id":"22","type":"Feature","properties":{"id":"NG030_30023","name":"Iwo","pop":348050,"density":1641.0,"hf":76,"hf10k":2.18,"hf2":1,"hf3":0,"u15":35.8,"disp":0,"area":212.1},"geometry":{"type":"Polygon","coordinates":[[[4.177,7.6102],[4.17,7.5984],[4.1584,7.6044],[4.1416,7.5932],[4.1217,7.6102],[4.0934,7.6215],[4.0687,7.6659],[4.0529,7.675],[4.0572,7.6795],[4.0742,7.6816],[4.0782,7.7081],[4.0742,7.7359],[4.0618,7.7501],[4.0929,7.7573],[4.1288,7.7382],[4.1391,7.7508],[4.1439,7.7508],[4.1578,7.7383],[4.1575,7.7197],[4.1734,7.7166],[4.1801,7.6971],[4.1893,7.6962],[4.2063,7.6843],[4.2039,7.674],[4.2222,7.6609],[4.2444,7.6658],[4.2479,7.6408],[4.2316,7.6409],[4.2129,7.6099],[4.1918,7.6183],[4.1862,7.6177],[4.183,7.6082],[4.177,7.6102]]]}},{"id":"23","type":"Feature","properties":{"id":"NG030_30024","name":"Obokun","pop":176955,"density":346.8,"hf":65,"hf10k":3.67,"hf2":0,"hf3":0,"u15":35.8,"disp":0,"area":510.3},"geometry":{"type":"Polygon","coordinates":[[[4.7697,7.7329],[4.7726,7.7065],[4.7469,7.6957],[4.748,7.6789],[4.7346,7.6707],[4.7177,7.6756],[4.7122,7.6715],[4.6973,7.6823],[4.6629,7.6886],[4.6407,7.7088],[4.6363,7.7069],[4.6463,7.7365],[4.6141,7.746],[4.6063,7.7668],[4.6066,7.7873],[4.6371,7.7975],[4.6407,7.791],[4.6602,7.7844],[4.6604,7.8158],[4.6676,7.8295],[4.664,7.8411],[4.6719,7.8591],[4.6933,7.8522],[4.7004,7.8381],[4.719,7.8373],[4.7159,7.8537],[4.721,7.8599],[4.721,7.8771],[4.7279,7.8746],[4.7446,7.8852],[4.7622,7.8784],[4.7707,7.8623],[4.8033,7.8661],[4.8158,7.8503],[4.8436,7.8632],[4.8655,7.8417],[4.8962,7.8554],[4.9078,7.8656],[4.9219,7.8619],[4.9111,7.8501],[4.9086,7.8298],[4.9158,7.8221],[4.9143,7.783],[4.8932,7.7303],[4.8872,7.6896],[4.8012,7.7372],[4.7697,7.7329]]]}},{"id":"24","type":"Feature","properties":{"id":"NG030_30025","name":"Odo Otin","pop":191479,"density":769.9,"hf":49,"hf10k":2.56,"hf2":2,"hf3":0,"u15":37.0,"disp":0,"area":248.7},"geometry":{"type":"Polygon","coordinates":[[[4.807,8.0146],[4.8111,8.0118],[4.8048,7.9796],[4.7837,7.9574],[4.7755,7.9673],[4.7612,8.0161],[4.7508,8.012],[4.7415,7.9967],[4.7171,8.0067],[4.7008,8.0069],[4.6946,7.9742],[4.6824,7.9634],[4.6458,7.9583],[4.5941,7.9771],[4.5796,7.972],[4.5768,7.9641],[4.5531,7.9753],[4.563,8.009],[4.5607,8.054],[4.5981,8.0639],[4.6217,8.0757],[4.6339,8.0715],[4.6324,8.0612],[4.6374,8.0536],[4.6484,8.0536],[4.6656,8.0433],[4.6873,8.057],[4.7044,8.0482],[4.7117,8.0597],[4.7212,8.0642],[4.7856,8.0684],[4.8053,8.0639],[4.8088,8.0617],[4.807,8.0146]]]}},{"id":"25","type":"Feature","properties":{"id":"NG030_30026","name":"Ola Oluwa","pop":76561,"density":231.9,"hf":44,"hf10k":5.75,"hf2":0,"hf3":0,"u15":35.8,"disp":0,"area":330.2},"geometry":{"type":"Polygon","coordinates":[[[4.2854,7.6562],[4.2479,7.6408],[4.2444,7.6658],[4.2222,7.6609],[4.2039,7.674],[4.2063,7.6843],[4.1893,7.6962],[4.1801,7.6971],[4.1734,7.7166],[4.1575,7.7197],[4.1578,7.7383],[4.1439,7.7508],[4.1391,7.7508],[4.1288,7.7382],[4.0929,7.7573],[4.0618,7.7501],[4.0613,7.7543],[4.0708,7.7598],[4.0707,7.8008],[4.0751,7.82],[4.1148,7.8142],[4.1304,7.8178],[4.1337,7.7935],[4.1873,7.8117],[4.2397,7.8122],[4.2499,7.8354],[4.2575,7.8165],[4.2693,7.8056],[4.274,7.788],[4.2786,7.7834],[4.2926,7.7895],[4.2993,7.7844],[4.293,7.7595],[4.2977,7.743],[4.3049,7.7378],[4.3113,7.71],[4.3204,7.7011],[4.3228,7.6836],[4.3371,7.6684],[4.3296,7.6351],[4.3055,7.6205],[4.2939,7.6386],[4.302,7.6481],[4.2995,7.6537],[4.2919,7.6519],[4.2854,7.6562]]]}},{"id":"26","type":"Feature","properties":{"id":"NG030_30027","name":"Olorunda","pop":184298,"density":1246.9,"hf":73,"hf10k":3.96,"hf2":3,"hf3":8,"u15":35.8,"disp":0,"area":147.8},"geometry":{"type":"Polygon","coordinates":[[[4.5686,7.7972],[4.5368,7.7953],[4.5325,7.8037],[4.5377,7.8091],[4.5458,7.8089],[4.5496,7.8201],[4.5493,7.8316],[4.5326,7.8715],[4.5563,7.908],[4.5676,7.9112],[4.5634,7.9184],[4.5687,7.9378],[4.5827,7.9279],[4.6096,7.9244],[4.6199,7.9179],[4.6237,7.9112],[4.604,7.8877],[4.6235,7.8557],[4.6341,7.861],[4.6482,7.8428],[4.664,7.8411],[4.6676,7.8295],[4.6604,7.8158],[4.6602,7.7844],[4.6407,7.791],[4.6371,7.7975],[4.605,7.7858],[4.5974,7.7931],[4.5777,7.7901],[4.5686,7.7972]]]}},{"id":"27","type":"Feature","properties":{"id":"NG030_30028","name":"Oriade","pop":222684,"density":513.3,"hf":67,"hf10k":3.01,"hf2":3,"hf3":0,"u15":35.8,"disp":0,"area":433.8},"geometry":{"type":"Polygon","coordinates":[[[4.9202,7.5172],[4.9524,7.4478],[4.9848,7.4265],[4.9871,7.4192],[5.0046,7.4139],[5.0063,7.392],[4.9897,7.3776],[4.9434,7.37],[4.8784,7.3788],[4.8449,7.3754],[4.8455,7.3879],[4.8271,7.4],[4.8425,7.4442],[4.8388,7.4581],[4.8518,7.4862],[4.837,7.5221],[4.8435,7.528],[4.8363,7.5454],[4.8131,7.5746],[4.8175,7.6029],[4.809,7.6263],[4.7917,7.6328],[4.7927,7.6418],[4.7841,7.6397],[4.7957,7.67],[4.7794,7.678],[4.7643,7.6701],[4.748,7.6789],[4.7469,7.6957],[4.7726,7.7065],[4.7697,7.7329],[4.8012,7.7372],[4.8872,7.6896],[4.8639,7.6227],[4.8876,7.6046],[4.9022,7.5764],[4.9202,7.5172]]]}},{"id":"28","type":"Feature","properties":{"id":"NG030_30029","name":"Orolu","pop":64840,"density":836.6,"hf":21,"hf10k":3.24,"hf2":0,"hf3":0,"u15":35.9,"disp":0,"area":77.5},"geometry":{"type":"Polygon","coordinates":[[[4.4381,7.8485],[4.451,7.877],[4.4445,7.8874],[4.429,7.8893],[4.4391,7.9064],[4.4418,7.9289],[4.4582,7.9415],[4.4959,7.9434],[4.5066,7.9518],[4.5222,7.9556],[4.5236,7.9347],[4.4968,7.8975],[4.4964,7.8805],[4.4833,7.8688],[4.4818,7.8412],[4.4754,7.8281],[4.4553,7.828],[4.4381,7.8485]]]}},{"id":"29","type":"Feature","properties":{"id":"NG030_30030","name":"Osogbo","pop":336956,"density":3619.3,"hf":90,"hf10k":2.67,"hf2":4,"hf3":10,"u15":35.8,"disp":0,"area":93.1},"geometry":{"type":"Polygon","coordinates":[[[4.5151,7.7213],[4.4811,7.746],[4.4854,7.7553],[4.503,7.766],[4.5061,7.7747],[4.5172,7.7761],[4.5231,7.7707],[4.5323,7.775],[4.5266,7.7943],[4.5632,7.7984],[4.5777,7.7901],[4.5974,7.7931],[4.6066,7.7873],[4.6103,7.7523],[4.5967,7.7551],[4.5969,7.7453],[4.5877,7.7405],[4.6007,7.7339],[4.5903,7.722],[4.5781,7.7146],[4.5578,7.714],[4.5548,7.7083],[4.5151,7.7213]]]}}]}