{"type":"FeatureCollection","features":[{"id":"0","type":"Feature","properties":{"id":"NG033_33001","name":"Abua/Odual","pop":126874,"density":198.2,"hf":31,"hf10k":2.44,"hf2":2,"hf3":0,"u15":35.3,"disp":0,"area":640.2},"geometry":{"type":"Polygon","coordinates":[[[6.5273,4.753],[6.4785,4.7139],[6.4611,4.7133],[6.4594,4.724],[6.4459,4.73],[6.4414,4.7453],[6.4447,4.7756],[6.43,4.7659],[6.4023,4.8272],[6.4009,4.8751],[6.4256,4.9207],[6.4441,4.9343],[6.4659,4.927],[6.4871,4.9098],[6.4998,4.8845],[6.5129,4.8767],[6.5176,4.8681],[6.5351,4.871],[6.5601,4.8511],[6.5742,4.8553],[6.5795,4.8656],[6.5695,4.8895],[6.5771,4.899],[6.5614,4.9089],[6.559,4.9151],[6.5681,4.9142],[6.5676,4.9223],[6.5465,4.9342],[6.5574,4.9427],[6.5581,4.9633],[6.553,4.9725],[6.6088,4.9773],[6.6138,4.926],[6.6191,4.9164],[6.6432,4.9068],[6.6897,4.8659],[6.7257,4.8676],[6.7409,4.8252],[6.7386,4.7753],[6.7344,4.7674],[6.6983,4.7511],[6.6884,4.7582],[6.6656,4.7545],[6.6243,4.7348],[6.622,4.7063],[6.5735,4.7049],[6.5789,4.7152],[6.5935,4.7225],[6.6072,4.7464],[6.5792,4.7581],[6.5526,4.7586],[6.5273,4.753]]]}},{"id":"1","type":"Feature","properties":{"id":"NG033_33002","name":"Ahoada East","pop":335437,"density":826.4,"hf":46,"hf10k":1.37,"hf2":2,"hf3":0,"u15":35.3,"disp":0,"area":405.9},"geometry":{"type":"Polygon","coordinates":[[[6.6712,4.9608],[6.6704,4.9442],[6.6638,4.9317],[6.6789,4.926],[6.6993,4.9281],[6.7025,4.9212],[6.668,4.8885],[6.6432,4.9068],[6.6191,4.9164],[6.6138,4.926],[6.6088,4.9773],[6.553,4.9725],[6.5441,4.9835],[6.5601,4.9957],[6.5666,5.0147],[6.5763,5.0266],[6.573,5.1181],[6.5859,5.1723],[6.5787,5.1772],[6.5896,5.1915],[6.6226,5.2014],[6.634,5.1942],[6.6606,5.1946],[6.6608,5.2326],[6.6844,5.2147],[6.676,5.179],[6.7047,5.1576],[6.7113,5.1568],[6.7135,5.1625],[6.7253,5.1583],[6.722,5.1467],[6.6946,5.1413],[6.6941,5.1229],[6.6984,5.1156],[6.7219,5.1055],[6.7248,5.0959],[6.6993,5.0561],[6.712,5.018],[6.6866,5.0134],[6.6731,4.9973],[6.6716,4.9882],[6.682,4.9727],[6.6712,4.9608]]]}},{"id":"2","type":"Feature","properties":{"id":"NG033_33003","name":"Ahoada West","pop":158940,"density":365.6,"hf":23,"hf10k":1.45,"hf2":1,"hf3":0,"u15":35.3,"disp":0,"area":434.7},"geometry":{"type":"Polygon","coordinates":[[[6.5351,4.871],[6.5176,4.8681],[6.5129,4.8767],[6.4998,4.8845],[6.4871,4.9098],[6.4659,4.927],[6.4441,4.9343],[6.434,4.9303],[6.4406,4.9432],[6.4374,4.9665],[6.4104,4.9911],[6.4116,5.0046],[6.439,5.0529],[6.4858,5.1534],[6.4933,5.1635],[6.5263,5.1742],[6.5346,5.1868],[6.5534,5.1898],[6.5859,5.1723],[6.573,5.1181],[6.5763,5.0266],[6.5666,5.0147],[6.5601,4.9957],[6.5441,4.9835],[6.5581,4.9633],[6.5574,4.9427],[6.5465,4.9342],[6.5676,4.9223],[6.5681,4.9142],[6.559,4.9151],[6.5614,4.9089],[6.5771,4.899],[6.5695,4.8895],[6.5795,4.8656],[6.5742,4.8553],[6.5601,4.8511],[6.5351,4.871]]]}},{"id":"3","type":"Feature","properties":{"id":"NG033_33004","name":"Akuku Toru","pop":119193,"density":84.2,"hf":10,"hf10k":0.84,"hf2":1,"hf3":0,"u15":35.3,"disp":0,"area":1415.3},"geometry":{"type":"Polygon","coordinates":[[[6.6885,4.3292],[6.647,4.3264],[6.6467,4.3152],[6.641,4.3119],[6.62,4.3258],[6.5492,4.3253],[6.5446,4.3549],[6.5204,4.3609],[6.5141,4.3689],[6.5126,4.4317],[6.54,4.5009],[6.5499,4.5102],[6.5426,4.5219],[6.545,4.5335],[6.56,4.5412],[6.5663,4.5538],[6.5513,4.5582],[6.5431,4.5684],[6.5402,4.5766],[6.5489,4.5863],[6.5381,4.5962],[6.5351,4.6088],[6.5166,4.6226],[6.512,4.6431],[6.5466,4.682],[6.5624,4.6924],[6.5605,4.6977],[6.5902,4.7083],[6.622,4.7063],[6.6243,4.7348],[6.6391,4.7434],[6.6656,4.7545],[6.6884,4.7582],[6.6983,4.7511],[6.7344,4.7674],[6.7407,4.7979],[6.7383,4.8205],[6.7507,4.8272],[6.7849,4.8207],[6.7814,4.7975],[6.7892,4.7752],[6.7842,4.7725],[6.7754,4.7504],[6.7937,4.7312],[6.7882,4.7201],[6.777,4.7255],[6.7753,4.7128],[6.7869,4.6656],[6.8142,4.6453],[6.8381,4.6188],[6.8404,4.6025],[6.8142,4.5782],[6.8122,4.5428],[6.8169,4.5021],[6.842,4.4264],[6.8582,4.3982],[6.8502,4.3901],[6.8748,4.3638],[6.8752,4.3571],[6.7627,4.3464],[6.7169,4.35],[6.7125,4.3589],[6.7159,4.4166],[6.6971,4.4961],[6.7114,4.5358],[6.7267,4.5567],[6.7321,4.5723],[6.7245,4.6127],[6.7187,4.6109],[6.7193,4.5783],[6.6898,4.5185],[6.6903,4.4821],[6.7003,4.4196],[6.6887,4.4225],[6.6817,4.4094],[6.6938,4.3892],[6.7064,4.3387],[6.6885,4.3292]]]}},{"id":"4","type":"Feature","properties":{"id":"NG033_33005","name":"Andoni","pop":117925,"density":345.3,"hf":32,"hf10k":2.71,"hf2":2,"hf3":0,"u15":35.3,"disp":0,"area":341.5},"geometry":{"type":"Polygon","coordinates":[[[7.4184,4.4315],[7.3673,4.442],[7.3334,4.4437],[7.3246,4.4395],[7.3312,4.4736],[7.3414,4.4929],[7.3271,4.5047],[7.2763,4.4956],[7.2623,4.5019],[7.2821,4.5601],[7.305,4.5935],[7.337,4.5974],[7.3498,4.5903],[7.3503,4.583],[7.363,4.5715],[7.3922,4.5825],[7.4157,4.5692],[7.4311,4.5838],[7.453,4.5902],[7.4765,4.5844],[7.4736,4.5715],[7.4649,4.561],[7.4528,4.5563],[7.4501,4.5446],[7.4652,4.5145],[7.481,4.5152],[7.4741,4.4958],[7.4798,4.4897],[7.5013,4.4832],[7.5123,4.4856],[7.5639,4.4705],[7.5766,4.4838],[7.578,4.4961],[7.5894,4.4895],[7.5817,4.4757],[7.5833,4.4613],[7.5897,4.4628],[7.5906,4.4589],[7.5803,4.4501],[7.4874,4.4487],[7.4184,4.4315]]]}},{"id":"5","type":"Feature","properties":{"id":"NG033_33006","name":"Asari-Toru","pop":50973,"density":235.9,"hf":20,"hf10k":3.92,"hf2":1,"hf3":0,"u15":35.3,"disp":0,"area":216.1},"geometry":{"type":"Polygon","coordinates":[[[6.8985,4.6521],[6.8895,4.6572],[6.8771,4.6521],[6.8483,4.6608],[6.8342,4.6597],[6.8241,4.6715],[6.8202,4.688],[6.7993,4.6992],[6.799,4.7237],[6.7929,4.7278],[6.7894,4.7392],[6.7758,4.747],[6.7829,4.7698],[6.7892,4.7752],[6.7814,4.7975],[6.7849,4.8207],[6.7994,4.8223],[6.8132,4.8428],[6.8499,4.8246],[6.8625,4.8249],[6.8778,4.8017],[6.8767,4.7758],[6.9047,4.7518],[6.9151,4.7275],[6.9178,4.6887],[6.9172,4.6841],[6.9067,4.6813],[6.9127,4.6566],[6.8985,4.6521]]]}},{"id":"6","type":"Feature","properties":{"id":"NG033_33007","name":"Bonny","pop":131437,"density":544.5,"hf":18,"hf10k":1.37,"hf2":0,"hf3":2,"u15":35.3,"disp":0,"area":241.4},"geometry":{"type":"Polygon","coordinates":[[[7.2205,4.3818],[7.1819,4.3795],[7.1438,4.3841],[7.1373,4.3745],[7.1322,4.3858],[7.1347,4.4104],[7.1887,4.4757],[7.2174,4.5207],[7.2167,4.5448],[7.2472,4.5304],[7.2623,4.5019],[7.2763,4.4956],[7.3271,4.5047],[7.3414,4.4929],[7.3312,4.4736],[7.3231,4.4335],[7.3286,4.4168],[7.2205,4.3818]]]}},{"id":"7","type":"Feature","properties":{"id":"NG033_33008","name":"Degema","pop":56981,"density":85.8,"hf":6,"hf10k":1.05,"hf2":1,"hf3":0,"u15":35.3,"disp":0,"area":664.3},"geometry":{"type":"Polygon","coordinates":[[[6.9549,4.3735],[6.8582,4.3982],[6.842,4.4264],[6.8169,4.5021],[6.8122,4.5428],[6.8142,4.5782],[6.8404,4.6025],[6.8381,4.6188],[6.8142,4.6453],[6.7869,4.6656],[6.7737,4.7216],[6.777,4.7255],[6.7882,4.7201],[6.7929,4.7278],[6.799,4.7237],[6.7993,4.6992],[6.8202,4.688],[6.8241,4.6715],[6.8342,4.6597],[6.8483,4.6608],[6.8771,4.6521],[6.8895,4.6572],[6.8985,4.6521],[6.9127,4.6566],[6.9067,4.6813],[6.9172,4.6841],[6.9151,4.7275],[6.9047,4.7518],[6.9322,4.7849],[6.942,4.79],[6.9496,4.7731],[6.9604,4.7743],[6.9647,4.7644],[6.985,4.7648],[6.9883,4.7611],[6.9832,4.7488],[6.9852,4.7038],[6.9726,4.7057],[6.9642,4.6854],[6.9846,4.6369],[6.9838,4.6171],[6.9754,4.5972],[6.985,4.5139],[6.9756,4.5033],[6.9793,4.4879],[6.9913,4.4696],[7.0009,4.4186],[7.0174,4.409],[7.025,4.3894],[7.0225,4.3794],[7.0111,4.3706],[6.9549,4.3735]]]}},{"id":"8","type":"Feature","properties":{"id":"NG033_33009","name":"Eleme","pop":309963,"density":2280.8,"hf":18,"hf10k":0.58,"hf2":0,"hf3":0,"u15":35.3,"disp":0,"area":135.9},"geometry":{"type":"Polygon","coordinates":[[[7.1222,4.7021],[7.1161,4.7085],[7.118,4.724],[7.1141,4.7278],[7.1393,4.7342],[7.119,4.7676],[7.1132,4.7621],[7.1043,4.7713],[7.0972,4.7645],[7.09,4.7718],[7.0959,4.7845],[7.0754,4.8069],[7.0781,4.8148],[7.0736,4.8166],[7.0791,4.8261],[7.0701,4.8317],[7.0861,4.8411],[7.0928,4.8562],[7.0995,4.8573],[7.1271,4.8335],[7.1353,4.8538],[7.159,4.8597],[7.1716,4.8508],[7.1693,4.8262],[7.1484,4.7939],[7.1847,4.8075],[7.1897,4.7412],[7.1759,4.7307],[7.1771,4.7234],[7.1544,4.7179],[7.1509,4.7025],[7.1395,4.6935],[7.1332,4.6965],[7.1344,4.7031],[7.1222,4.7021]]]}},{"id":"9","type":"Feature","properties":{"id":"NG033_33010","name":"Emuoha","pop":344085,"density":442.0,"hf":34,"hf10k":0.99,"hf2":4,"hf3":1,"u15":35.3,"disp":10321,"area":778.4},"geometry":{"type":"MultiPolygon","coordinates":[[[[6.9026,4.855],[6.9241,4.843],[6.9215,4.8249],[6.9315,4.8201],[6.9288,4.8113],[6.9189,4.804],[6.9291,4.7817],[6.9047,4.7518],[6.8767,4.7758],[6.8778,4.8017],[6.8625,4.8249],[6.8499,4.8246],[6.8132,4.8428],[6.7994,4.8223],[6.7409,4.8252],[6.7257,4.8676],[6.6897,4.8659],[6.6694,4.8848],[6.668,4.8885],[6.7025,4.9212],[6.6993,4.9281],[6.6789,4.926],[6.6638,4.9317],[6.6704,4.9442],[6.6712,4.9608],[6.682,4.9727],[6.6716,4.9882],[6.6731,4.9973],[6.6866,5.0134],[6.712,5.018],[6.6993,5.0561],[6.7248,5.0959],[6.7636,5.0789],[6.7825,5.0518],[6.806,5.0548],[6.8464,5.0263],[6.8461,4.9527],[6.8676,4.9132],[6.8848,4.9071],[6.898,4.9102],[6.9001,4.8937],[6.8914,4.8852],[6.9027,4.8706],[6.9026,4.855]]],[[[6.6941,5.1229],[6.6946,5.1413],[6.722,5.1467],[6.7253,5.1583],[6.7135,5.1625],[6.7113,5.1568],[6.7047,5.1576],[6.676,5.179],[6.6844,5.2147],[6.7034,5.2172],[6.72,5.2425],[6.7172,5.2792],[6.7244,5.2934],[6.7615,5.3159],[6.7862,5.2848],[6.8166,5.2594],[6.8101,5.2275],[6.824,5.2035],[6.8313,5.172],[6.7986,5.1313],[6.7844,5.128],[6.7536,5.158],[6.7398,5.1468],[6.7219,5.1055],[6.6984,5.1156],[6.6941,5.1229]]]]}},{"id":"10","type":"Feature","properties":{"id":"NG033_33011","name":"Etche","pop":511774,"density":630.3,"hf":46,"hf10k":0.9,"hf2":2,"hf3":0,"u15":35.3,"disp":0,"area":811.9},"geometry":{"type":"Polygon","coordinates":[[[7.1046,4.9014],[7.0799,4.9036],[7.0821,4.9218],[7.0634,4.925],[7.0311,4.919],[7.0315,4.9312],[7.0193,4.9561],[7.0377,4.9698],[7.0534,4.9917],[7.0388,5.0108],[7.0321,5.0039],[7.0248,5.0129],[7.0162,5.0046],[7.0129,5.0064],[7.0076,5.0261],[6.994,5.024],[6.9806,5.0477],[6.9759,5.048],[6.9801,5.0578],[6.9727,5.0892],[6.941,5.1366],[6.9388,5.1903],[6.9444,5.1983],[6.9436,5.2286],[6.9718,5.2362],[6.9865,5.2343],[7.04,5.2496],[7.1041,5.2215],[7.1654,5.2123],[7.1984,5.1998],[7.2279,5.1948],[7.208,5.1628],[7.2146,5.1579],[7.2111,5.12],[7.1957,5.0893],[7.1977,5.0779],[7.1884,5.066],[7.1892,5.0535],[7.1776,5.0369],[7.1869,5.0153],[7.1805,4.9805],[7.1837,4.9499],[7.1685,4.9448],[7.1503,4.9243],[7.1416,4.9046],[7.1459,4.8942],[7.1245,4.8903],[7.1046,4.9014]]]}},{"id":"11","type":"Feature","properties":{"id":"NG033_33012","name":"Gokana","pop":171645,"density":1300.3,"hf":26,"hf10k":1.51,"hf2":2,"hf3":0,"u15":35.3,"disp":0,"area":132.0},"geometry":{"type":"Polygon","coordinates":[[[7.3251,4.6486],[7.3021,4.5866],[7.2821,4.5601],[7.248,4.5977],[7.2472,4.6069],[7.2355,4.625],[7.2465,4.6481],[7.2457,4.6586],[7.2443,4.6685],[7.2272,4.6827],[7.234,4.6954],[7.2532,4.6989],[7.279,4.6946],[7.291,4.7031],[7.319,4.7027],[7.3319,4.7101],[7.361,4.6881],[7.3556,4.6797],[7.3573,4.6578],[7.334,4.6579],[7.3251,4.6486]]]}},{"id":"12","type":"Feature","properties":{"id":"NG033_33013","name":"Ikwerre","pop":532924,"density":798.4,"hf":31,"hf10k":0.58,"hf2":2,"hf3":3,"u15":35.3,"disp":0,"area":667.5},"geometry":{"type":"Polygon","coordinates":[[[6.9593,4.9368],[6.9635,4.9101],[6.9571,4.9101],[6.953,4.9176],[6.9346,4.9109],[6.9204,4.9226],[6.9061,4.9028],[6.8991,4.9042],[6.8948,4.9114],[6.8848,4.9071],[6.8676,4.9132],[6.8461,4.9527],[6.8464,5.0263],[6.806,5.0548],[6.7825,5.0518],[6.7636,5.0789],[6.7248,5.0959],[6.7219,5.1055],[6.7276,5.1222],[6.7441,5.1515],[6.7536,5.158],[6.7844,5.128],[6.7986,5.1313],[6.8313,5.172],[6.824,5.2035],[6.8101,5.2275],[6.8166,5.2594],[6.8271,5.2524],[6.8664,5.2431],[6.8876,5.2256],[6.904,5.2195],[6.9436,5.2286],[6.9444,5.1983],[6.9388,5.1903],[6.941,5.1366],[6.9727,5.0892],[6.9801,5.0578],[6.9759,5.048],[6.9806,5.0477],[6.994,5.024],[7.0076,5.0261],[7.0129,5.0064],[7.0162,5.0046],[7.0248,5.0129],[7.0321,5.0039],[7.0388,5.0108],[7.0534,4.9917],[7.0377,4.9698],[7.0193,4.9561],[7.028,4.9387],[7.0204,4.9319],[7.0056,4.9351],[6.995,4.9246],[6.9709,4.9365],[6.9593,4.9368]]]}},{"id":"13","type":"Feature","properties":{"id":"NG033_33014","name":"Khana","pop":375676,"density":717.8,"hf":40,"hf10k":1.06,"hf2":2,"hf3":0,"u15":35.3,"disp":0,"area":523.4},"geometry":{"type":"Polygon","coordinates":[[[7.5294,4.5961],[7.4973,4.5795],[7.453,4.5902],[7.4311,4.5838],[7.4157,4.5692],[7.3922,4.5825],[7.363,4.5715],[7.3503,4.583],[7.3498,4.5903],[7.337,4.5974],[7.305,4.5935],[7.3305,4.6557],[7.3573,4.6578],[7.3556,4.6797],[7.361,4.6881],[7.3319,4.7101],[7.3442,4.7243],[7.3272,4.7626],[7.3573,4.7821],[7.3668,4.8234],[7.3804,4.8273],[7.4308,4.8274],[7.4564,4.8155],[7.463,4.7988],[7.4913,4.7822],[7.5096,4.7852],[7.5316,4.7684],[7.5423,4.7301],[7.5351,4.7004],[7.5278,4.6969],[7.5175,4.6797],[7.5163,4.6633],[7.5241,4.6549],[7.5176,4.6336],[7.5294,4.5961]]]}},{"id":"14","type":"Feature","properties":{"id":"NG033_33015","name":"Obio/Akpor","pop":1744762,"density":6631.6,"hf":101,"hf10k":0.58,"hf2":6,"hf3":8,"u15":35.3,"disp":0,"area":263.1},"geometry":{"type":"Polygon","coordinates":[[[7.0042,4.8304],[7.0057,4.8216],[6.9944,4.8202],[6.9952,4.816],[6.9829,4.8136],[6.9763,4.8071],[6.976,4.7975],[6.9712,4.7951],[6.973,4.7838],[6.9682,4.7802],[6.9496,4.7731],[6.942,4.79],[6.9291,4.7817],[6.9189,4.804],[6.9288,4.8113],[6.9315,4.8201],[6.9215,4.8249],[6.9241,4.843],[6.9026,4.855],[6.9027,4.8706],[6.8914,4.8852],[6.9001,4.8937],[6.8991,4.9042],[6.9061,4.9028],[6.9204,4.9226],[6.9346,4.9109],[6.953,4.9176],[6.9571,4.9101],[6.9635,4.9101],[6.9593,4.9368],[6.9709,4.9365],[6.995,4.9246],[7.0056,4.9351],[7.0204,4.9319],[7.0268,4.9392],[7.0311,4.919],[7.0634,4.925],[7.0821,4.9218],[7.0799,4.9036],[7.0942,4.9017],[7.0974,4.8886],[7.1018,4.8897],[7.1128,4.8723],[7.1065,4.8512],[7.0995,4.8573],[7.0928,4.8562],[7.0861,4.8411],[7.0701,4.8317],[7.0791,4.8261],[7.0776,4.8215],[7.0609,4.8073],[7.0466,4.8147],[7.0374,4.8069],[7.025,4.8292],[7.0042,4.8304]]]}},{"id":"15","type":"Feature","properties":{"id":"NG033_33016","name":"Ogba/Egbema/Ndoni","pop":444295,"density":498.1,"hf":52,"hf10k":1.17,"hf2":3,"hf3":0,"u15":35.3,"disp":0,"area":892.0},"geometry":{"type":"Polygon","coordinates":[[[6.7625,5.4102],[6.7605,5.3534],[6.7558,5.3235],[6.7615,5.3159],[6.7327,5.3012],[6.7201,5.2871],[6.7168,5.2699],[6.72,5.2425],[6.7034,5.2172],[6.6844,5.2147],[6.6608,5.2326],[6.6606,5.1946],[6.634,5.1942],[6.6226,5.2014],[6.5896,5.1915],[6.5787,5.1772],[6.5534,5.1898],[6.5588,5.1984],[6.5492,5.2127],[6.5528,5.2265],[6.5666,5.237],[6.5374,5.2649],[6.5309,5.2845],[6.5632,5.3202],[6.5696,5.3721],[6.562,5.3792],[6.4855,5.3792],[6.4766,5.4041],[6.4831,5.4206],[6.5088,5.4257],[6.5245,5.4387],[6.5382,5.4758],[6.5308,5.532],[6.5426,5.5492],[6.5689,5.5534],[6.5848,5.5617],[6.601,5.5969],[6.6038,5.6149],[6.6176,5.6315],[6.6213,5.6426],[6.5997,5.6789],[6.6019,5.6875],[6.6531,5.6816],[6.6689,5.6899],[6.6391,5.4934],[6.7156,5.4891],[6.7414,5.4941],[6.7512,5.4648],[6.7437,5.4589],[6.7441,5.4491],[6.7625,5.4102]]]}},{"id":"16","type":"Feature","properties":{"id":"NG033_33017","name":"Ogu Bolo","pop":47052,"density":255.6,"hf":11,"hf10k":2.34,"hf2":1,"hf3":0,"u15":35.3,"disp":0,"area":184.1},"geometry":{"type":"Polygon","coordinates":[[[7.2623,4.5019],[7.2472,4.5304],[7.2167,4.5448],[7.1903,4.61],[7.1684,4.6317],[7.1528,4.66],[7.1234,4.6697],[7.1251,4.6777],[7.1187,4.6866],[7.1222,4.7021],[7.1344,4.7031],[7.1332,4.6965],[7.1395,4.6935],[7.1509,4.7025],[7.1544,4.7179],[7.1771,4.7234],[7.1759,4.7307],[7.1897,4.7412],[7.2233,4.7202],[7.2144,4.7104],[7.234,4.6954],[7.2272,4.6827],[7.2443,4.6685],[7.2457,4.6586],[7.2465,4.6481],[7.2355,4.625],[7.2472,4.6069],[7.248,4.5977],[7.2821,4.5601],[7.2623,4.5019]]]}},{"id":"17","type":"Feature","properties":{"id":"NG033_33018","name":"Okrika","pop":180152,"density":296.3,"hf":26,"hf10k":1.44,"hf2":2,"hf3":0,"u15":35.3,"disp":0,"area":608.0},"geometry":{"type":"Polygon","coordinates":[[[7.0857,4.7232],[7.0818,4.7219],[7.0787,4.7027],[7.0835,4.6841],[7.0958,4.6684],[7.1292,4.6565],[7.1455,4.645],[7.1697,4.6044],[7.1764,4.5711],[7.166,4.5486],[7.1771,4.5295],[7.1774,4.515],[7.1589,4.4636],[7.1037,4.4515],[7.0941,4.453],[7.0673,4.4406],[7.0342,4.4378],[7.0241,4.4412],[7.0159,4.4684],[7.0073,4.5128],[7.0094,4.5307],[6.9975,4.5638],[6.9939,4.5899],[6.9983,4.6067],[6.9838,4.6171],[6.9846,4.6369],[6.9642,4.6854],[6.9726,4.7057],[6.9852,4.7038],[6.9832,4.7488],[6.9883,4.7611],[6.998,4.7547],[7.0102,4.735],[7.0128,4.7499],[7.025,4.7558],[7.0431,4.7473],[7.0549,4.7532],[7.0558,4.7661],[7.0695,4.7766],[7.0614,4.786],[7.0695,4.7951],[7.0689,4.8024],[7.0609,4.8073],[7.0736,4.8166],[7.0781,4.8148],[7.0754,4.8069],[7.0959,4.7845],[7.09,4.7718],[7.0972,4.7645],[7.1043,4.7713],[7.1132,4.7621],[7.119,4.7676],[7.1393,4.7342],[7.1141,4.7278],[7.118,4.724],[7.1161,4.7085],[7.1222,4.7021],[7.1187,4.6866],[7.1251,4.6777],[7.1234,4.6697],[7.1082,4.674],[7.0914,4.6929],[7.0857,4.7232]]]}},{"id":"18","type":"Feature","properties":{"id":"NG033_33019","name":"Omumma","pop":94001,"density":480.1,"hf":26,"hf10k":2.77,"hf2":2,"hf3":0,"u15":35.2,"disp":0,"area":195.8},"geometry":{"type":"Polygon","coordinates":[[[7.2419,4.9963],[7.2284,4.971],[7.2179,4.9616],[7.1837,4.9499],[7.1805,4.9805],[7.1869,5.0153],[7.1776,5.0369],[7.1892,5.0535],[7.1884,5.066],[7.1977,5.0779],[7.1957,5.0893],[7.2111,5.12],[7.2146,5.1579],[7.208,5.1628],[7.2279,5.1948],[7.2421,5.1959],[7.2514,5.2019],[7.2561,5.2135],[7.2643,5.2156],[7.2813,5.2016],[7.2926,5.1726],[7.2787,5.1168],[7.2558,5.0773],[7.2517,5.0331],[7.2419,4.9963]]]}},{"id":"19","type":"Feature","properties":{"id":"NG033_33020","name":"Opobo/Nkoro","pop":30823,"density":310.1,"hf":9,"hf10k":2.92,"hf2":1,"hf3":0,"u15":35.3,"disp":0,"area":99.4},"geometry":{"type":"Polygon","coordinates":[[[7.5326,4.5259],[7.5571,4.5029],[7.578,4.4961],[7.5766,4.4838],[7.5639,4.4705],[7.5123,4.4856],[7.5013,4.4832],[7.4798,4.4897],[7.4741,4.4958],[7.481,4.5152],[7.4652,4.5145],[7.4505,4.5496],[7.4528,4.5563],[7.4649,4.561],[7.4736,4.5715],[7.4765,4.5844],[7.4973,4.5795],[7.5181,4.5941],[7.5294,4.5961],[7.5437,4.5798],[7.527,4.5656],[7.5213,4.5547],[7.5326,4.5259]]]}},{"id":"20","type":"Feature","properties":{"id":"NG033_33021","name":"Oyigbo","pop":325044,"density":1165.0,"hf":49,"hf10k":1.51,"hf2":2,"hf3":0,"u15":35.3,"disp":0,"area":279.0},"geometry":{"type":"Polygon","coordinates":[[[7.5115,4.8073],[7.5096,4.7852],[7.4973,4.7808],[7.463,4.7988],[7.4564,4.8155],[7.4308,4.8274],[7.3703,4.8253],[7.3573,4.7821],[7.3272,4.7626],[7.3075,4.7632],[7.2925,4.7801],[7.2898,4.7898],[7.2561,4.7933],[7.2506,4.8227],[7.2322,4.8298],[7.2246,4.8182],[7.217,4.824],[7.2049,4.822],[7.1847,4.8075],[7.1484,4.7939],[7.1683,4.8204],[7.1716,4.8508],[7.159,4.8597],[7.1353,4.8538],[7.1271,4.8335],[7.1065,4.8512],[7.1128,4.8723],[7.1018,4.8897],[7.0974,4.8886],[7.0933,4.9032],[7.1245,4.8903],[7.1463,4.8959],[7.1559,4.8837],[7.1838,4.8752],[7.1989,4.8617],[7.218,4.8573],[7.2714,4.873],[7.3198,4.8796],[7.3735,4.8629],[7.4164,4.8667],[7.4292,4.8624],[7.4467,4.8454],[7.4716,4.8423],[7.4887,4.8218],[7.4951,4.8283],[7.5115,4.8073]]]}},{"id":"21","type":"Feature","properties":{"id":"NG033_33022","name":"Port-Harcourt","pop":545537,"density":7545.5,"hf":41,"hf10k":0.75,"hf2":2,"hf3":6,"u15":35.3,"disp":0,"area":72.3},"geometry":{"type":"Polygon","coordinates":[[[7.0558,4.7661],[7.0549,4.7532],[7.0431,4.7473],[7.0277,4.7561],[7.0128,4.7499],[7.0102,4.735],[6.998,4.7547],[6.985,4.7648],[6.9647,4.7644],[6.9638,4.7713],[6.9579,4.7745],[6.973,4.7838],[6.9712,4.7951],[6.976,4.7975],[6.9763,4.8071],[6.9829,4.8136],[6.9952,4.816],[6.9944,4.8202],[7.0057,4.8216],[7.0043,4.8309],[7.0103,4.8305],[7.025,4.8292],[7.0374,4.8069],[7.0466,4.8147],[7.0534,4.8137],[7.0689,4.8024],[7.0695,4.7951],[7.0614,4.786],[7.0681,4.7799],[7.0682,4.772],[7.0558,4.7661]]]}},{"id":"22","type":"Feature","properties":{"id":"NG033_33023","name":"Tai","pop":108415,"density":662.3,"hf":23,"hf10k":2.12,"hf2":1,"hf3":1,"u15":35.3,"disp":0,"area":163.7},"geometry":{"type":"Polygon","coordinates":[[[7.234,4.6954],[7.2144,4.7104],[7.2233,4.7202],[7.2089,4.7326],[7.1968,4.7335],[7.1877,4.7444],[7.1847,4.8075],[7.2049,4.822],[7.217,4.824],[7.2246,4.8182],[7.2322,4.8298],[7.2506,4.8227],[7.2561,4.7933],[7.2898,4.7898],[7.2925,4.7801],[7.3075,4.7632],[7.3272,4.7626],[7.3442,4.7243],[7.319,4.7027],[7.291,4.7031],[7.279,4.6946],[7.2532,4.6989],[7.234,4.6954]]]}}]}