{"type":"FeatureCollection","features":[{"id":"0","type":"Feature","properties":{"id":"NG031_31001","name":"Afijio","pop":129018,"density":140.7,"hf":54,"hf10k":4.19,"hf2":1,"hf3":0,"u15":36.9,"disp":0,"area":916.7},"geometry":{"type":"Polygon","coordinates":[[[3.8301,7.6503],[3.814,7.6287],[3.7671,7.6083],[3.7245,7.6282],[3.695,7.6512],[3.6133,7.6056],[3.5887,7.6818],[3.5952,7.694],[3.6314,7.7101],[3.6838,7.6963],[3.7329,7.8013],[3.7344,7.8383],[3.7469,7.8604],[3.7745,7.8473],[3.8081,7.847],[3.8231,7.8423],[3.8346,7.8427],[3.8581,7.8603],[3.8674,7.8566],[3.867,7.8482],[3.8862,7.8122],[3.8865,7.802],[3.8798,7.7972],[3.8858,7.7917],[3.8822,7.7881],[3.8974,7.7766],[3.9295,7.7879],[3.9347,7.8022],[3.9388,7.8016],[3.9387,7.7964],[3.9573,7.7969],[3.9669,7.8111],[3.9554,7.8174],[3.9723,7.8336],[3.9869,7.8351],[3.9929,7.8237],[4.0042,7.8265],[4.0194,7.8384],[4.0425,7.8425],[4.0597,7.8626],[4.0897,7.8712],[4.0911,7.8502],[4.0762,7.8249],[4.0707,7.8008],[4.0708,7.7598],[4.0613,7.7543],[4.0742,7.7359],[4.0782,7.7081],[4.0755,7.6884],[4.0742,7.6816],[4.0572,7.6795],[4.0529,7.675],[4.0687,7.6659],[4.0758,7.653],[4.0631,7.6511],[4.0537,7.6594],[4.0293,7.6666],[4.0018,7.637],[3.9945,7.644],[3.9577,7.6361],[3.9422,7.6385],[3.9407,7.6727],[3.889,7.6765],[3.8301,7.6503]]]}},{"id":"1","type":"Feature","properties":{"id":"NG031_31002","name":"Akinyele","pop":546350,"density":1312.7,"hf":87,"hf10k":1.59,"hf2":5,"hf3":2,"u15":36.9,"disp":0,"area":416.2},"geometry":{"type":"Polygon","coordinates":[[[3.9622,7.5136],[3.9767,7.508],[3.9818,7.4927],[3.9481,7.4968],[3.9474,7.4804],[3.9295,7.4485],[3.938,7.4408],[3.9366,7.4231],[3.9209,7.4515],[3.9071,7.4544],[3.9059,7.4646],[3.8858,7.4542],[3.8845,7.4799],[3.8908,7.4814],[3.8867,7.4923],[3.8625,7.5059],[3.8474,7.5087],[3.8206,7.5354],[3.8151,7.5512],[3.7937,7.5573],[3.7671,7.6083],[3.814,7.6287],[3.8301,7.6503],[3.889,7.6765],[3.9407,7.6727],[3.9422,7.6385],[3.9577,7.6361],[3.9945,7.644],[4.0018,7.637],[4.0293,7.6666],[4.0537,7.6594],[4.0631,7.6511],[4.0447,7.6302],[4.0236,7.6168],[4.009,7.6162],[3.986,7.5949],[3.9768,7.5607],[3.9913,7.5378],[4.0148,7.5313],[4.011,7.5217],[3.9949,7.5128],[3.9877,7.5136],[3.9857,7.5199],[3.9696,7.5224],[3.9622,7.5136]]]}},{"id":"2","type":"Feature","properties":{"id":"NG031_31003","name":"Atiba","pop":130441,"density":194.0,"hf":24,"hf10k":1.84,"hf2":0,"hf3":0,"u15":36.9,"disp":0,"area":672.5},"geometry":{"type":"Polygon","coordinates":[[[3.9561,7.8626],[3.9423,7.8637],[3.9375,7.8581],[3.9371,7.8638],[3.9194,7.8775],[3.9245,7.8813],[3.9034,7.8877],[3.9159,7.9062],[3.9335,7.9091],[3.9419,7.9323],[3.9346,7.9365],[3.9322,7.9545],[3.924,7.9668],[3.88,7.9608],[3.8602,7.9916],[3.8441,7.9984],[3.8213,8.0175],[3.8035,8.0236],[3.7993,8.0333],[3.8169,8.174],[3.8531,8.223],[3.8987,8.187],[3.9885,8.1888],[3.9966,8.1684],[3.9809,8.1395],[4.013,8.1248],[4.0343,8.0928],[4.0292,8.0807],[4.0334,8.0708],[4.0285,8.0638],[4.014,8.0596],[4.0083,8.0339],[4.0147,8.0304],[4.0388,8.0429],[4.0457,8.0397],[4.0496,8.0194],[4.0449,7.9795],[4.0761,7.963],[4.0786,7.9538],[4.0584,7.9465],[4.0427,7.9265],[4.0248,7.9268],[4.0028,7.9073],[3.9877,7.9051],[3.962,7.8853],[3.9633,7.8742],[3.9561,7.8626]]]}},{"id":"3","type":"Feature","properties":{"id":"NG031_31004","name":"Atisbo","pop":108351,"density":44.0,"hf":25,"hf10k":2.31,"hf2":2,"hf3":0,"u15":36.9,"disp":0,"area":2460.6},"geometry":{"type":"Polygon","coordinates":[[[3.4788,8.3341],[3.4332,8.3198],[3.3833,8.3206],[3.3761,8.3133],[3.3614,8.3094],[3.2958,8.3437],[3.2806,8.3573],[3.2688,8.351],[3.2516,8.3706],[3.1954,8.3764],[3.1725,8.3694],[3.1839,8.3401],[3.1767,8.3334],[3.1609,8.3334],[3.0904,8.3166],[3.0667,8.3155],[2.9821,8.3304],[2.9582,8.349],[2.9285,8.3527],[2.8952,8.3397],[2.8679,8.3123],[2.8702,8.2594],[2.7464,8.2287],[2.7281,8.2567],[2.7092,8.3389],[2.7247,8.4314],[2.7711,8.4355],[2.8196,8.4676],[2.8847,8.4818],[2.9008,8.4942],[2.9579,8.509],[2.9929,8.508],[3.0103,8.5023],[3.0528,8.5019],[3.0588,8.4947],[3.0923,8.4832],[3.1133,8.4616],[3.1454,8.4404],[3.1661,8.4518],[3.1971,8.4435],[3.1931,8.481],[3.2113,8.4845],[3.2133,8.5076],[3.2207,8.5159],[3.2359,8.5223],[3.2614,8.5219],[3.2748,8.5343],[3.3103,8.5354],[3.3351,8.5227],[3.342,8.5369],[3.3609,8.5508],[3.3251,8.5751],[3.3239,8.5801],[3.3566,8.5809],[3.3613,8.5848],[3.3901,8.5807],[3.4166,8.5694],[3.4327,8.5693],[3.443,8.5514],[3.5,8.5674],[3.5321,8.5859],[3.5394,8.5769],[3.5836,8.5548],[3.5754,8.5195],[3.5936,8.4926],[3.6726,8.4577],[3.686,8.4318],[3.7682,8.514],[3.8105,8.5466],[3.8742,8.5542],[3.9314,8.469],[3.9043,8.3729],[3.8567,8.3271],[3.797,8.3422],[3.684,8.4099],[3.5478,8.3977],[3.5334,8.383],[3.4777,8.3618],[3.4724,8.3572],[3.4788,8.3341]]]}},{"id":"4","type":"Feature","properties":{"id":"NG031_31005","name":"Egbeda","pop":651203,"density":2983.1,"hf":69,"hf10k":1.06,"hf2":0,"hf3":1,"u15":36.9,"disp":0,"area":218.3},"geometry":{"type":"MultiPolygon","coordinates":[[[[3.9538,7.4174],[3.9631,7.4251],[3.9695,7.412],[3.9595,7.4096],[3.9538,7.4174]]],[[[4.1257,7.3118],[4.0901,7.2939],[4.0724,7.3041],[4.0775,7.3223],[4.1026,7.3446],[4.0727,7.3598],[4.0603,7.3481],[4.0354,7.3588],[4.0116,7.3583],[4.0046,7.3466],[4.0,7.3462],[3.9879,7.3511],[3.9803,7.3622],[3.9721,7.3527],[3.9617,7.3569],[3.9547,7.3534],[3.9577,7.3699],[3.9392,7.3785],[3.9287,7.3948],[3.9438,7.4036],[3.9507,7.3979],[3.9432,7.3922],[3.9514,7.3924],[3.9568,7.4007],[3.9734,7.4062],[3.9811,7.4145],[3.9995,7.4106],[4.0089,7.4164],[4.0057,7.4236],[4.02,7.428],[4.0316,7.4447],[4.0232,7.4491],[4.0253,7.4528],[4.015,7.465],[4.0119,7.4791],[4.0183,7.4861],[4.026,7.4871],[4.0544,7.4714],[4.0501,7.4505],[4.057,7.4298],[4.0795,7.4368],[4.094,7.4338],[4.1035,7.4608],[4.1371,7.4591],[4.1414,7.4397],[4.134,7.3677],[4.127,7.352],[4.1192,7.3485],[4.1205,7.3353],[4.1109,7.3269],[4.1257,7.3118]]]]}},{"id":"5","type":"Feature","properties":{"id":"NG031_31006","name":"Ibadan North","pop":295839,"density":7605.1,"hf":83,"hf10k":2.81,"hf2":7,"hf3":14,"u15":36.9,"disp":0,"area":38.9},"geometry":{"type":"Polygon","coordinates":[[[3.8991,7.3796],[3.8897,7.4],[3.8868,7.3961],[3.8824,7.3986],[3.8874,7.41],[3.8762,7.4245],[3.8653,7.4254],[3.8651,7.4308],[3.88,7.4346],[3.8766,7.4452],[3.881,7.4531],[3.9059,7.4646],[3.9071,7.4544],[3.9209,7.4515],[3.9217,7.444],[3.9324,7.4365],[3.9402,7.4195],[3.8991,7.3796]]]}},{"id":"6","type":"Feature","properties":{"id":"NG031_31007","name":"Ibadan North East","pop":260565,"density":14161.1,"hf":89,"hf10k":3.42,"hf2":4,"hf3":6,"u15":36.9,"disp":0,"area":18.4},"geometry":{"type":"Polygon","coordinates":[[[3.928,7.3911],[3.9394,7.3796],[3.9367,7.3657],[3.9402,7.3585],[3.926,7.3375],[3.9146,7.3367],[3.9098,7.3424],[3.9185,7.3458],[3.9261,7.3641],[3.917,7.3711],[3.9051,7.3713],[3.8989,7.3794],[3.9402,7.4195],[3.9438,7.4036],[3.9332,7.3995],[3.928,7.3911]]]}},{"id":"7","type":"Feature","properties":{"id":"NG031_31008","name":"Ibadan North West","pop":183417,"density":6281.4,"hf":39,"hf10k":2.13,"hf2":2,"hf3":4,"u15":36.9,"disp":0,"area":29.2},"geometry":{"type":"Polygon","coordinates":[[[3.8916,7.3773],[3.8775,7.3887],[3.8724,7.3832],[3.8675,7.388],[3.8541,7.3836],[3.8454,7.3903],[3.8491,7.4067],[3.8359,7.4112],[3.8243,7.4094],[3.824,7.4284],[3.816,7.4365],[3.8525,7.4405],[3.8592,7.4232],[3.8762,7.4245],[3.8876,7.4095],[3.8824,7.3986],[3.8868,7.3961],[3.8897,7.4],[3.8934,7.3851],[3.8978,7.3849],[3.8989,7.3794],[3.8916,7.3773]]]}},{"id":"8","type":"Feature","properties":{"id":"NG031_31009","name":"Ibadan South East","pop":194539,"density":12158.7,"hf":54,"hf10k":2.78,"hf2":1,"hf3":2,"u15":36.9,"disp":0,"area":16.0},"geometry":{"type":"Polygon","coordinates":[[[3.9156,7.344],[3.8752,7.3301],[3.8681,7.3317],[3.8717,7.3414],[3.8949,7.3657],[3.8957,7.3741],[3.8912,7.3766],[3.8976,7.3792],[3.9051,7.3713],[3.917,7.3711],[3.9261,7.3641],[3.9156,7.344]]]}},{"id":"9","type":"Feature","properties":{"id":"NG031_31010","name":"Ibadan South West","pop":210449,"density":8768.7,"hf":82,"hf10k":3.9,"hf2":1,"hf3":12,"u15":36.9,"disp":0,"area":24.0},"geometry":{"type":"Polygon","coordinates":[[[3.8956,7.3674],[3.871,7.3402],[3.8555,7.3363],[3.8422,7.3501],[3.8462,7.3555],[3.8414,7.3574],[3.8389,7.3775],[3.8529,7.379],[3.8543,7.3838],[3.8675,7.388],[3.8724,7.3832],[3.8775,7.3887],[3.8854,7.3847],[3.8957,7.3741],[3.8956,7.3674]]]}},{"id":"10","type":"Feature","properties":{"id":"NG031_31011","name":"Ibarapa Central","pop":113370,"density":261.5,"hf":23,"hf10k":2.03,"hf2":2,"hf3":0,"u15":36.9,"disp":0,"area":433.5},"geometry":{"type":"Polygon","coordinates":[[[3.35,7.3632],[3.324,7.3152],[3.3066,7.314],[3.287,7.3245],[3.2825,7.3355],[3.2491,7.3675],[3.183,7.37],[3.1553,7.3782],[3.1404,7.3956],[3.1153,7.4081],[3.0982,7.4309],[3.0826,7.439],[3.075,7.4529],[3.1062,7.4616],[3.1291,7.4423],[3.1849,7.4697],[3.1847,7.4852],[3.1907,7.4921],[3.1855,7.52],[3.1945,7.5303],[3.2119,7.5283],[3.2447,7.5137],[3.2468,7.5057],[3.2848,7.5071],[3.2836,7.4821],[3.2948,7.4786],[3.3135,7.477],[3.3412,7.501],[3.3755,7.4978],[3.3724,7.4811],[3.3986,7.4437],[3.3815,7.4308],[3.3858,7.4013],[3.35,7.3632]]]}},{"id":"11","type":"Feature","properties":{"id":"NG031_31012","name":"Ibarapa East","pop":99643,"density":132.3,"hf":24,"hf10k":2.41,"hf2":2,"hf3":0,"u15":36.9,"disp":0,"area":753.4},"geometry":{"type":"Polygon","coordinates":[[[3.6098,7.6014],[3.611,7.5827],[3.578,7.5135],[3.5778,7.4985],[3.5483,7.4806],[3.5465,7.4553],[3.5406,7.4502],[3.5458,7.4408],[3.4977,7.3946],[3.4727,7.3912],[3.4829,7.4172],[3.4715,7.4387],[3.4594,7.4497],[3.4666,7.4711],[3.4522,7.4862],[3.4535,7.4949],[3.4424,7.4921],[3.3957,7.4592],[3.3931,7.4558],[3.4002,7.4493],[3.3986,7.4437],[3.3724,7.4811],[3.3755,7.4978],[3.3412,7.501],[3.3373,7.5241],[3.3464,7.5381],[3.3598,7.548],[3.3476,7.6205],[3.3566,7.6407],[3.3694,7.6447],[3.3903,7.6645],[3.4139,7.6578],[3.4195,7.6762],[3.4528,7.6945],[3.4719,7.7192],[3.4909,7.7162],[3.5076,7.6967],[3.5389,7.7039],[3.5443,7.7117],[3.5425,7.741],[3.5779,7.7953],[3.5958,7.7864],[3.6087,7.7724],[3.6057,7.7425],[3.6314,7.7101],[3.5952,7.694],[3.5887,7.6818],[3.6133,7.6056],[3.6098,7.6014]]]}},{"id":"12","type":"Feature","properties":{"id":"NG031_31013","name":"Ibarapa North","pop":83844,"density":66.5,"hf":26,"hf10k":3.1,"hf2":2,"hf3":1,"u15":36.9,"disp":0,"area":1260.4},"geometry":{"type":"Polygon","coordinates":[[[3.3476,7.6205],[3.3598,7.548],[3.3464,7.5381],[3.3373,7.5241],[3.3412,7.501],[3.3135,7.477],[3.2836,7.4821],[3.2848,7.5071],[3.2468,7.5057],[3.2447,7.5137],[3.2119,7.5283],[3.1945,7.5303],[3.1855,7.52],[3.1907,7.4921],[3.1847,7.4852],[3.1849,7.4697],[3.1291,7.4423],[3.1062,7.4616],[3.075,7.4529],[3.0692,7.4757],[3.0769,7.4913],[3.0645,7.5198],[3.0428,7.5279],[3.0303,7.544],[3.0222,7.5464],[3.0207,7.5529],[3.0068,7.5558],[2.9845,7.5852],[2.9727,7.6117],[2.9804,7.621],[2.9906,7.6247],[2.9983,7.6414],[3.001,7.662],[2.9923,7.6745],[2.9965,7.6801],[2.9892,7.6821],[3.0033,7.6911],[2.9967,7.6978],[3.0139,7.7037],[3.0055,7.7117],[3.017,7.7258],[3.0218,7.7489],[3.0299,7.7557],[3.0239,7.7635],[3.0248,7.7903],[3.0482,7.8152],[3.0471,7.8319],[3.041,7.8364],[3.0454,7.8477],[3.0528,7.8489],[3.0486,7.8682],[3.0838,7.8747],[3.1045,7.8591],[3.1248,7.8611],[3.1404,7.8538],[3.1444,7.8501],[3.1356,7.8086],[3.1731,7.8048],[3.1835,7.7874],[3.2442,7.7721],[3.2823,7.7804],[3.2753,7.7316],[3.2926,7.7219],[3.3209,7.7179],[3.3229,7.699],[3.3497,7.6598],[3.3566,7.6407],[3.3476,7.6205]]]}},{"id":"13","type":"Feature","properties":{"id":"NG031_31014","name":"Ido","pop":900724,"density":1219.3,"hf":71,"hf10k":0.79,"hf2":4,"hf3":3,"u15":36.9,"disp":0,"area":738.7},"geometry":{"type":"Polygon","coordinates":[[[3.8474,7.5087],[3.881,7.4961],[3.8908,7.4814],[3.8845,7.4799],[3.8858,7.4542],[3.8766,7.4452],[3.88,7.4346],[3.8658,7.432],[3.8653,7.4254],[3.8592,7.4232],[3.8525,7.4405],[3.816,7.4365],[3.824,7.4284],[3.8243,7.4094],[3.8359,7.4112],[3.8491,7.4067],[3.8454,7.3903],[3.8544,7.3827],[3.8388,7.3773],[3.8425,7.3614],[3.8354,7.3534],[3.8408,7.341],[3.8385,7.3303],[3.8239,7.3312],[3.813,7.3403],[3.8019,7.3388],[3.7715,7.3171],[3.7363,7.3007],[3.7143,7.3048],[3.7198,7.3874],[3.6935,7.388],[3.6935,7.4001],[3.7067,7.4115],[3.7071,7.4473],[3.5458,7.4408],[3.5406,7.4502],[3.5465,7.4553],[3.5483,7.4806],[3.5778,7.4985],[3.578,7.5135],[3.611,7.5827],[3.6086,7.6],[3.695,7.6512],[3.7245,7.6282],[3.7671,7.6083],[3.7937,7.5573],[3.8151,7.5512],[3.8206,7.5354],[3.8474,7.5087]]]}},{"id":"14","type":"Feature","properties":{"id":"NG031_31015","name":"Irepo","pop":95767,"density":100.2,"hf":25,"hf10k":2.61,"hf2":1,"hf3":1,"u15":37.2,"disp":0,"area":955.6},"geometry":{"type":"Polygon","coordinates":[[[3.7139,8.9722],[3.6915,8.9966],[3.7204,9.016],[3.7431,9.0469],[3.7523,9.0869],[3.7538,9.1207],[3.7707,9.1468],[3.8261,9.1822],[3.863,9.1883],[3.9214,9.1729],[3.9444,9.1483],[3.9721,9.0776],[3.9906,9.0484],[4.0121,9.0346],[4.2105,8.97],[4.173,8.9264],[4.1268,8.9058],[4.0569,8.8861],[3.9772,8.8755],[3.9373,8.8827],[3.8837,8.9163],[3.8771,8.9524],[3.8411,8.9774],[3.8018,8.9663],[3.7139,8.9722]]]}},{"id":"15","type":"Feature","properties":{"id":"NG031_31016","name":"Iseyin","pop":316241,"density":137.9,"hf":67,"hf10k":2.12,"hf2":2,"hf3":0,"u15":36.9,"disp":0,"area":2293.0},"geometry":{"type":"Polygon","coordinates":[[[3.5425,7.741],[3.5443,7.7117],[3.5389,7.7039],[3.5076,7.6967],[3.4909,7.7162],[3.4719,7.7192],[3.4528,7.6945],[3.4195,7.6762],[3.4139,7.6578],[3.3903,7.6645],[3.3694,7.6447],[3.3566,7.6407],[3.3497,7.6598],[3.3229,7.699],[3.3209,7.7179],[3.2926,7.7219],[3.2753,7.7316],[3.2823,7.7804],[3.2818,7.8159],[3.3096,7.8118],[3.3201,7.8039],[3.3398,7.81],[3.353,7.836],[3.3676,7.8341],[3.3848,7.8638],[3.4086,7.8834],[3.4108,7.894],[3.425,7.8961],[3.441,7.9136],[3.451,7.9369],[3.4523,7.9548],[3.465,7.9676],[3.456,8.0387],[3.458,8.0499],[3.4682,8.0609],[3.4598,8.0791],[3.4654,8.0964],[3.5016,8.0869],[3.5206,8.0953],[3.5306,8.0767],[3.5527,8.0807],[3.575,8.0925],[3.5717,8.1066],[3.5875,8.1178],[3.5934,8.1513],[3.6026,8.1687],[3.6042,8.1802],[3.5932,8.1876],[3.5918,8.2122],[3.6272,8.2609],[3.6277,8.3068],[3.6594,8.3154],[3.6877,8.4056],[3.797,8.3422],[3.8567,8.3271],[3.8531,8.223],[3.8169,8.174],[3.8101,8.1398],[3.7365,8.0661],[3.7362,8.0407],[3.7419,8.0214],[3.7251,8.0056],[3.7123,7.9815],[3.7139,7.9585],[3.7297,7.9313],[3.7325,7.9116],[3.7471,7.8859],[3.7469,7.8604],[3.7344,7.8383],[3.7329,7.8013],[3.6838,7.6963],[3.6314,7.7101],[3.6057,7.7425],[3.6087,7.7724],[3.5958,7.7864],[3.5779,7.7953],[3.5425,7.741]]]}},{"id":"16","type":"Feature","properties":{"id":"NG031_31017","name":"Itesiwaju","pop":149545,"density":87.0,"hf":24,"hf10k":1.6,"hf2":2,"hf3":0,"u15":36.9,"disp":0,"area":1719.3},"geometry":{"type":"Polygon","coordinates":[[[3.1658,8.1951],[3.1383,8.1806],[3.1174,8.1799],[3.1154,8.2128],[3.0739,8.2127],[3.0273,8.2194],[2.9601,8.2618],[2.9146,8.2535],[2.8967,8.2457],[2.8702,8.2594],[2.8679,8.3123],[2.8952,8.3397],[2.9285,8.3527],[2.9582,8.349],[2.9821,8.3304],[3.0667,8.3155],[3.1767,8.3334],[3.1839,8.3401],[3.1725,8.3694],[3.1954,8.3764],[3.2516,8.3706],[3.2688,8.351],[3.2806,8.3573],[3.2958,8.3437],[3.3614,8.3094],[3.3761,8.3133],[3.3833,8.3206],[3.4332,8.3198],[3.4788,8.3341],[3.4724,8.3572],[3.5334,8.383],[3.5478,8.3977],[3.684,8.4099],[3.6877,8.4056],[3.6594,8.3154],[3.6277,8.3068],[3.6272,8.2609],[3.5918,8.2122],[3.5932,8.1876],[3.6042,8.1802],[3.5875,8.1178],[3.5717,8.1066],[3.575,8.0925],[3.5527,8.0807],[3.5306,8.0767],[3.5206,8.0953],[3.5016,8.0869],[3.4654,8.0964],[3.4598,8.0791],[3.4682,8.0609],[3.4658,8.0545],[3.458,8.0499],[3.425,8.068],[3.427,8.0738],[3.4138,8.083],[3.4176,8.0881],[3.4121,8.0986],[3.4264,8.1164],[3.4249,8.1378],[3.4297,8.1488],[3.4202,8.1615],[3.3939,8.1685],[3.3871,8.1766],[3.3768,8.1695],[3.3607,8.1768],[3.3555,8.1926],[3.3412,8.204],[3.3146,8.1981],[3.3098,8.2016],[3.2924,8.1912],[3.2898,8.1699],[3.2976,8.1582],[3.2967,8.1436],[3.2614,8.0926],[3.2298,8.0705],[3.2194,8.0888],[3.2106,8.0874],[3.1978,8.0767],[3.1868,8.0809],[3.207,8.1125],[3.2016,8.1201],[3.1651,8.1245],[3.135,8.1338],[3.1338,8.1547],[3.1825,8.1725],[3.181,8.1903],[3.1658,8.1951]]]}},{"id":"17","type":"Feature","properties":{"id":"NG031_31018","name":"Iwajowa","pop":104129,"density":41.2,"hf":28,"hf10k":2.69,"hf2":2,"hf3":0,"u15":36.9,"disp":0,"area":2525.5},"geometry":{"type":"Polygon","coordinates":[[[3.353,7.836],[3.3398,7.81],[3.3201,7.8039],[3.3096,7.8118],[3.2818,7.8159],[3.2823,7.7804],[3.2442,7.7721],[3.1835,7.7874],[3.1731,7.8048],[3.1356,7.8086],[3.1444,7.8501],[3.1248,7.8611],[3.1045,7.8591],[3.0838,7.8747],[3.0486,7.8682],[3.0528,7.8489],[3.0454,7.8477],[3.041,7.8364],[3.0471,7.8319],[3.0482,7.8152],[3.0397,7.8097],[3.0327,7.7957],[3.0115,7.8304],[3.0061,7.8317],[2.9884,7.8558],[2.9818,7.8074],[2.9612,7.7442],[2.9441,7.7243],[2.9202,7.7078],[2.9188,7.7554],[2.8861,7.769],[2.8863,7.8251],[2.8809,7.8575],[2.8947,7.9019],[2.9282,7.9242],[2.9295,7.9291],[2.9102,7.9316],[2.8783,7.9263],[2.8487,7.931],[2.8333,7.9374],[2.8216,7.951],[2.8127,7.952],[2.7939,7.9423],[2.7853,7.9132],[2.7491,7.887],[2.7125,7.852],[2.6953,7.8824],[2.6926,7.9063],[2.7089,8.0081],[2.7275,8.1083],[2.7536,8.2069],[2.7464,8.2287],[2.8702,8.2594],[2.8967,8.2457],[2.9146,8.2535],[2.9601,8.2618],[3.0273,8.2194],[3.0739,8.2127],[3.1154,8.2128],[3.1174,8.1799],[3.1383,8.1806],[3.1658,8.1951],[3.181,8.1903],[3.1825,8.1725],[3.1338,8.1547],[3.135,8.1338],[3.1651,8.1245],[3.2016,8.1201],[3.207,8.1125],[3.1868,8.0809],[3.1978,8.0767],[3.2106,8.0874],[3.2194,8.0888],[3.2298,8.0705],[3.2274,8.0578],[3.2395,8.0523],[3.2441,8.0363],[3.2595,8.0389],[3.2643,8.0283],[3.2511,8.0242],[3.249,8.0189],[3.2878,7.9948],[3.2937,7.9832],[3.2948,7.9713],[3.2881,7.9608],[3.2706,7.9515],[3.2759,7.9392],[3.2972,7.9359],[3.3029,7.93],[3.2926,7.9187],[3.29,7.9081],[3.303,7.8953],[3.3036,7.8726],[3.3108,7.8755],[3.3183,7.866],[3.3273,7.8373],[3.3368,7.8362],[3.337,7.8313],[3.353,7.836]]]}},{"id":"18","type":"Feature","properties":{"id":"NG031_31019","name":"Kajola","pop":133291,"density":209.5,"hf":35,"hf10k":2.63,"hf2":1,"hf3":0,"u15":36.9,"disp":0,"area":636.2},"geometry":{"type":"Polygon","coordinates":[[[3.353,7.836],[3.337,7.8313],[3.3368,7.8362],[3.3273,7.8373],[3.3183,7.866],[3.3108,7.8755],[3.3036,7.8726],[3.303,7.8953],[3.29,7.9081],[3.2926,7.9187],[3.3029,7.93],[3.2972,7.9359],[3.2759,7.9392],[3.2706,7.9515],[3.2881,7.9608],[3.2948,7.9713],[3.2937,7.9832],[3.2878,7.9948],[3.249,8.0189],[3.2511,8.0242],[3.2643,8.0283],[3.2595,8.0389],[3.2441,8.0363],[3.2395,8.0523],[3.2274,8.0578],[3.2298,8.0705],[3.2614,8.0926],[3.2967,8.1436],[3.2976,8.1582],[3.2898,8.1699],[3.2924,8.1912],[3.3098,8.2016],[3.3146,8.1981],[3.3412,8.204],[3.3555,8.1926],[3.3607,8.1768],[3.3768,8.1695],[3.3871,8.1766],[3.3939,8.1685],[3.4202,8.1615],[3.4297,8.1488],[3.4249,8.1378],[3.4264,8.1164],[3.4121,8.0986],[3.4176,8.0881],[3.4138,8.083],[3.427,8.0738],[3.425,8.068],[3.458,8.0499],[3.4595,8.0004],[3.4642,7.9967],[3.4653,7.9728],[3.4523,7.9548],[3.451,7.9369],[3.441,7.9136],[3.425,7.8961],[3.4108,7.894],[3.4086,7.8834],[3.3848,7.8638],[3.3676,7.8341],[3.353,7.836]]]}},{"id":"19","type":"Feature","properties":{"id":"NG031_31020","name":"Lagelu","pop":678230,"density":1719.2,"hf":109,"hf10k":1.61,"hf2":6,"hf3":8,"u15":36.9,"disp":0,"area":394.5},"geometry":{"type":"Polygon","coordinates":[[[4.1371,7.4591],[4.1035,7.4608],[4.094,7.4338],[4.0795,7.4368],[4.057,7.4298],[4.0501,7.4505],[4.0544,7.4714],[4.026,7.4871],[4.0183,7.4861],[4.0119,7.4791],[4.015,7.465],[4.0253,7.4528],[4.0232,7.4491],[4.0316,7.4447],[4.0234,7.4318],[4.0057,7.4236],[4.0089,7.4164],[4.0,7.4107],[3.9811,7.4145],[3.9442,7.391],[3.9507,7.3979],[3.9438,7.4036],[3.9366,7.4231],[3.938,7.4408],[3.9295,7.4485],[3.9474,7.4804],[3.9488,7.4974],[3.9818,7.4927],[3.9767,7.508],[3.9635,7.5105],[3.9663,7.5205],[3.9857,7.5199],[3.9877,7.5136],[3.9949,7.5128],[4.0054,7.5157],[4.0127,7.5259],[4.0148,7.5313],[3.9903,7.5388],[3.9768,7.5607],[3.986,7.5949],[4.009,7.6162],[4.0236,7.6168],[4.0447,7.6302],[4.0631,7.6511],[4.0758,7.653],[4.0934,7.6215],[4.1387,7.5987],[4.1471,7.5722],[4.1538,7.5687],[4.1554,7.5092],[4.149,7.4775],[4.1355,7.4708],[4.1371,7.4591]],[[3.9538,7.4174],[3.9595,7.4096],[3.9695,7.412],[3.9631,7.4251],[3.9538,7.4174]]]}},{"id":"20","type":"Feature","properties":{"id":"NG031_31021","name":"Ogbomosho North","pop":583027,"density":3572.5,"hf":77,"hf10k":1.32,"hf2":0,"hf3":2,"u15":36.9,"disp":0,"area":163.2},"geometry":{"type":"Polygon","coordinates":[[[4.3173,8.0812],[4.3028,8.0571],[4.2918,8.0553],[4.2783,8.0729],[4.2758,8.0995],[4.2502,8.1155],[4.2457,8.1279],[4.2421,8.1302],[4.2164,8.1192],[4.2102,8.12],[4.2081,8.1316],[4.1983,8.1266],[4.2002,8.1368],[4.1881,8.1434],[4.1945,8.1478],[4.1948,8.1688],[4.2003,8.1803],[4.1978,8.188],[4.2042,8.206],[4.2397,8.2144],[4.2731,8.2078],[4.3083,8.2074],[4.3271,8.1456],[4.3262,8.1184],[4.3173,8.0812]]]}},{"id":"21","type":"Feature","properties":{"id":"NG031_31022","name":"Ogbomosho South","pop":173272,"density":3920.2,"hf":31,"hf10k":1.79,"hf2":0,"hf3":0,"u15":36.9,"disp":0,"area":44.2},"geometry":{"type":"Polygon","coordinates":[[[4.2139,8.0956],[4.194,8.0827],[4.1759,8.0959],[4.186,8.1109],[4.1838,8.127],[4.2027,8.1271],[4.2081,8.1316],[4.2102,8.12],[4.2164,8.1192],[4.2421,8.1302],[4.2502,8.1155],[4.2758,8.0995],[4.2798,8.0806],[4.2783,8.0729],[4.2737,8.072],[4.2673,8.0763],[4.23,8.081],[4.2139,8.0956]]]}},{"id":"22","type":"Feature","properties":{"id":"NG031_31023","name":"Ogo Oluwa","pop":112532,"density":258.3,"hf":40,"hf10k":3.55,"hf2":0,"hf3":0,"u15":36.9,"disp":0,"area":435.7},"geometry":{"type":"Polygon","coordinates":[[[4.3602,7.8828],[4.3282,7.935],[4.3071,7.9445],[4.2763,7.9712],[4.2653,7.9701],[4.2356,7.9564],[4.234,7.9312],[4.2302,7.9278],[4.1913,7.9102],[4.2028,7.8687],[4.1471,7.8496],[4.1166,7.8492],[4.0991,7.8637],[4.0902,7.8601],[4.088,7.9105],[4.082,7.9111],[4.0785,7.9291],[4.0879,7.9422],[4.1043,7.9352],[4.1295,7.9565],[4.1149,7.9848],[4.1289,8.0162],[4.139,8.023],[4.1533,8.0185],[4.168,8.0275],[4.1514,8.0438],[4.1378,8.0272],[4.1307,8.0351],[4.132,8.0428],[4.146,8.0493],[4.1466,8.0599],[4.1626,8.0725],[4.1759,8.0959],[4.194,8.0827],[4.2139,8.0956],[4.23,8.081],[4.2783,8.0729],[4.2918,8.0553],[4.2848,8.0464],[4.3322,7.9623],[4.337,7.9461],[4.3453,7.9408],[4.3669,7.9402],[4.3734,7.9222],[4.3972,7.8965],[4.3861,7.8687],[4.3711,7.8487],[4.3659,7.8515],[4.3602,7.8828]]]}},{"id":"23","type":"Feature","properties":{"id":"NG031_31024","name":"Olorunsogo","pop":92098,"density":56.4,"hf":36,"hf10k":3.91,"hf2":1,"hf3":0,"u15":37.0,"disp":0,"area":1632.8},"geometry":{"type":"MultiPolygon","coordinates":[[[[4.1533,8.0185],[4.1378,8.0272],[4.1514,8.0438],[4.168,8.0275],[4.1533,8.0185]]],[[[4.195,8.8163],[4.1904,8.7533],[4.2134,8.6826],[4.2091,8.6807],[4.269,8.5558],[4.1876,8.5003],[4.0917,8.5091],[4.0478,8.5062],[3.9314,8.469],[3.8742,8.5542],[3.9052,8.6454],[3.8779,8.6923],[3.8966,8.7504],[3.9162,8.775],[3.9733,8.8704],[3.9772,8.8755],[4.0569,8.8861],[4.1268,8.9058],[4.173,8.9264],[4.2105,8.97],[4.2534,8.967],[4.2903,8.9916],[4.3164,8.9977],[4.3256,8.9946],[4.3349,8.9808],[4.3349,8.9577],[4.321,8.9424],[4.258,8.9009],[4.2211,8.8609],[4.195,8.8163]]]]}},{"id":"24","type":"Feature","properties":{"id":"NG031_31025","name":"Oluyole","pop":737159,"density":1114.7,"hf":68,"hf10k":0.92,"hf2":1,"hf3":1,"u15":36.9,"disp":0,"area":661.3},"geometry":{"type":"Polygon","coordinates":[[[3.9847,7.2269],[3.9965,7.1764],[3.9893,7.1448],[3.999,7.1266],[3.9656,7.1098],[3.9602,7.0923],[3.9534,7.0881],[3.9389,7.0839],[3.7838,7.0801],[3.7312,7.0806],[3.7248,7.0877],[3.7274,7.0969],[3.7815,7.1212],[3.7929,7.1323],[3.7872,7.1639],[3.7773,7.1806],[3.7804,7.2027],[3.7636,7.2305],[3.7623,7.3009],[3.7363,7.3007],[3.7715,7.3171],[3.8019,7.3388],[3.813,7.3403],[3.8239,7.3312],[3.8385,7.3303],[3.8408,7.341],[3.8354,7.3534],[3.8414,7.3574],[3.8462,7.3555],[3.8422,7.3501],[3.8555,7.3363],[3.871,7.3402],[3.8681,7.3317],[3.8752,7.3301],[3.9098,7.3424],[3.9146,7.3367],[3.9266,7.3373],[3.9391,7.3268],[3.9598,7.3366],[3.9632,7.3236],[3.9542,7.3165],[3.9541,7.3072],[3.9687,7.3123],[3.976,7.299],[3.9707,7.2883],[3.974,7.2763],[3.9961,7.2669],[3.9952,7.2429],[3.9847,7.2269]]]}},{"id":"25","type":"Feature","properties":{"id":"NG031_31026","name":"Ona Ara","pop":482737,"density":1513.3,"hf":83,"hf10k":1.72,"hf2":0,"hf3":0,"u15":36.9,"disp":0,"area":319.0},"geometry":{"type":"Polygon","coordinates":[[[4.0942,7.2282],[4.072,7.1628],[4.0855,7.1512],[4.0726,7.1468],[4.0711,7.139],[4.0764,7.1349],[4.0845,7.1399],[4.0884,7.1334],[4.0691,7.1323],[4.0459,7.1384],[4.0193,7.1246],[3.999,7.1266],[3.9893,7.1448],[3.9965,7.1764],[3.9847,7.2269],[3.9952,7.2429],[3.9961,7.2669],[3.974,7.2763],[3.9707,7.2883],[3.976,7.299],[3.9687,7.3123],[3.9541,7.3072],[3.9542,7.3165],[3.9632,7.3236],[3.9598,7.3366],[3.9391,7.3268],[3.926,7.3375],[3.9402,7.3585],[3.9386,7.3782],[3.9577,7.3699],[3.9547,7.3534],[3.9617,7.3569],[3.9721,7.3527],[3.9803,7.3622],[3.9879,7.3511],[4.0,7.3462],[4.0046,7.3466],[4.0116,7.3583],[4.0354,7.3588],[4.0603,7.3481],[4.0727,7.3598],[4.1026,7.3446],[4.0775,7.3223],[4.0724,7.3041],[4.0901,7.2939],[4.1257,7.3118],[4.1313,7.2995],[4.1297,7.2768],[4.1254,7.2578],[4.1112,7.2512],[4.1026,7.2331],[4.0942,7.2282]]]}},{"id":"26","type":"Feature","properties":{"id":"NG031_31027","name":"Orelope","pop":105287,"density":99.8,"hf":21,"hf10k":1.99,"hf2":1,"hf3":0,"u15":37.0,"disp":0,"area":1054.7},"geometry":{"type":"Polygon","coordinates":[[[3.8743,8.5556],[3.7714,8.6572],[3.7682,8.6663],[3.7192,8.7057],[3.6944,8.7534],[3.6642,8.7687],[3.654,8.7901],[3.6614,8.8392],[3.6459,8.847],[3.6212,8.895],[3.608,8.897],[3.605,8.9148],[3.6173,8.9288],[3.6028,8.9453],[3.5957,8.9993],[3.6175,9.0032],[3.6605,8.9985],[3.6738,9.0046],[3.6871,9.0034],[3.7174,8.9692],[3.8018,8.9663],[3.8411,8.9774],[3.8771,8.9524],[3.8837,8.9163],[3.9373,8.8827],[3.9772,8.8755],[3.9162,8.775],[3.8966,8.7504],[3.8857,8.7248],[3.8779,8.6923],[3.9052,8.6454],[3.8743,8.5556]]]}},{"id":"27","type":"Feature","properties":{"id":"NG031_31028","name":"Ori Ire","pop":236848,"density":114.2,"hf":60,"hf10k":2.53,"hf2":1,"hf3":0,"u15":37.3,"disp":0,"area":2074.4},"geometry":{"type":"Polygon","coordinates":[[[4.131,8.0412],[4.139,8.023],[4.1289,8.0162],[4.1149,7.9848],[4.1295,7.9565],[4.1043,7.9352],[4.0879,7.9422],[4.0761,7.963],[4.0651,7.9721],[4.057,7.9718],[4.0449,7.9795],[4.0496,8.0194],[4.0457,8.0397],[4.0388,8.0429],[4.0147,8.0304],[4.0073,8.037],[4.014,8.0596],[4.0285,8.0638],[4.0332,8.0702],[4.0292,8.0807],[4.0343,8.0928],[4.013,8.1248],[3.9809,8.1395],[3.9966,8.1684],[3.9885,8.1888],[3.8987,8.187],[3.8531,8.223],[3.8567,8.3271],[3.9043,8.3729],[3.9314,8.469],[4.0478,8.5062],[4.0917,8.5091],[4.1876,8.5003],[4.269,8.5558],[4.3917,8.304],[4.3505,8.2934],[4.321,8.2687],[4.2797,8.2082],[4.2397,8.2144],[4.2042,8.206],[4.1978,8.188],[4.2003,8.1803],[4.1948,8.1688],[4.1945,8.1478],[4.1881,8.1434],[4.2002,8.1368],[4.1983,8.1266],[4.1838,8.127],[4.186,8.1109],[4.1681,8.08],[4.1466,8.0599],[4.146,8.0493],[4.131,8.0412]]]}},{"id":"28","type":"Feature","properties":{"id":"NG031_31029","name":"Oyo East","pop":143850,"density":1324.6,"hf":32,"hf10k":2.22,"hf2":1,"hf3":0,"u15":36.9,"disp":0,"area":108.6},"geometry":{"type":"Polygon","coordinates":[[[3.956,7.7988],[3.9387,7.7964],[3.9388,7.8016],[3.9347,7.8022],[3.94,7.8338],[3.9345,7.8432],[3.9238,7.8461],[3.9195,7.8416],[3.9193,7.8531],[3.9294,7.8494],[3.9423,7.8637],[3.9561,7.8626],[3.976,7.8506],[3.984,7.8525],[3.9904,7.8612],[4.0311,7.8809],[4.018,7.9179],[4.0248,7.9268],[4.0427,7.9265],[4.0584,7.9465],[4.0706,7.9517],[4.0855,7.9501],[4.0879,7.9422],[4.0785,7.9291],[4.082,7.9111],[4.088,7.9105],[4.0897,7.8712],[4.0597,7.8626],[4.0425,7.8425],[4.0194,7.8384],[4.0042,7.8265],[3.9929,7.8237],[3.9869,7.8351],[3.9723,7.8336],[3.9554,7.8174],[3.9669,7.8111],[3.956,7.7988]]]}},{"id":"29","type":"Feature","properties":{"id":"NG031_31030","name":"Oyo West","pop":333853,"density":661.1,"hf":62,"hf10k":1.86,"hf2":0,"hf3":2,"u15":36.9,"disp":0,"area":505.0},"geometry":{"type":"MultiPolygon","coordinates":[[[[3.976,7.8506],[3.9561,7.8626],[3.9633,7.8742],[3.962,7.8853],[3.9877,7.9051],[3.9981,7.905],[4.018,7.9179],[4.0311,7.8809],[3.9904,7.8612],[3.984,7.8525],[3.976,7.8506]]],[[[3.7469,7.8604],[3.7471,7.8859],[3.7325,7.9116],[3.7297,7.9313],[3.7139,7.9585],[3.7123,7.9817],[3.7251,8.0056],[3.7419,8.0214],[3.7362,8.0407],[3.7365,8.0661],[3.8101,8.1398],[3.7998,8.0435],[3.8035,8.0236],[3.8213,8.0175],[3.8441,7.9984],[3.8602,7.9916],[3.88,7.9608],[3.924,7.9668],[3.9322,7.9545],[3.9346,7.9365],[3.9419,7.9333],[3.9335,7.9091],[3.9159,7.9062],[3.9033,7.8881],[3.9188,7.8858],[3.9245,7.881],[3.9194,7.8774],[3.9372,7.8636],[3.9297,7.8495],[3.9204,7.8537],[3.9167,7.8482],[3.9195,7.8416],[3.9238,7.8461],[3.9364,7.8421],[3.94,7.8338],[3.9295,7.7879],[3.8974,7.7766],[3.8822,7.7881],[3.8858,7.7917],[3.8798,7.7972],[3.8865,7.802],[3.8862,7.8122],[3.867,7.8482],[3.8674,7.8566],[3.8623,7.859],[3.8581,7.8603],[3.8346,7.8427],[3.7745,7.8473],[3.7469,7.8604]]]]}},{"id":"30","type":"Feature","properties":{"id":"NG031_31031","name":"Saki East","pop":81718,"density":64.0,"hf":19,"hf10k":2.33,"hf2":2,"hf3":0,"u15":37.3,"disp":0,"area":1276.6},"geometry":{"type":"Polygon","coordinates":[[[3.7192,8.7057],[3.7682,8.6663],[3.7714,8.6572],[3.8742,8.5542],[3.8105,8.5466],[3.7682,8.514],[3.686,8.4318],[3.6726,8.4577],[3.5936,8.4926],[3.5754,8.5195],[3.5836,8.5548],[3.5394,8.5769],[3.5321,8.5859],[3.5264,8.6052],[3.4844,8.6807],[3.4863,8.7187],[3.4366,8.8163],[3.4326,8.8382],[3.4192,8.8621],[3.5248,8.9285],[3.6,8.9569],[3.6028,8.9453],[3.6173,8.9288],[3.605,8.9148],[3.608,8.897],[3.6212,8.895],[3.6459,8.847],[3.6614,8.8392],[3.654,8.7901],[3.6642,8.7687],[3.6944,8.7534],[3.7192,8.7057]]]}},{"id":"31","type":"Feature","properties":{"id":"NG031_31032","name":"Saki West","pop":350562,"density":170.2,"hf":84,"hf10k":2.4,"hf2":3,"hf3":1,"u15":37.3,"disp":0,"area":2060.3},"geometry":{"type":"Polygon","coordinates":[[[3.4844,8.6807],[3.5264,8.6052],[3.5321,8.5859],[3.5,8.5674],[3.443,8.5514],[3.4327,8.5693],[3.4166,8.5694],[3.3901,8.5807],[3.3613,8.5848],[3.3566,8.5809],[3.3239,8.5801],[3.3251,8.5751],[3.3609,8.5508],[3.342,8.5369],[3.3351,8.5227],[3.3103,8.5354],[3.2748,8.5343],[3.2614,8.5219],[3.2359,8.5223],[3.2207,8.5159],[3.2133,8.5076],[3.2113,8.4845],[3.1931,8.481],[3.1971,8.4435],[3.1661,8.4518],[3.1454,8.4404],[3.1133,8.4616],[3.0923,8.4832],[3.0588,8.4947],[3.0528,8.5019],[2.9579,8.509],[2.9008,8.4942],[2.8847,8.4818],[2.8196,8.4676],[2.7711,8.4355],[2.7247,8.4314],[2.7525,8.4619],[2.7628,8.5192],[2.753,8.5356],[2.7564,8.5752],[2.8024,8.6104],[2.9207,8.6119],[3.0145,8.7103],[3.1036,8.7502],[3.1636,8.8086],[3.1836,8.8117],[3.1974,8.7963],[3.2374,8.7825],[3.2819,8.804],[3.388,8.8425],[3.4192,8.8621],[3.4326,8.8382],[3.4366,8.8163],[3.4863,8.7187],[3.4844,8.6807]]]}},{"id":"32","type":"Feature","properties":{"id":"NG031_31033","name":"Surulere","pop":170319,"density":200.4,"hf":46,"hf10k":2.7,"hf2":1,"hf3":0,"u15":37.1,"disp":0,"area":849.7},"geometry":{"type":"Polygon","coordinates":[[[4.4582,7.9415],[4.4418,7.9289],[4.433,7.8916],[4.4225,7.8884],[4.4075,7.8984],[4.3972,7.8965],[4.3734,7.9222],[4.3669,7.9402],[4.3453,7.9408],[4.337,7.9461],[4.3322,7.9623],[4.2848,8.0464],[4.2918,8.0553],[4.3028,8.0571],[4.3153,8.0762],[4.3262,8.1184],[4.3271,8.1456],[4.3083,8.2074],[4.2797,8.2082],[4.321,8.2687],[4.3505,8.2934],[4.3917,8.304],[4.4805,8.2105],[4.4941,8.1667],[4.4954,8.1171],[4.5056,8.092],[4.5335,8.0716],[4.569,8.0548],[4.5607,8.054],[4.5592,8.049],[4.563,8.009],[4.5573,7.9808],[4.5497,7.9708],[4.4959,7.9434],[4.4582,7.9415]]]}}]}